{
 "type": "FeatureCollection",
 "features": [
  {
   "type": "Feature",
   "geometry": {
    "type": "LineString",
    "coordinates": [
     [
      -81.55974984019787,
      28.41108402999295
     ],
     [
      -81.55974647934275,
      28.411037939000945
     ],
     [
      -81.55973634737789,
      28.41099262874458
     ],
     [
      -81.55971961947306,
      28.410948873413552
     ],
     [
      -81.55969658031088,
      28.410907420618273
     ],
     [
      -81.55966762479535,
      28.410868978323098
     ],
     [
      -81.5596332447658,
      28.410834202524594
     ],
     [
      -81.559594029731,
      28.410803688997717
     ],
     [
      -81.5595506496699,
      28.410777956177178
     ]
    ]
   },
   "properties": {
    "theoretical_left": [
     400,
     424
    ],
    "theoretical_right": [
     401,
     425
    ],
    "from": "Big Pine Dr, Bay Tree Ln",
    "to": "Whispering Pine Way",
    "length_ft": 134.7
   }
  },
  {
   "type": "Feature",
   "geometry": {
    "type": "LineString",
    "coordinates": [
     [
      -81.55902545555581,
      28.410081100290803
     ],
     [
      -81.55906096892117,
      28.41006944317574
     ],
     [
      -81.55909769724903,
      28.410062506506144
     ],
     [
      -81.55913501594081,
      28.410060408246366
     ],
     [
      -81.55917229035836,
      28.410063184079217
     ],
     [
      -81.55920830490452,
      28.410070184157068
     ],
     [
      -81.5592430484416,
      28.410081971237055
     ],
     [
      -81.55927588779146,
      28.410098330507374
     ],
     [
      -81.55930622447846,
      28.410118963831057
     ],
     [
      -81.55933350563639,
      28.4101434951793
     ],
     [
      -81.55946843781996,
      28.4102851348544
     ],
     [
      -81.55959905093387,
      28.41043076694633
     ],
     [
      -81.55961173718781,
      28.410447176952296
     ],
     [
      -81.55962161395644,
      28.410465416436285
     ],
     [
      -81.55962842319872,
      28.410485008872435
     ],
     [
      -81.55963198701596,
      28.41050544238758
     ],
     [
      -81.55963221229968,
      28.41052618313448
     ],
     [
      -81.55962909316409,
      28.41054668923913
     ],
     [
      -81.55962271109992,
      28.410566424957803
     ],
     [
      -81.55960353541292,
      28.41063852440025
     ],
     [
      -81.55957947744182,
      28.410709144868953
     ],
     [
      -81.5595506496699,
      28.410777956177178
     ]
    ]
   },
   "properties": {
    "theoretical_left": [
     452,
     498
    ],
    "theoretical_right": [
     453,
     499
    ],
    "from": "Whispering Pine Way",
    "to": "Whispering Pine Way",
    "length_ft": 377.3
   }
  }
 ]
}