{
 "type": "FeatureCollection",
 "features": [
  {
   "type": "Feature",
   "geometry": {
    "type": "LineString",
    "coordinates": [
     [
      -81.5555294,
      28.405569
     ],
     [
      -81.555484,
      28.4055246
     ],
     [
      -81.5554522,
      28.4054935
     ],
     [
      -81.5553749,
      28.4054633
     ],
     [
      -81.5552805,
      28.4053802
     ],
     [
      -81.5552032,
      28.4052896
     ],
     [
      -81.5550917,
      28.4052594
     ],
     [
      -81.5549286,
      28.4052745
     ],
     [
      -81.5547998,
      28.4053274
     ],
     [
      -81.5546625,
      28.4053727
     ],
     [
      -81.5545681,
      28.4054708
     ],
     [
      -81.5545595,
      28.4055992
     ],
     [
      -81.554611,
      28.40572
     ],
     [
      -81.5546968,
      28.4058332
     ],
     [
      -81.5548342,
      28.405871
     ],
     [
      -81.5550058,
      28.4058559
     ],
     [
      -81.5551603,
      28.4058257
     ],
     [
      -81.5552719,
      28.4057426
     ],
     [
      -81.5553921,
      28.4056596
     ],
     [
      -81.5555294,
      28.405569
     ]
    ]
   },
   "properties": {
    "source": "OpenStreetMap",
    "streets": [
     "Cottontail Curl"
    ],
    "length_ft": 825.9
   }
  }
 ]
}