{
 "type": "FeatureCollection",
 "features": [
  {
   "type": "Feature",
   "geometry": {
    "type": "LineString",
    "coordinates": [
     [
      -81.55811883690835,
      28.402734683495904
     ],
     [
      -81.55807097863939,
      28.402735873040246
     ],
     [
      -81.55802378258663,
      28.402743895603777
     ],
     [
      -81.5579782192796,
      28.40275858621221
     ],
     [
      -81.55793522567247,
      28.402779642771005
     ],
     [
      -81.55789830501587,
      28.402802063170583
     ],
     [
      -81.55786508528739,
      28.40282967220606
     ],
     [
      -81.55783628968307,
      28.402861868826584
     ],
     [
      -81.55781254508548,
      28.402897952109225
     ],
     [
      -81.55779436841635,
      28.402937136518116
     ],
     [
      -81.55778215538318,
      28.40297856900563
     ],
     [
      -81.55777617186465,
      28.403021347583287
     ],
     [
      -81.55777654812242,
      28.403064540958137
     ],
     [
      -81.55782477027407,
      28.40344946726408
     ]
    ]
   },
   "properties": {
    "theoretical_left": [
     1152,
     1198
    ],
    "theoretical_right": [
     1153,
     1199
    ],
    "from": "Possum Path",
    "to": "Possum Path",
    "length_ft": 325.5
   }
  }
 ]
}