{
 "type": "FeatureCollection",
 "features": [
  {
   "type": "Feature",
   "geometry": {
    "type": "LineString",
    "coordinates": [
     [
      -81.56008523427519,
      28.41059106941251
     ],
     [
      -81.56014292194499,
      28.410548217329477
     ],
     [
      -81.56019616078652,
      28.410499949389603
     ],
     [
      -81.5602444443712,
      28.41044672473631
     ],
     [
      -81.56028731340677,
      28.410389049663223
     ],
     [
      -81.5603243601063,
      28.410327472798077
     ],
     [
      -81.56034077581768,
      28.410287476682687
     ],
     [
      -81.56035218268852,
      28.41024577478676
     ],
     [
      -81.56035840985561,
      28.410202991761896
     ],
     [
      -81.56035936404237,
      28.4101597684539
     ],
     [
      -81.56035503095609,
      28.41011675230357
     ],
     [
      -81.56034547550192,
      28.41007458764868
     ],
     [
      -81.56033084081076,
      28.410033906072492
     ],
     [
      -81.56030111597842,
      28.4099645815509
     ],
     [
      -81.56026561190225,
      28.40989803145302
     ],
     [
      -81.56022458504164,
      28.4098347364954
     ],
     [
      -81.56019782315538,
      28.409798804189013
     ],
     [
      -81.56016937504366,
      28.40976419155927
     ],
     [
      -81.56013050232765,
      28.409726639728746
     ],
     [
      -81.56008848130163,
      28.409692647650296
     ],
     [
      -81.5600436368255,
      28.40966247811292
     ],
     [
      -81.55998243329016,
      28.409616081041875
     ],
     [
      -81.55992478967397,
      28.40956532895372
     ],
     [
      -81.5598710151706,
      28.409510494076788
     ],
     [
      -81.5598213982203,
      28.409451870539012
     ],
     [
      -81.55977503332588,
      28.409387955727023
     ],
     [
      -81.55973356018733,
      28.409320763574183
     ],
     [
      -81.55969720942663,
      28.40925066771965
     ],
     [
      -81.5596661831815,
      28.40917805794938
     ],
     [
      -81.55964065398135,
      28.40910333802858
     ],
     [
      -81.55955523914731,
      28.40880830952595
     ],
     [
      -81.55954764001868,
      28.40878705371581
     ],
     [
      -81.55952763415074,
      28.408745459338565
     ],
     [
      -81.55950291047229,
      28.40870648413242
     ],
     [
      -81.55947380691218,
      28.408670660819347
     ],
     [
      -81.5594407212645,
      28.408638479040537
     ],
     [
      -81.55940410575138,
      28.40861037866385
     ],
     [
      -81.559364460842,
      28.40858674377163
     ],
     [
      -81.55930120225804,
      28.408556437067915
     ],
     [
      -81.55923563385805,
      28.408531518607724
     ],
     [
      -81.5591682136534,
      28.408512162452613
     ],
     [
      -81.55910471184629,
      28.408501927421465
     ],
     [
      -81.55904047984589,
      28.408498538396092
     ],
     [
      -81.55897625356867,
      28.408502034205107
     ],
     [
      -81.55891276886548,
      28.408512374796455
     ]
    ]
   },
   "properties": {
    "theoretical_left": [
     700,
     798
    ],
    "theoretical_right": [
     701,
     799
    ],
    "from": "Fort Wilderness Trl",
    "to": "Fort Wilderness Trl, Sunny Sage Way",
    "length_ft": 1013.5
   }
  }
 ]
}