{
 "type": "FeatureCollection",
 "features": [
  {
   "type": "Feature",
   "geometry": {
    "type": "LineString",
    "coordinates": [
     [
      -81.55980157997212,
      28.411456332981512
     ],
     [
      -81.55984539690512,
      28.411458006610594
     ],
     [
      -81.55988904277483,
      28.411454213920972
     ],
     [
      -81.55993165318023,
      28.411445030663284
     ],
     [
      -81.55997237750925,
      28.4114306404838
     ],
     [
      -81.56001040845841,
      28.411411328614562
     ],
     [
      -81.5600487558574,
      28.411402502517237
     ],
     [
      -81.56008814363366,
      28.41139867089146
     ],
     [
      -81.56012774396761,
      28.411399912775465
     ],
     [
      -81.56016672537932,
      28.41140620271017
     ],
     [
      -81.56020460204438,
      28.411420096394085
     ],
     [
      -81.56023985810849,
      28.41143861112087
     ],
     [
      -81.56027177845007,
      28.411461370286105
     ],
     [
      -81.56029971282535,
      28.411487912445605
     ],
     [
      -81.56032309300957,
      28.411517697433037
     ],
     [
      -81.56034144608988,
      28.41155012005673
     ],
     [
      -81.56040359764386,
      28.411720165982835
     ],
     [
      -81.5604620257755,
      28.41189124138828
     ],
     [
      -81.56046558690682,
      28.41190972008349
     ],
     [
      -81.56046552849224,
      28.411928464643097
     ],
     [
      -81.56046185152611,
      28.411946925680734
     ],
     [
      -81.56045466591769,
      28.411964560924993
     ],
     [
      -81.56044418047554,
      28.41198085313799
     ],
     [
      -81.56043070298033,
      28.41199532386686
     ],
     [
      -81.56041463092869,
      28.412007547921263
     ],
     [
      -81.56038629570646,
      28.412025741184657
     ],
     [
      -81.56035576150886,
      28.41204089954041
     ],
     [
      -81.56032344255773,
      28.412052819819817
     ],
     [
      -81.5602352920922,
      28.412071252252687
     ],
     [
      -81.56014570233383,
      28.412083081458558
     ]
    ]
   },
   "properties": {
    "theoretical_left": [
     126,
     150
    ],
    "theoretical_right": [
     127,
     151
    ],
    "from": "Palmetto Path",
    "to": "Palmetto Path",
    "length_ft": 471.0
   }
  }
 ]
}