{
 "type": "FeatureCollection",
 "features": [
  {
   "type": "Feature",
   "geometry": {
    "type": "LineString",
    "coordinates": [
     [
      -81.55323680040459,
      28.40411948101996
     ],
     [
      -81.55327785944533,
      28.40414706598105
     ],
     [
      -81.55332225661546,
      28.404168875753864
     ],
     [
      -81.55336918452872,
      28.40418451371605
     ],
     [
      -81.55341778977599,
      28.404193695482924
     ],
     [
      -81.55346718844491,
      28.404196254079146
     ],
     [
      -81.55351648219431,
      28.40419214297529
     ],
     [
      -81.55356477459107,
      28.404181436933964
     ],
     [
      -81.55361118741216,
      28.40416433065025
     ],
     [
      -81.5536548766157,
      28.404141135211038
     ],
     [
      -81.55369504769017,
      28.404112272437775
     ],
     [
      -81.5537311354454,
      28.404084337397233
     ],
     [
      -81.55377063009088,
      28.404061471143788
     ],
     [
      -81.55381282430632,
      28.404044083195338
     ],
     [
      -81.55385696242412,
      28.404032484957355
     ],
     [
      -81.55390225396282,
      28.404026884145807
     ],
     [
      -81.55400604581862,
      28.404020438072937
     ],
     [
      -81.55410946067299,
      28.40400949873635
     ],
     [
      -81.55414925405691,
      28.404006586691303
     ],
     [
      -81.55418806838925,
      28.40399734326044
     ],
     [
      -81.55422490295369,
      28.40398200675913
     ],
     [
      -81.55425880807653,
      28.403960972595122
     ],
     [
      -81.5542889096113,
      28.40393478307406
     ],
     [
      -81.55431443147621,
      28.403904113417703
     ],
     [
      -81.5543347156631,
      28.40386975435526
     ],
     [
      -81.55434923920232,
      28.4038325917367
     ],
     [
      -81.55435762764604,
      28.403793583693663
     ],
     [
      -81.55435966472226,
      28.40375373593676
     ],
     [
      -81.55435529791082,
      28.403714075826226
     ],
     [
      -81.55433594771984,
      28.40366692624121
     ],
     [
      -81.55431162526492,
      28.40362213861518
     ],
     [
      -81.55428261428875,
      28.403580235434873
     ],
     [
      -81.55424925322967,
      28.40354170553745
     ],
     [
      -81.55421193127356,
      28.40350699840779
     ],
     [
      -81.55417108381357,
      28.403476518934838
     ],
     [
      -81.554127187371,
      28.403450622688254
     ],
     [
      -81.55383074547466,
      28.403301924988277
     ]
    ]
   },
   "properties": {
    "theoretical_left": [
     1852,
     1898
    ],
    "theoretical_right": [
     1853,
     1899
    ],
    "from": "Conestoga Trl",
    "to": "Conestoga Trl",
    "length_ft": 689.1
   }
  }
 ]
}