{
 "type": "FeatureCollection",
 "features": [
  {
   "type": "Feature",
   "geometry": {
    "type": "LineString",
    "coordinates": [
     [
      -81.5588031,
      28.4052879
     ],
     [
      -81.558894,
      28.4052443
     ],
     [
      -81.5590055,
      28.4051915
     ],
     [
      -81.5591171,
      28.4051009
     ],
     [
      -81.5591686,
      28.4049348
     ],
     [
      -81.5591944,
      28.4047989
     ],
     [
      -81.5591772,
      28.4046253
     ],
     [
      -81.5590656,
      28.4044894
     ],
     [
      -81.5589111,
      28.4043912
     ],
     [
      -81.5587062,
      28.4043593
     ],
     [
      -81.5585211,
      28.40441
     ],
     [
      -81.5584059,
      28.4044941
     ],
     [
      -81.5582985,
      28.4045941
     ]
    ]
   },
   "properties": {
    "source": "OpenStreetMap",
    "streets": [
     "Racoon Lane"
    ],
    "length_ft": 649.5
   }
  }
 ]
}