{"type": "FeatureCollection", "features": [{"type": "Feature", "geometry": {"type": "Point", "coordinates": [-81.5566073, 28.4058076]}, "properties": {"kind": "amenity", "name": null, "highway": null}}, {"type": "Feature", "geometry": {"type": "Point", "coordinates": [-81.5566041, 28.4057919]}, "properties": {"kind": "amenity", "name": null, "highway": null}}, {"type": "Feature", "geometry": {"type": "Point", "coordinates": [-81.5566014, 28.4057769]}, "properties": {"kind": "amenity", "name": null, "highway": null}}, {"type": "Feature", "geometry": {"type": "LineString", "coordinates": [[-81.5570245, 28.4023338], [-81.5565658, 28.4025155], [-81.5563417, 28.4026469], [-81.5561443, 28.402896], [-81.5560242, 28.4031225], [-81.5559641, 28.4033867], [-81.5559757, 28.4037042], [-81.5559668, 28.4038658], [-81.5559641, 28.4039152], [-81.5559525, 28.4040693], [-81.5558954, 28.4042701], [-81.5557842, 28.4046143], [-81.555737, 28.4048008], [-81.5557236, 28.4049993], [-81.5557237, 28.4053119], [-81.5557223, 28.4053948], [-81.5557182, 28.4055614], [-81.5557348, 28.4058163]]}, "properties": {"kind": "road", "name": "Big Pine Trail", "highway": "unclassified"}}, {"type": "Feature", "geometry": {"type": "LineString", "coordinates": [[-81.5576387, 28.4138216], [-81.557644, 28.4136838], [-81.5576307, 28.4135456], [-81.5575501, 28.4132812], [-81.5573576, 28.4128652], [-81.5573272, 28.4127978], [-81.5571259, 28.4123519], [-81.5569714, 28.4120197], [-81.5568856, 28.4118536], [-81.5567997, 28.4117253], [-81.5567311, 28.4116422], [-81.5565852, 28.4115063], [-81.5564307, 28.4113856], [-81.5562342, 28.4112712], [-81.5559243, 28.4111138], [-81.5554865, 28.4108797], [-81.5553835, 28.4108043], [-81.5551346, 28.4106155], [-81.55493, 28.410411], [-81.5547312, 28.4101626], [-81.5546111, 28.4099663], [-81.5545338, 28.40977], [-81.5544912, 28.4095924], [-81.5544504, 28.4093528], [-81.5544528, 28.40909], [-81.5544733, 28.4087917], [-81.554551, 28.4079581], [-81.5545681, 28.4077694], [-81.5545681, 28.4074901], [-81.5545424, 28.4072258], [-81.5545166, 28.407022], [-81.5544737, 28.40672], [-81.5544051, 28.4064935], [-81.5538987, 28.4054064], [-81.5538214, 28.4052705], [-81.5537442, 28.4051195], [-81.5536154, 28.4049307], [-81.5533837, 28.4046967], [-81.5531605, 28.4044853], [-81.5529717, 28.4042965], [-81.5524728, 28.4039554], [-81.5521026, 28.4037148], [-81.551821, 28.4035779], [-81.5514348, 28.4034128], [-81.5511505, 28.4033184], [-81.5509681, 28.4032783], [-81.5489119, 28.4028394], [-81.5486345, 28.4027663], [-81.5483019, 28.402613], [-81.5480766, 28.4024431], [-81.5478476, 28.4021826], [-81.5475901, 28.4019032], [-81.5474356, 28.4017447], [-81.5471781, 28.4013747], [-81.5470236, 28.4010425], [-81.5468589, 28.4006995], [-81.5467057, 28.4002752], [-81.5466658, 28.4001249], [-81.5466282, 28.3997642], [-81.5465553, 28.3993391], [-81.5464651, 28.3989685], [-81.5463971, 28.3967087], [-81.5463542, 28.3964445], [-81.5462554, 28.3961387], [-81.5461739, 28.3959386], [-81.5459679, 28.3954478], [-81.5458504, 28.395235], [-81.5456761, 28.394942], [-81.5454958, 28.3947003], [-81.545255, 28.3944328], [-81.5449094, 28.3941307], [-81.5443081, 28.393522], [-81.5440909, 28.393338], [-81.5438656, 28.3930454], [-81.5436912, 28.3928401], [-81.5435464, 28.392616], [-81.5433962, 28.3921676], [-81.5432743, 28.3916391]]}, "properties": {"kind": "water", "name": null, "highway": null}}, {"type": "Feature", "geometry": {"type": "LineString", "coordinates": [[-81.5558439, 28.4053561], [-81.5560928, 28.4053712]]}, "properties": {"kind": "trail", "name": null, "highway": "footway"}}, {"type": "Feature", "geometry": {"type": "LineString", "coordinates": [[-81.5560928, 28.4053712], [-81.5561308, 28.4053685], [-81.5562036, 28.4053495], [-81.5562376, 28.4053517], [-81.5564361, 28.4054101], [-81.5566174, 28.4054498], [-81.5567613, 28.4054947]]}, "properties": {"kind": "trail", "name": null, "highway": "footway"}}, {"type": "Feature", "geometry": {"type": "LineString", "coordinates": [[-81.5557686, 28.4060489], [-81.5558243, 28.4062631], [-81.5559874, 28.4066255], [-81.5561787, 28.4069955], [-81.5562216, 28.4072295], [-81.5561787, 28.408143], [-81.5561958, 28.4083091], [-81.5562559, 28.4086111], [-81.556419, 28.4089886]]}, "properties": {"kind": "road", "name": "Big Pine Trail", "highway": "unclassified"}}, {"type": "Feature", "geometry": {"type": "LineString", "coordinates": [[-81.5557348, 28.4058163], [-81.5557686, 28.4060489]]}, "properties": {"kind": "road", "name": "Big Pine Trail", "highway": "unclassified"}}, {"type": "Feature", "geometry": {"type": "LineString", "coordinates": [[-81.555484, 28.4055246], [-81.5556734, 28.4054915], [-81.5556815, 28.4053948], [-81.5557223, 28.4053948], [-81.5557786, 28.4053965]]}, "properties": {"kind": "trail", "name": null, "highway": "footway"}}, {"type": "Feature", "geometry": {"type": "LineString", "coordinates": [[-81.5559531, 28.4058403], [-81.5561505, 28.406097]]}, "properties": {"kind": "water", "name": null, "highway": null}}, {"type": "Feature", "geometry": {"type": "LineString", "coordinates": [[-81.5561505, 28.406097], [-81.5562449, 28.4062178]]}, "properties": {"kind": "water", "name": null, "highway": null}}, {"type": "Feature", "geometry": {"type": "LineString", "coordinates": [[-81.5562449, 28.4062178], [-81.5565055, 28.4066236], [-81.5566342, 28.4069406]]}, "properties": {"kind": "water", "name": null, "highway": null}}, {"type": "Feature", "geometry": {"type": "LineString", "coordinates": [[-81.5558243, 28.4062631], [-81.5558929, 28.4062485], [-81.5561075, 28.4062027], [-81.556202, 28.4061649], [-81.5562353, 28.4061454], [-81.556262, 28.4061045], [-81.5562792, 28.4060139], [-81.5562892, 28.4059736], [-81.5563135, 28.405946], [-81.5564165, 28.4059082], [-81.5567341, 28.4058554], [-81.5568629, 28.4058629], [-81.5569006, 28.4058762], [-81.5569487, 28.4058931], [-81.5570946, 28.4059535], [-81.5572608, 28.405991], [-81.5573069, 28.4060116], [-81.5573311, 28.4060351], [-81.5574122, 28.4061347], [-81.5574356, 28.4061657], [-81.5575639, 28.4062591]]}, "properties": {"kind": "road", "name": null, "highway": "service"}}, {"type": "Feature", "geometry": {"type": "LineString", "coordinates": [[-81.5567599, 28.4056516], [-81.5566654, 28.4056742], [-81.556571, 28.4056818]]}, "properties": {"kind": "trail", "name": null, "highway": "footway"}}, {"type": "Feature", "geometry": {"type": "LineString", "coordinates": [[-81.5557182, 28.4055614], [-81.5555294, 28.405569]]}, "properties": {"kind": "road", "name": null, "highway": "service"}}, {"type": "Feature", "geometry": {"type": "LineString", "coordinates": [[-81.5555294, 28.405569], [-81.555484, 28.4055246], [-81.5554522, 28.4054935], [-81.5553749, 28.4054633], [-81.5552805, 28.4053802], [-81.5552032, 28.4052896], [-81.5550917, 28.4052594], [-81.5549286, 28.4052745], [-81.5547998, 28.4053274], [-81.5546625, 28.4053727], [-81.5545681, 28.4054708], [-81.5545595, 28.4055992], [-81.554611, 28.40572], [-81.5546968, 28.4058332], [-81.5548342, 28.405871], [-81.5550058, 28.4058559], [-81.5551603, 28.4058257], [-81.5552719, 28.4057426], [-81.5553921, 28.4056596], [-81.5555294, 28.405569]]}, "properties": {"kind": "road", "name": "Cottontail Curl", "highway": "service"}}, {"type": "Feature", "geometry": {"type": "LineString", "coordinates": [[-81.5538527, 28.4032941], [-81.5537924, 28.4033507], [-81.553684, 28.4034475], [-81.5535886, 28.4035288], [-81.5534491, 28.4035984], [-81.5532978, 28.4036664], [-81.5531862, 28.4037646], [-81.5531691, 28.4038854], [-81.5531862, 28.4040213], [-81.5532635, 28.4041194], [-81.5533922, 28.4041723], [-81.5535124, 28.4041798], [-81.5536325, 28.4041572], [-81.5537098, 28.4040892], [-81.5538214, 28.4040364], [-81.5539587, 28.4040288], [-81.5540874, 28.4040062], [-81.5542323, 28.4039641], [-81.5543302, 28.403904], [-81.5543637, 28.4038084], [-81.5543543, 28.4037011], [-81.5543154, 28.4036126], [-81.55427, 28.4035649], [-81.5542256, 28.4035182], [-81.5540982, 28.4034309], [-81.5539882, 28.4033755], [-81.5538527, 28.4032941]]}, "properties": {"kind": "road", "name": "Conestoga Trail", "highway": "service"}}, {"type": "Feature", "geometry": {"type": "LineString", "coordinates": [[-81.5550209, 28.4039087], [-81.5549457, 28.4040515], [-81.5548428, 28.4041874], [-81.5547312, 28.4042931], [-81.554611, 28.4043535], [-81.5544908, 28.4043761], [-81.5543192, 28.4044214], [-81.5541475, 28.4044969], [-81.5540445, 28.4046102], [-81.5540188, 28.4047461], [-81.5540968, 28.4048819], [-81.5542505, 28.4049424], [-81.5544565, 28.4049424], [-81.5546539, 28.4049046], [-81.554817, 28.4048518], [-81.5550058, 28.4047914], [-81.5551088, 28.4047385], [-81.5552094, 28.4046984], [-81.5552835, 28.404655], [-81.5553124, 28.404638], [-81.5554068, 28.4045474], [-81.5554498, 28.4044417], [-81.5554841, 28.4042907], [-81.5554634, 28.4041706], [-81.555391, 28.4040585], [-81.5552622, 28.4039948], [-81.5551134, 28.4039547], [-81.5550209, 28.4039087]]}, "properties": {"kind": "road", "name": "Timber Trail", "highway": "service"}}, {"type": "Feature", "geometry": {"type": "LineString", "coordinates": [[-81.5572803, 28.4039533], [-81.5571344, 28.4039609], [-81.5570314, 28.4039609], [-81.5568941, 28.403976], [-81.5567825, 28.4040213], [-81.5566709, 28.4040364], [-81.5566122, 28.4040364], [-81.5565594, 28.4040364], [-81.556422, 28.4040364], [-81.556351, 28.4040718], [-81.5563166, 28.4041397], [-81.5562909, 28.4042001], [-81.5562823, 28.4042832], [-81.5562995, 28.4043738], [-81.5563338, 28.4044417], [-81.5563963, 28.4044969], [-81.5565422, 28.4045573], [-81.5566881, 28.4045875], [-81.5568426, 28.4046328], [-81.556937, 28.4046555], [-81.55704, 28.4047159], [-81.5570915, 28.4047838], [-81.5571602, 28.4048291], [-81.5572632, 28.4048593], [-81.5573833, 28.4048291], [-81.5574949, 28.4047461], [-81.5575808, 28.4046479], [-81.5575893, 28.4045422], [-81.5575464, 28.4044139], [-81.5574778, 28.4043233], [-81.5574005, 28.4041949], [-81.5573404, 28.4040515], [-81.5572803, 28.4039533]]}, "properties": {"kind": "road", "name": "Tumbleweed Turn", "highway": "service"}}, {"type": "Feature", "geometry": {"type": "LineString", "coordinates": [[-81.5553281, 28.4050693], [-81.5553581, 28.404898], [-81.555456, 28.4049113], [-81.5554467, 28.4049645], [-81.555485, 28.4049697], [-81.5554756, 28.4050231], [-81.5554439, 28.4050188], [-81.5554326, 28.4050834], [-81.5553281, 28.4050693]]}, "properties": {"kind": "comfort", "name": "Comfort Station", "highway": null}}, {"type": "Feature", "geometry": {"type": "Polygon", "coordinates": [[[-81.5577247, 28.4138125], [-81.5576387, 28.4138216], [-81.5575073, 28.4138782], [-81.5575596, 28.413608], [-81.5574969, 28.4134454], [-81.5575622, 28.4133662], [-81.5575363, 28.413312], [-81.5575177, 28.4132733], [-81.5574961, 28.4132282], [-81.5574041, 28.4132169], [-81.557213, 28.4127675], [-81.5570077, 28.4123416], [-81.556888, 28.4120668], [-81.5568412, 28.4119483], [-81.5568027, 28.4118792], [-81.5567579, 28.4118109], [-81.5566973, 28.4117417], [-81.5566157, 28.4116634], [-81.5565354, 28.411587], [-81.5564456, 28.4115173], [-81.5563729, 28.4114717], [-81.5562668, 28.4113931], [-81.5561096, 28.4113033], [-81.5559457, 28.4112244], [-81.5557241, 28.411114], [-81.5555528, 28.4110168], [-81.5554667, 28.410958], [-81.5553401, 28.4108697], [-81.5551394, 28.4107257], [-81.5549732, 28.4105876], [-81.5547969, 28.4104139], [-81.5547165, 28.4103083], [-81.5546654, 28.410223], [-81.5544831, 28.4098985], [-81.5544363, 28.4097864], [-81.5544041, 28.4096663], [-81.5543721, 28.4095155], [-81.554356, 28.4093481], [-81.5543727, 28.4092393], [-81.5543592, 28.4090788], [-81.5543879, 28.4089], [-81.5544137, 28.4085228], [-81.5544329, 28.4083658], [-81.5544291, 28.4082507], [-81.5544316, 28.4081715], [-81.5544684, 28.4079955], [-81.5544805, 28.4078356], [-81.5544916, 28.4076734], [-81.5544932, 28.4075225], [-81.5544859, 28.4073725], [-81.5544781, 28.4072228], [-81.5544594, 28.4070717], [-81.5544448, 28.406943], [-81.5544051, 28.4068072], [-81.5543786, 28.4066694], [-81.5543273, 28.4065744], [-81.5543068, 28.4064844], [-81.5542315, 28.4063099], [-81.5541285, 28.406087], [-81.5540652, 28.4059422], [-81.5540083, 28.4058601], [-81.5539866, 28.4057863], [-81.5539322, 28.4056596], [-81.5538596, 28.4055088], [-81.5537522, 28.4053367], [-81.5536389, 28.4051773], [-81.5534859, 28.4049688], [-81.5533041, 28.4047596], [-81.5531155, 28.4045731], [-81.552916, 28.4043834], [-81.5528414, 28.4043398], [-81.5527002, 28.4042089], [-81.5525149, 28.4040743], [-81.5522179, 28.4038846], [-81.5520843, 28.4038126], [-81.5520147, 28.4037606], [-81.5517149, 28.4036282], [-81.5515144, 28.4035339], [-81.5511639, 28.4034289], [-81.5509794, 28.4033738], [-81.5508004, 28.4033325], [-81.5499457, 28.4032245], [-81.5488224, 28.4029688], [-81.5482806, 28.4027239], [-81.5480306, 28.4025526], [-81.5472484, 28.4017443], [-81.5470253, 28.4014668], [-81.546818, 28.401071], [-81.546787, 28.40085], [-81.546712, 28.400493], [-81.5466389, 28.4002594], [-81.5465859, 28.4001214], [-81.5466658, 28.4001249], [-81.5467576, 28.400129], [-81.5467503, 28.4002205], [-81.5468307, 28.4004293], [-81.546942, 28.400735], [-81.547204, 28.401181], [-81.547322, 28.401329], [-81.547428, 28.4015], [-81.547571, 28.401698], [-81.547925, 28.402116], [-81.548149, 28.402342], [-81.548541, 28.402562], [-81.5491683, 28.4028299], [-81.5495789, 28.4029033], [-81.550228, 28.40303], [-81.550551, 28.403085], [-81.550838, 28.403156], [-81.5509201, 28.4031815], [-81.550999, 28.403206], [-81.5515407, 28.4033478], [-81.5520423, 28.4035932], [-81.5524929, 28.4038551], [-81.5526076, 28.4039328], [-81.5529529, 28.4041665], [-81.5536797, 28.4049026], [-81.5539748, 28.4053556], [-81.554123, 28.405688], [-81.554341, 28.406139], [-81.5544589, 28.4064313], [-81.5544884, 28.4065046], [-81.5545161, 28.406613], [-81.554652, 28.407146], [-81.554664, 28.407548], [-81.554615, 28.408555], [-81.554534, 28.409259], [-81.554577, 28.409611], [-81.554764, 28.410068], [-81.555031, 28.410404], [-81.555268, 28.410635], [-81.555467, 28.410767], [-81.5555632, 28.4108317], [-81.5563598, 28.4112625], [-81.556718, 28.411532], [-81.5569455, 28.4117746], [-81.5570515, 28.4119751], [-81.5573937, 28.4127115], [-81.5574419, 28.4128248], [-81.5575998, 28.4131456], [-81.5575435, 28.4132138], [-81.5575623, 28.4132567], [-81.5575811, 28.4132962], [-81.5575902, 28.4133154], [-81.5576067, 28.4133502], [-81.5576693, 28.413359], [-81.5577073, 28.4133644], [-81.5577362, 28.4135567], [-81.5577547, 28.4136151], [-81.5578108, 28.4137923], [-81.5577247, 28.4138125]]]}, "properties": {"kind": "water", "name": null, "highway": null}}, {"type": "Feature", "geometry": {"type": "Polygon", "coordinates": [[[-81.5568168, 28.4075972], [-81.5567323, 28.4076609], [-81.5566103, 28.4077788], [-81.5565365, 28.4078567], [-81.5564976, 28.4079086], [-81.5564534, 28.4079699], [-81.5564024, 28.4079959], [-81.5563541, 28.4079959], [-81.5563058, 28.4079782], [-81.5562736, 28.407951], [-81.5562629, 28.4079145], [-81.5562616, 28.4077989], [-81.5562697, 28.4076918], [-81.5562848, 28.4075615], [-81.5562984, 28.4073996], [-81.5562892, 28.4072429], [-81.5562714, 28.4071113], [-81.5562402, 28.4069754], [-81.5561771, 28.40682], [-81.5560993, 28.4066569], [-81.555974, 28.4064132], [-81.5559651, 28.4063886], [-81.5559656, 28.4063599], [-81.5559875, 28.4063446], [-81.5560252, 28.4063363], [-81.556067, 28.4063363], [-81.556132, 28.4063277], [-81.5562093, 28.4062976], [-81.5561831, 28.4062451], [-81.5563294, 28.406186], [-81.5563337, 28.4061387], [-81.5563355, 28.4060996], [-81.5563439, 28.4060533], [-81.5563675, 28.4060133], [-81.5563878, 28.4059866], [-81.5564149, 28.4059568], [-81.5564416, 28.4059444], [-81.5564776, 28.4059448], [-81.5565194, 28.4059506], [-81.5565643, 28.4059515], [-81.5566024, 28.4059434], [-81.5566342, 28.4059267], [-81.5566499, 28.4059099], [-81.556658, 28.4058864], [-81.5567583, 28.4058707], [-81.5568141, 28.4058741], [-81.5568541, 28.4058835], [-81.5569116, 28.4058994], [-81.5569673, 28.4059198], [-81.5570265, 28.4059536], [-81.5570884, 28.4059743], [-81.5571493, 28.4059893], [-81.5572067, 28.406001], [-81.5572483, 28.4060163], [-81.5572865, 28.4060405], [-81.5573033, 28.4060677], [-81.5573492, 28.406243], [-81.557351, 28.4063407], [-81.557383, 28.4064121], [-81.5574375, 28.4064687], [-81.557467, 28.4065462], [-81.5574743, 28.4066295], [-81.5574704, 28.4066644], [-81.5574922, 28.4066991], [-81.5574882, 28.4067465], [-81.5575649, 28.4067484], [-81.5575956, 28.406767], [-81.5575407, 28.4069219], [-81.5574538, 28.4069755], [-81.5574847, 28.4070475], [-81.5573184, 28.4072657], [-81.5572282, 28.4072996], [-81.5570603, 28.4073817], [-81.5571172, 28.4074717], [-81.5571293, 28.40757], [-81.5570756, 28.4075559], [-81.5569938, 28.4075464], [-81.5569107, 28.4075606], [-81.5568168, 28.4075972]]]}, "properties": {"kind": "wood", "name": null, "highway": null}}, {"type": "Feature", "geometry": {"type": "Polygon", "coordinates": [[[-81.5555022, 28.4062151], [-81.5554781, 28.4061314], [-81.5553627, 28.4061868], [-81.5552648, 28.4062387], [-81.5551415, 28.4063083], [-81.5550288, 28.4063602], [-81.5549014, 28.4064121], [-81.55487, 28.4064236], [-81.5547981, 28.4064499], [-81.5547069, 28.4064723], [-81.5546265, 28.40649], [-81.5545715, 28.4065053], [-81.554538, 28.406536], [-81.5545219, 28.4065773], [-81.5545161, 28.406613], [-81.5545444, 28.4067293], [-81.554652, 28.407146], [-81.554664, 28.407548], [-81.554615, 28.408555], [-81.554534, 28.409259], [-81.554577, 28.409611], [-81.554764, 28.410068], [-81.555031, 28.410404], [-81.555268, 28.410635], [-81.5553949, 28.4106976], [-81.5554392, 28.4106988], [-81.5554888, 28.4106941], [-81.5555371, 28.4106752], [-81.55558, 28.4106528], [-81.5556149, 28.4106245], [-81.5556363, 28.4105927], [-81.5556859, 28.4105584], [-81.5557919, 28.410516], [-81.5559488, 28.4104393], [-81.5561634, 28.410332], [-81.5561875, 28.4103119], [-81.5561956, 28.4102895], [-81.5561822, 28.4102612], [-81.5561594, 28.4102293], [-81.5561151, 28.4101739], [-81.5563136, 28.4100559], [-81.5564182, 28.4099958], [-81.5565215, 28.4099439], [-81.5565751, 28.4099156], [-81.5565845, 28.4098837], [-81.5565858, 28.4098566], [-81.5565644, 28.4098082], [-81.5565335, 28.409761], [-81.5564812, 28.4097221], [-81.5564262, 28.409695], [-81.5563632, 28.4096761], [-81.5562975, 28.4096655], [-81.5562506, 28.4096714], [-81.556221, 28.4096844], [-81.5562103, 28.4097068], [-81.5562264, 28.4097257], [-81.5562425, 28.4097398], [-81.5562304, 28.4097552], [-81.556217, 28.4097563], [-81.5561956, 28.4097516], [-81.5561661, 28.4097292], [-81.5561513, 28.4097127], [-81.5561527, 28.4096926], [-81.5561755, 28.4096596], [-81.5562063, 28.4096242], [-81.556221, 28.4095924], [-81.5562331, 28.4095475], [-81.5562452, 28.4095051], [-81.5562532, 28.4094673], [-81.5561553, 28.4094319], [-81.5560574, 28.4093954], [-81.5560735, 28.4093411], [-81.556103, 28.409281], [-81.5561406, 28.4092196], [-81.5561956, 28.4091665], [-81.5562385, 28.4091394], [-81.5562626, 28.4091241], [-81.556264, 28.4088775], [-81.5562626, 28.4088221], [-81.5562398, 28.4087383], [-81.5561969, 28.4086322], [-81.5561567, 28.4085142], [-81.5561245, 28.4083715], [-81.5561071, 28.4082382], [-81.5561097, 28.4080306], [-81.5561272, 28.407823], [-81.5561379, 28.4077203], [-81.5561473, 28.4075929], [-81.55615, 28.4075033], [-81.5561325, 28.4074455], [-81.5561486, 28.4073606], [-81.5561459, 28.4073134], [-81.5561379, 28.4072756], [-81.5561379, 28.4072131], [-81.5561325, 28.4071411], [-81.5561178, 28.407081], [-81.5560883, 28.4069937], [-81.5560615, 28.4069111], [-81.5560199, 28.4068179], [-81.5559756, 28.4067259], [-81.5559247, 28.4066433], [-81.5558576, 28.4065254], [-81.5558174, 28.406444], [-81.5557678, 28.4063095], [-81.5557235, 28.4062033], [-81.5557047, 28.4061786], [-81.5556739, 28.4061597], [-81.5556363, 28.4061644], [-81.5556055, 28.4061833], [-81.5555639, 28.4061998], [-81.5555022, 28.4062151]]]}, "properties": {"kind": "wood", "name": null, "highway": null}}, {"type": "Feature", "geometry": {"type": "LineString", "coordinates": [[-81.556797, 28.4057284], [-81.5567213, 28.4057479]]}, "properties": {"kind": "trail", "name": null, "highway": "footway"}}, {"type": "Feature", "geometry": {"type": "Polygon", "coordinates": [[[-81.5567362, 28.4057953], [-81.5566567, 28.4058147], [-81.5566257, 28.4057165], [-81.5567053, 28.4056971], [-81.5567213, 28.4057479], [-81.5567362, 28.4057953]]]}, "properties": {"kind": "building", "name": null, "highway": null}}, {"type": "Feature", "geometry": {"type": "Polygon", "coordinates": [[[-81.5580437, 28.4058138], [-81.5578487, 28.4056098], [-81.5573958, 28.4051994], [-81.55697, 28.4049125], [-81.5564944, 28.4047571], [-81.5561999, 28.404773], [-81.556064, 28.4048248], [-81.5559734, 28.4048966], [-81.5559236, 28.4049882], [-81.5559146, 28.4051277], [-81.5558557, 28.4057094], [-81.5558466, 28.4058289], [-81.5555794, 28.4059524], [-81.5551083, 28.4062273], [-81.5546734, 28.4063947], [-81.554542, 28.4064266], [-81.5544589, 28.4064313], [-81.5544884, 28.4065046], [-81.5545161, 28.406613], [-81.5545219, 28.4065773], [-81.554538, 28.406536], [-81.5545715, 28.4065053], [-81.5546265, 28.40649], [-81.5547069, 28.4064723], [-81.5547981, 28.4064499], [-81.55487, 28.4064236], [-81.5549014, 28.4064121], [-81.5550288, 28.4063602], [-81.5551415, 28.4063083], [-81.5552648, 28.4062387], [-81.5553627, 28.4061868], [-81.5554781, 28.4061314], [-81.5556926, 28.4060082], [-81.5558602, 28.4059205], [-81.5559327, 28.4059205], [-81.5560006, 28.4059763], [-81.5561003, 28.4061118], [-81.5561505, 28.406097], [-81.5561909, 28.406048], [-81.556055, 28.4058329], [-81.5560051, 28.4057253], [-81.5560323, 28.4054823], [-81.5560414, 28.40504], [-81.5560867, 28.4049484], [-81.5562045, 28.4048846], [-81.5563539, 28.4048766], [-81.5566484, 28.4049165], [-81.5569654, 28.4050679], [-81.5572871, 28.4052791], [-81.5576766, 28.4055779], [-81.5578487, 28.4057293], [-81.5579551, 28.4058617], [-81.5579958, 28.4058403], [-81.5580437, 28.4058138]]]}, "properties": {"kind": "water", "name": null, "highway": null}}, {"type": "Feature", "geometry": {"type": "LineString", "coordinates": [[-81.5565925, 28.4025823], [-81.556413, 28.4026922], [-81.5562465, 28.4028673], [-81.5561343, 28.4030328], [-81.556062, 28.4032747], [-81.5560656, 28.403523], [-81.5560511, 28.403889], [-81.5560077, 28.4041723], [-81.5558955, 28.4044715], [-81.5558195, 28.4047707], [-81.5557906, 28.4049585], [-81.5557773, 28.4053553], [-81.5557774, 28.4053591], [-81.5557786, 28.4053965], [-81.555787, 28.4058083]]}, "properties": {"kind": "trail", "name": null, "highway": "footway"}}, {"type": "Feature", "geometry": {"type": "LineString", "coordinates": [[-81.5558195, 28.4060311], [-81.5558929, 28.4062485], [-81.5559281, 28.4063526], [-81.5560547, 28.4066327], [-81.5561705, 28.4068619], [-81.5562212, 28.4070019], [-81.556261, 28.4072279], [-81.5562718, 28.4074252], [-81.5562357, 28.4081159], [-81.556261, 28.4082019], [-81.5563448, 28.4082944], [-81.5563804, 28.4083737], [-81.5563623, 28.4084692], [-81.5563117, 28.4085552], [-81.5563225, 28.4086443], [-81.55646, 28.4089753]]}, "properties": {"kind": "trail", "name": null, "highway": "footway"}}, {"type": "Feature", "geometry": {"type": "LineString", "coordinates": [[-81.555787, 28.4058083], [-81.5558195, 28.4060311]]}, "properties": {"kind": "trail", "name": null, "highway": "footway"}}, {"type": "Feature", "geometry": {"type": "LineString", "coordinates": [[-81.5552032, 28.4052896], [-81.5552926, 28.4051235], [-81.5553274, 28.4049772], [-81.5553435, 28.4048285], [-81.5552835, 28.404655]]}, "properties": {"kind": "trail", "name": null, "highway": "footway"}}, {"type": "Feature", "geometry": {"type": "Polygon", "coordinates": [[[-81.557159, 28.4042066], [-81.5568509, 28.4042954], [-81.5566649, 28.4043], [-81.5566596, 28.4043795], [-81.5569253, 28.4044122], [-81.5571378, 28.4045197], [-81.5572334, 28.4045851], [-81.557329, 28.4044916], [-81.557159, 28.4042066]]]}, "properties": {"kind": "wood", "name": null, "highway": null}}, {"type": "Feature", "geometry": {"type": "Polygon", "coordinates": [[[-81.555629, 28.4054403], [-81.5556715, 28.4048468], [-81.5557352, 28.4045524], [-81.5558946, 28.404029], [-81.5558999, 28.4039168], [-81.5556768, 28.4038234], [-81.5557299, 28.4042346], [-81.5555918, 28.4047486], [-81.5555334, 28.4051131], [-81.5553846, 28.4052253], [-81.5553262, 28.4053421], [-81.5554962, 28.4054589], [-81.555629, 28.4054403]]]}, "properties": {"kind": "wood", "name": null, "highway": null}}, {"type": "Feature", "geometry": {"type": "LineString", "coordinates": [[-81.5557774, 28.4053591], [-81.5558439, 28.4053561]]}, "properties": {"kind": "trail", "name": null, "highway": "footway"}}]}