{
 "type": "FeatureCollection",
 "features": [
  {
   "type": "Feature",
   "geometry": {
    "type": "LineString",
    "coordinates": [
     [
      -81.55902838575312,
      28.40575227987434
     ],
     [
      -81.55929416412233,
      28.405662745765646
     ],
     [
      -81.55934428465336,
      28.405657398299716
     ],
     [
      -81.55939467118706,
      28.405658762207278
     ],
     [
      -81.55944442903478,
      28.4056668132701
     ],
     [
      -81.55949267467113,
      28.405681408529446
     ]
    ]
   },
   "properties": {
    "theoretical_left": [
     900,
     924
    ],
    "theoretical_right": [
     901,
     925
    ],
    "from": "Fort Wilderness Trail",
    "to": null,
    "length_ft": 156.5
   }
  },
  {
   "type": "Feature",
   "geometry": {
    "type": "LineString",
    "coordinates": [
     [
      -81.55949267467113,
      28.405681408529446
     ],
     [
      -81.55960232326302,
      28.405854263297215
     ],
     [
      -81.55962931164564,
      28.40588800371151
     ],
     [
      -81.55966075977143,
      28.405917631464334
     ],
     [
      -81.55969604764799,
      28.405942562451507
     ],
     [
      -81.55973447958311,
      28.405962305164476
     ],
     [
      -81.55977529790026,
      28.405976470380292
     ],
     [
      -81.55981769787587,
      28.40598477883506
     ],
     [
      -81.55986084360443,
      28.405987066729548
     ],
     [
      -81.559903884478,
      28.40598328895845
     ],
     [
      -81.55994597195591,
      28.40597351999963
     ],
     [
      -81.56002870523876,
      28.40595985751234
     ],
     [
      -81.56011215018046,
      28.405951587000985
     ],
     [
      -81.56019595574575,
      28.405948743257856
     ],
     [
      -81.5602797693824,
      28.40595133824598
     ],
     [
      -81.56032299707032,
      28.40595267849617
     ],
     [
      -81.56036596339145,
      28.405947746506587
     ],
     [
      -81.56040776306011,
      28.40593664619256
     ],
     [
      -81.56044751537162,
      28.405919611433912
     ],
     [
      -81.56048438275837,
      28.405897001147167
     ],
     [
      -81.56051758843715,
      28.405869291723327
     ],
     [
      -81.56054643277567,
      28.405837066990472
     ],
     [
      -81.5605703080336,
      28.405801005912682
     ],
     [
      -81.56058871116743,
      28.40576186828452
     ],
     [
      -81.56060125442941,
      28.40572047872242
     ],
     [
      -81.56060767353735,
      28.405677709290273
     ],
     [
      -81.5606078332428,
      28.40563446112538
     ],
     [
      -81.56060173018084,
      28.405591645451764
     ],
     [
      -81.56058520873634,
      28.405540933832324
     ],
     [
      -81.56056318017885,
      28.405492360494687
     ],
     [
      -81.56053591477533,
      28.40544652138207
     ],
     [
      -81.56050374704331,
      28.405403978891652
     ],
     [
      -81.56046707164666,
      28.40536525497457
     ]
    ]
   },
   "properties": {
    "theoretical_left": [
     926,
     950
    ],
    "theoretical_right": [
     927,
     951
    ],
    "from": "Quail Trl",
    "to": "Quail Trl",
    "length_ft": 596.9
   }
  }
 ]
}