{
 "type": "FeatureCollection",
 "features": [
  {
   "type": "Feature",
   "geometry": {
    "type": "LineString",
    "coordinates": [
     [
      -81.5573305221724,
      28.40364247762682
     ],
     [
      -81.55731165087042,
      28.403693091874132
     ],
     [
      -81.5572984604162,
      28.40374547450472
     ],
     [
      -81.55729111083144,
      28.403798990032126
     ],
     [
      -81.55728969127854,
      28.403852989226
     ],
     [
      -81.55729421897897,
      28.40390681698834
     ],
     [
      -81.55730463900437,
      28.40395982030088
     ]
    ]
   },
   "properties": {
    "theoretical_left": [
     1252,
     1298
    ],
    "theoretical_right": [
     1253,
     1299
    ],
    "from": "Dogwood Dr",
    "to": "Tumbleweed Turn",
    "length_ft": 117.8
   }
  }
 ]
}