{
 "type": "FeatureCollection",
 "features": [
  {
   "type": "Feature",
   "geometry": {
    "type": "LineString",
    "coordinates": [
     [
      -81.5595377,
      28.4107479
     ],
     [
      -81.559572,
      28.4106875
     ],
     [
      -81.5596149,
      28.4105969
     ],
     [
      -81.5596149,
      28.4104762
     ],
     [
      -81.5595377,
      28.4103629
     ],
     [
      -81.5594261,
      28.4102421
     ],
     [
      -81.5593145,
      28.4101213
     ],
     [
      -81.5591944,
      28.4100534
     ],
     [
      -81.5591206,
      28.410061
     ],
     [
      -81.5590485,
      28.4100685
     ],
     [
      -81.5589111,
      28.4101138
     ],
     [
      -81.558851,
      28.4102497
     ],
     [
      -81.5588425,
      28.410378
     ],
     [
      -81.5588854,
      28.4105139
     ],
     [
      -81.558997,
      28.4106347
     ],
     [
      -81.5590914,
      28.4106951
     ],
     [
      -81.5591858,
      28.4107253
     ],
     [
      -81.5593918,
      28.4107328
     ],
     [
      -81.5595377,
      28.4107479
     ]
    ]
   },
   "properties": {
    "source": "OpenStreetMap",
    "streets": [
     "Whispering Pine Way"
    ],
    "length_ft": 798.5
   }
  }
 ]
}