{
 "type": "FeatureCollection",
 "features": [
  {
   "type": "Feature",
   "geometry": {
    "type": "LineString",
    "coordinates": [
     [
      -81.5571602,
      28.4082264
     ],
     [
      -81.5572803,
      28.4082793
     ],
     [
      -81.5574177,
      28.4082717
     ],
     [
      -81.5575378,
      28.4082415
     ],
     [
      -81.5575722,
      28.4081509
     ],
     [
      -81.5575378,
      28.4080603
     ],
     [
      -81.5574348,
      28.4080377
     ],
     [
      -81.5572889,
      28.4080981
     ],
     [
      -81.5571602,
      28.4082264
     ],
     [
      -81.5566881,
      28.4082491
     ],
     [
      -81.5567053,
      28.4084227
     ],
     [
      -81.5567825,
      28.4085435
     ],
     [
      -81.5569199,
      28.4086341
     ],
     [
      -81.5570572,
      28.4086794
     ],
     [
      -81.5571859,
      28.4086945
     ],
     [
      -81.5573318,
      28.4086719
     ],
     [
      -81.557452,
      28.4086568
     ],
     [
      -81.5575722,
      28.4086719
     ],
     [
      -81.5576837,
      28.4087021
     ],
     [
      -81.5578211,
      28.408687
     ],
     [
      -81.5579241,
      28.4086266
     ],
     [
      -81.5580185,
      28.4085284
     ],
     [
      -81.5580442,
      28.4084303
     ],
     [
      -81.5580271,
      28.4083246
     ],
     [
      -81.5580013,
      28.4081283
     ],
     [
      -81.5580013,
      28.4079773
     ],
     [
      -81.5580099,
      28.4077961
     ],
     [
      -81.5579327,
      28.4076904
     ],
     [
      -81.5578554,
      28.4076149
     ],
     [
      -81.5577352,
      28.4075772
     ],
     [
      -81.5575722,
      28.4075998
     ],
     [
      -81.5574005,
      28.4076451
     ],
     [
      -81.5572803,
      28.407698
     ],
     [
      -81.5571344,
      28.4077206
     ],
     [
      -81.5569284,
      28.4077659
     ],
     [
      -81.5568426,
      28.4078112
     ],
     [
      -81.5567568,
      28.4079018
     ],
     [
      -81.5566967,
      28.408015
     ],
     [
      -81.5566538,
      28.4081358
     ],
     [
      -81.5566881,
      28.4082491
     ]
    ]
   },
   "properties": {
    "source": "OpenStreetMap",
    "streets": [
     "Little Bear Path",
     "Big Bear Path"
    ],
    "length_ft": 1922.8
   }
  }
 ]
}