{"type": "FeatureCollection", "features": [{"type": "Feature", "geometry": {"type": "LineString", "coordinates": [[-81.5570245, 28.4023338], [-81.5565658, 28.4025155], [-81.5563417, 28.4026469], [-81.5561443, 28.402896], [-81.5560242, 28.4031225], [-81.5559641, 28.4033867], [-81.5559757, 28.4037042], [-81.5559668, 28.4038658], [-81.5559641, 28.4039152], [-81.5559525, 28.4040693], [-81.5558954, 28.4042701], [-81.5557842, 28.4046143], [-81.555737, 28.4048008], [-81.5557236, 28.4049993], [-81.5557237, 28.4053119], [-81.5557223, 28.4053948], [-81.5557182, 28.4055614], [-81.5557348, 28.4058163]]}, "properties": {"kind": "road", "name": "Big Pine Trail", "highway": "unclassified"}}, {"type": "Feature", "geometry": {"type": "LineString", "coordinates": [[-81.5565897, 28.4008482], [-81.5565912, 28.4009721], [-81.5565844, 28.401117], [-81.5565699, 28.4012577], [-81.5565754, 28.4013714], [-81.556594, 28.4014859], [-81.5566302, 28.4015847], [-81.5566919, 28.4017029], [-81.5568693, 28.4019131]]}, "properties": {"kind": "road", "name": "Fort Wilderness Trail", "highway": "unclassified"}}, {"type": "Feature", "geometry": {"type": "LineString", "coordinates": [[-81.5568693, 28.4019131], [-81.5567879, 28.4016658], [-81.5567674, 28.401453], [-81.5567375, 28.401265], [-81.5567071, 28.4011389], [-81.5566637, 28.4010232], [-81.5565897, 28.4008482]]}, "properties": {"kind": "road", "name": "Fort Wilderness Trail", "highway": "unclassified"}}, {"type": "Feature", "geometry": {"type": "LineString", "coordinates": [[-81.5568693, 28.4019131], [-81.5570245, 28.4023338]]}, "properties": {"kind": "road", "name": "Fort Wilderness Trail", "highway": "unclassified"}}, {"type": "Feature", "geometry": {"type": "LineString", "coordinates": [[-81.5575867, 28.4036942], [-81.5576096, 28.4037316], [-81.5576856, 28.4038556], [-81.5576923, 28.403891], [-81.557691, 28.4039264], [-81.5577017, 28.4039618], [-81.5577299, 28.403996], [-81.5577996, 28.4040384], [-81.5578278, 28.4040738], [-81.5578399, 28.4041092], [-81.5578519, 28.4041363], [-81.5578868, 28.4041635], [-81.5579176, 28.4041871], [-81.5579351, 28.404226], [-81.5579485, 28.4042567], [-81.557986, 28.4042932], [-81.5580402, 28.4043589], [-81.5582512, 28.4046272], [-81.5582874, 28.4046861], [-81.5583424, 28.4048206], [-81.5584108, 28.4049433], [-81.5584953, 28.4051073], [-81.5585462, 28.4051851], [-81.5585881, 28.4052268], [-81.5587353, 28.4053231], [-81.5587863, 28.4053633], [-81.5588198, 28.4054034], [-81.5589526, 28.4056936], [-81.55895, 28.4057329], [-81.5590445, 28.4059217], [-81.5591389, 28.406133], [-81.5591904, 28.4062916], [-81.5591818, 28.4064501], [-81.5591475, 28.4065709], [-81.559096, 28.4066389], [-81.5590874, 28.4066917], [-81.5590874, 28.4067597], [-81.5590187, 28.4068352], [-81.5589415, 28.4069484], [-81.5589071, 28.4070466], [-81.5588791, 28.4071566], [-81.5588473, 28.4072214]]}, "properties": {"kind": "trail", "name": null, "highway": "footway"}}, {"type": "Feature", "geometry": {"type": "LineString", "coordinates": [[-81.5565925, 28.4025823], [-81.5566475, 28.4025611], [-81.5566962, 28.4025466], [-81.5567551, 28.4025341], [-81.556808, 28.4025301], [-81.5568749, 28.4025368], [-81.5569357, 28.4025453], [-81.5569951, 28.4025559], [-81.5571396, 28.4025856], [-81.5572005, 28.4025997], [-81.557273, 28.4026182], [-81.5573282, 28.4026386], [-81.5573826, 28.4026614], [-81.5574234, 28.4026885], [-81.5574618, 28.4027198], [-81.5574939, 28.4027552], [-81.5575202, 28.4027891], [-81.557551, 28.4028262], [-81.5575747, 28.4028533], [-81.5575988, 28.4028961]]}, "properties": {"kind": "trail", "name": null, "highway": "footway"}}, {"type": "Feature", "geometry": {"type": "LineString", "coordinates": [[-81.5559757, 28.4037042], [-81.5557783, 28.4037268], [-81.555538, 28.4037042], [-81.5552891, 28.4036664], [-81.5551064, 28.4036112], [-81.5547741, 28.4034777], [-81.5544938, 28.403307], [-81.5542248, 28.4030851], [-81.5540874, 28.4029719]]}, "properties": {"kind": "road", "name": null, "highway": "service"}}, {"type": "Feature", "geometry": {"type": "LineString", "coordinates": [[-81.5551923, 28.4033319], [-81.5551408, 28.4035206], [-81.5551064, 28.4036112], [-81.5550857, 28.4036815], [-81.5550745, 28.4037193], [-81.5550549, 28.4038151], [-81.5550209, 28.4039087]]}, "properties": {"kind": "road", "name": null, "highway": "service"}}, {"type": "Feature", "geometry": {"type": "LineString", "coordinates": [[-81.5552953, 28.403347], [-81.5554092, 28.4033116], [-81.5555294, 28.4032361], [-81.555641, 28.4031379], [-81.5557182, 28.4030398], [-81.5557268, 28.4029492], [-81.5557268, 28.4028435], [-81.5557526, 28.4027529], [-81.5558298, 28.4026548], [-81.5559414, 28.402534], [-81.5560272, 28.4024283], [-81.5560873, 28.4022999], [-81.5560701, 28.4021414], [-81.5559671, 28.4019904], [-81.5558384, 28.4018847], [-81.5556667, 28.4018545], [-81.55558, 28.4018558], [-81.5555036, 28.4018696], [-81.5553921, 28.4019224], [-81.5552867, 28.4020031], [-81.5552352, 28.402139], [-81.5552438, 28.4022598], [-81.5552523, 28.4023957], [-81.5552523, 28.4025014], [-81.5552421, 28.4026016], [-81.5552094, 28.4027052], [-81.5551517, 28.4027831], [-81.5551002, 28.4028586], [-81.5550316, 28.4029417], [-81.5550144, 28.4030323], [-81.5550316, 28.403153], [-81.5550917, 28.4032587], [-81.5551923, 28.4033319], [-81.5552953, 28.403347]]}, "properties": {"kind": "road", "name": "Hickory Hollow", "highway": "service"}}, {"type": "Feature", "geometry": {"type": "LineString", "coordinates": [[-81.5550209, 28.4039087], [-81.5549457, 28.4040515], [-81.5548428, 28.4041874], [-81.5547312, 28.4042931], [-81.554611, 28.4043535], [-81.5544908, 28.4043761], [-81.5543192, 28.4044214], [-81.5541475, 28.4044969], [-81.5540445, 28.4046102], [-81.5540188, 28.4047461], [-81.5540968, 28.4048819], [-81.5542505, 28.4049424], [-81.5544565, 28.4049424], [-81.5546539, 28.4049046], [-81.554817, 28.4048518], [-81.5550058, 28.4047914], [-81.5551088, 28.4047385], [-81.5552094, 28.4046984], [-81.5552835, 28.404655], [-81.5553124, 28.404638], [-81.5554068, 28.4045474], [-81.5554498, 28.4044417], [-81.5554841, 28.4042907], [-81.5554634, 28.4041706], [-81.555391, 28.4040585], [-81.5552622, 28.4039948], [-81.5551134, 28.4039547], [-81.5550209, 28.4039087]]}, "properties": {"kind": "road", "name": "Timber Trail", "highway": "service"}}, {"type": "Feature", "geometry": {"type": "LineString", "coordinates": [[-81.5575863, 28.4035302], [-81.5574295, 28.4035854], [-81.5573048, 28.4036421]]}, "properties": {"kind": "road", "name": null, "highway": "service"}}, {"type": "Feature", "geometry": {"type": "LineString", "coordinates": [[-81.5570727, 28.4034934], [-81.5572323, 28.4035713], [-81.5573048, 28.4036421], [-81.5573061, 28.4037042], [-81.5572889, 28.403825], [-81.5572803, 28.4039533]]}, "properties": {"kind": "road", "name": null, "highway": "service"}}, {"type": "Feature", "geometry": {"type": "LineString", "coordinates": [[-81.5572803, 28.4039533], [-81.5571344, 28.4039609], [-81.5570314, 28.4039609], [-81.5568941, 28.403976], [-81.5567825, 28.4040213], [-81.5566709, 28.4040364], [-81.5566122, 28.4040364], [-81.5565594, 28.4040364], [-81.556422, 28.4040364], [-81.556351, 28.4040718], [-81.5563166, 28.4041397], [-81.5562909, 28.4042001], [-81.5562823, 28.4042832], [-81.5562995, 28.4043738], [-81.5563338, 28.4044417], [-81.5563963, 28.4044969], [-81.5565422, 28.4045573], [-81.5566881, 28.4045875], [-81.5568426, 28.4046328], [-81.556937, 28.4046555], [-81.55704, 28.4047159], [-81.5570915, 28.4047838], [-81.5571602, 28.4048291], [-81.5572632, 28.4048593], [-81.5573833, 28.4048291], [-81.5574949, 28.4047461], [-81.5575808, 28.4046479], [-81.5575893, 28.4045422], [-81.5575464, 28.4044139], [-81.5574778, 28.4043233], [-81.5574005, 28.4041949], [-81.5573404, 28.4040515], [-81.5572803, 28.4039533]]}, "properties": {"kind": "road", "name": "Tumbleweed Turn", "highway": "service"}}, {"type": "Feature", "geometry": {"type": "LineString", "coordinates": [[-81.5570727, 28.4034934], [-81.5570915, 28.4033795], [-81.5570829, 28.4032663], [-81.5570229, 28.4031455], [-81.5569885, 28.4030021], [-81.5569199, 28.402919], [-81.5567911, 28.4028662], [-81.5566771, 28.4028638], [-81.5565484, 28.4029091], [-81.556454, 28.4030072], [-81.5564025, 28.4031356], [-81.5563596, 28.4032488], [-81.5563362, 28.4033493], [-81.5563791, 28.4034475], [-81.5564564, 28.4035532], [-81.5565937, 28.4036287], [-81.5567139, 28.4036287], [-81.556834, 28.4035834], [-81.5569199, 28.4035381], [-81.5570229, 28.4035003], [-81.5570727, 28.4034934]]}, "properties": {"kind": "road", "name": "Dogwood Drive", "highway": "service"}}, {"type": "Feature", "geometry": {"type": "LineString", "coordinates": [[-81.5575863, 28.4035302], [-81.5576965, 28.4034953]]}, "properties": {"kind": "road", "name": null, "highway": "service"}}, {"type": "Feature", "geometry": {"type": "LineString", "coordinates": [[-81.5578731, 28.4035165], [-81.5579481, 28.4035546], [-81.5580023, 28.4036014], [-81.558047, 28.4036909], [-81.5580957, 28.4037948], [-81.5582245, 28.4038552], [-81.5583704, 28.4038854], [-81.5585249, 28.4038627], [-81.5586451, 28.4037646], [-81.558688, 28.4036287], [-81.5587137, 28.4035154], [-81.5586708, 28.4034173], [-81.5585592, 28.4033342], [-81.5584648, 28.4032285], [-81.5584391, 28.4031078], [-81.5584452, 28.4029846], [-81.5584091, 28.4029245], [-81.558368, 28.4028562], [-81.5582392, 28.4027656], [-81.5580247, 28.402743], [-81.5578812, 28.4027907], [-81.5577867, 28.4028813], [-81.5577782, 28.4030474], [-81.5578086, 28.4032209], [-81.5578165, 28.4032785], [-81.557816, 28.4033258], [-81.5578159, 28.4033791], [-81.5578266, 28.4034333], [-81.5578421, 28.4034793], [-81.5578731, 28.4035165]]}, "properties": {"kind": "road", "name": "Possum Path", "highway": "service"}}, {"type": "Feature", "geometry": {"type": "LineString", "coordinates": [[-81.5566573, 28.4039566], [-81.5566422, 28.403865], [-81.5568313, 28.403845], [-81.5568434, 28.4039346], [-81.5566573, 28.4039566]]}, "properties": {"kind": "comfort", "name": "Comfort Station", "highway": null}}, {"type": "Feature", "geometry": {"type": "LineString", "coordinates": [[-81.5580402, 28.4043589], [-81.5580154, 28.4045241], [-81.5579835, 28.4047312], [-81.5579527, 28.4048523], [-81.55794, 28.4049175], [-81.5579314, 28.4049886], [-81.5579286, 28.4050598], [-81.5579394, 28.4051196], [-81.5579606, 28.4051845], [-81.5579932, 28.4052369], [-81.5580691, 28.4053053], [-81.5581604, 28.4053781], [-81.5582087, 28.4054013], [-81.5582548, 28.4054234], [-81.5583492, 28.4054838], [-81.5584436, 28.4055744], [-81.5585037, 28.4056876], [-81.558581, 28.4058009]]}, "properties": {"kind": "trail", "name": null, "highway": "footway"}}, {"type": "Feature", "geometry": {"type": "Polygon", "coordinates": [[[-81.5575649, 28.4036185], [-81.5575073, 28.4036397], [-81.5575408, 28.4037117], [-81.5575867, 28.4036942], [-81.5575998, 28.4036893], [-81.5575649, 28.4036185]]]}, "properties": {"kind": "building", "name": null, "highway": null}}, {"type": "Feature", "geometry": {"type": "LineString", "coordinates": [[-81.5536543, 28.3970051], [-81.5536886, 28.3970731], [-81.5537144, 28.3971788], [-81.5537401, 28.3972241], [-81.5537916, 28.3972467], [-81.5538345, 28.3973071], [-81.5539375, 28.3974657], [-81.553989, 28.397579], [-81.5540663, 28.3976771], [-81.5541349, 28.3977979], [-81.5542036, 28.3978961], [-81.5542637, 28.3979565], [-81.5543324, 28.3980546], [-81.5544096, 28.3981377], [-81.554504, 28.3982585], [-81.5545984, 28.3983415], [-81.5546843, 28.3984246], [-81.5547958, 28.3985152], [-81.5548903, 28.3986058], [-81.5549565, 28.3987027], [-81.5550195, 28.3987995], [-81.5550182, 28.3988596], [-81.5549699, 28.3989469], [-81.5549431, 28.3990212], [-81.5549457, 28.3991109], [-81.5552336, 28.3996681], [-81.5554551, 28.4000619], [-81.5554922, 28.4001218], [-81.5555469, 28.4001992], [-81.5555913, 28.4002457], [-81.5556505, 28.4003067], [-81.5558172, 28.4004782], [-81.5558609, 28.4005211], [-81.5559179, 28.4005856], [-81.5559446, 28.400632], [-81.5559642, 28.4006657], [-81.5559916, 28.4007021], [-81.5560261, 28.4007328], [-81.5560681, 28.4007604], [-81.5561012, 28.4008012], [-81.5561126, 28.4008455], [-81.5561218, 28.4008986], [-81.5561683, 28.4011246], [-81.5562071, 28.4012756], [-81.5562317, 28.401397], [-81.5562429, 28.4014663], [-81.5562643, 28.4015362], [-81.5562831, 28.4015865], [-81.5563072, 28.4016356], [-81.5565456, 28.402241], [-81.5565687, 28.4023294], [-81.5565673, 28.4023984], [-81.5565587, 28.4024528], [-81.556554, 28.4024832], [-81.5565658, 28.4025155], [-81.5565925, 28.4025823]]}, "properties": {"kind": "trail", "name": null, "highway": "footway"}}, {"type": "Feature", "geometry": {"type": "LineString", "coordinates": [[-81.5575988, 28.4028961], [-81.5576025, 28.403015], [-81.5576025, 28.4031056], [-81.5576368, 28.4032339], [-81.5577209, 28.4034354], [-81.5577313, 28.4034604], [-81.5577477, 28.4034951], [-81.5577594, 28.4035197], [-81.5578144, 28.4036359], [-81.5579029, 28.4038228], [-81.5580231, 28.4041097], [-81.5580541, 28.4042002], [-81.5580545, 28.4042404], [-81.5580549, 28.4042859], [-81.5580402, 28.4043589]]}, "properties": {"kind": "trail", "name": null, "highway": "footway"}}, {"type": "Feature", "geometry": {"type": "LineString", "coordinates": [[-81.5541909, 28.39999], [-81.5548767, 28.4003558], [-81.5551248, 28.4004938], [-81.5552804, 28.4005905], [-81.5553971, 28.4006743], [-81.5555312, 28.4007699], [-81.5556211, 28.4008288], [-81.5557619, 28.4009008], [-81.5558316, 28.4009315], [-81.5558732, 28.4009503], [-81.555896, 28.400981], [-81.5559, 28.4010093], [-81.5558946, 28.4010435], [-81.5558732, 28.4010836], [-81.5558343, 28.4011108], [-81.5558021, 28.401145], [-81.5557324, 28.4012453], [-81.5556546, 28.4013703], [-81.5555835, 28.4014989], [-81.5555553, 28.4015945], [-81.55555, 28.4016688], [-81.5555553, 28.4017502], [-81.5555687, 28.4018151], [-81.55558, 28.4018558]]}, "properties": {"kind": "trail", "name": null, "highway": "track"}}, {"type": "Feature", "geometry": {"type": "Polygon", "coordinates": [[[-81.5569306, 28.402314], [-81.556554, 28.4024832], [-81.5565587, 28.4024528], [-81.5564674, 28.4025014], [-81.5563602, 28.4025745], [-81.5562904, 28.4026241], [-81.556226, 28.4026194], [-81.5561885, 28.4025863], [-81.5562046, 28.4025368], [-81.5562475, 28.4024825], [-81.5562985, 28.4023905], [-81.5563387, 28.4022914], [-81.5563387, 28.4021876], [-81.5562985, 28.4020555], [-81.5562439, 28.4019468], [-81.5561831, 28.4018573], [-81.5560919, 28.401803], [-81.5560142, 28.4017629], [-81.5558881, 28.4017393], [-81.5557379, 28.4017323], [-81.5556252, 28.4017393], [-81.5555553, 28.4017502], [-81.555467, 28.4017629], [-81.5553597, 28.40177], [-81.5552551, 28.40177], [-81.5551854, 28.4017535], [-81.5551263, 28.4017134], [-81.5551022, 28.4016355], [-81.5550861, 28.4015152], [-81.5550539, 28.4013854], [-81.5549681, 28.4012415], [-81.554901, 28.4011636], [-81.554783, 28.4010905], [-81.5546435, 28.4010669], [-81.5544933, 28.4010669], [-81.5543619, 28.4010976], [-81.5542063, 28.4011778], [-81.5540669, 28.4012769], [-81.5539542, 28.4014137], [-81.5539006, 28.4016048], [-81.5538362, 28.4018809], [-81.5538174, 28.4020437], [-81.5538416, 28.4021735], [-81.5538711, 28.4023386], [-81.5538952, 28.4025651], [-81.5538952, 28.4027067], [-81.5538872, 28.402919], [-81.553855, 28.4030747], [-81.5538174, 28.4031644], [-81.5536672, 28.4031927], [-81.5534607, 28.4032871], [-81.5533159, 28.4033838], [-81.5531576, 28.4035065], [-81.5530315, 28.4036127], [-81.5529296, 28.4036976], [-81.5528894, 28.4037778], [-81.5528572, 28.4038627], [-81.5528062, 28.4038793], [-81.5527124, 28.4038816], [-81.5526533, 28.4038675], [-81.5525434, 28.4037707], [-81.5524039, 28.4036528], [-81.5521384, 28.4034947], [-81.5519426, 28.403405], [-81.5517789, 28.4033201], [-81.551618, 28.4032399], [-81.5514464, 28.403188], [-81.5512693, 28.4031408], [-81.5511218, 28.4031148], [-81.5509585, 28.4030726], [-81.5509374, 28.4030277], [-81.5509906, 28.4029735], [-81.5510684, 28.4028721], [-81.5510874, 28.402853], [-81.5510387, 28.4027774], [-81.5509853, 28.4027352], [-81.5509233, 28.4026784], [-81.5508697, 28.4026453], [-81.5508429, 28.4026288], [-81.5508351, 28.402596], [-81.5508378, 28.4025441], [-81.5508619, 28.4025016], [-81.5509075, 28.4024261], [-81.5509421, 28.4023622], [-81.5509662, 28.4023056], [-81.5510121, 28.402235], [-81.5510523, 28.4021996], [-81.5511379, 28.4021357], [-81.5512294, 28.4020911], [-81.5513179, 28.4020604], [-81.5514168, 28.4020177], [-81.551452, 28.4019991], [-81.5514816, 28.4019018], [-81.5515507, 28.4014626], [-81.5514771, 28.4013876], [-81.5512964, 28.4012913], [-81.5512079, 28.4012134], [-81.5511486, 28.4011518], [-81.5511113, 28.4010955], [-81.5510523, 28.40102], [-81.5510092, 28.4009725], [-81.5509823, 28.4009253], [-81.5509638, 28.4008642], [-81.5509799, 28.40081], [-81.5510011, 28.400772], [-81.5510711, 28.4007463], [-81.5511248, 28.4007439], [-81.5511811, 28.4007604], [-81.5512401, 28.4007793], [-81.5512613, 28.4007083], [-81.5513018, 28.4006472], [-81.5513632, 28.4005856], [-81.5514329, 28.4005266], [-81.5515137, 28.4004631], [-81.5515754, 28.4004018], [-81.5515966, 28.4003402], [-81.5515995, 28.4002697], [-81.5515831, 28.4002057], [-81.5515456, 28.4001161], [-81.5515003, 28.4000196], [-81.5514761, 28.3999346], [-81.5516102, 28.3998214], [-81.5518138, 28.3998565], [-81.5519696, 28.39997], [-81.5521333, 28.4001423], [-81.5522379, 28.4002107], [-81.5523073, 28.4002435], [-81.5523908, 28.4002319], [-81.5524873, 28.4001989], [-81.5525836, 28.4001491], [-81.5526724, 28.4000786], [-81.5532544, 28.399727], [-81.5533644, 28.3996916], [-81.5534985, 28.3996822], [-81.5536674, 28.3997317], [-81.5537879, 28.3998164], [-81.5540053, 28.3999724], [-81.5541581, 28.4000665], [-81.5544103, 28.3996751], [-81.5542843, 28.399576], [-81.55415, 28.3995333], [-81.5539381, 28.3994932], [-81.5537988, 28.3994982], [-81.5537155, 28.3995215], [-81.5536484, 28.3995545], [-81.5535894, 28.3995781], [-81.5535331, 28.399597], [-81.5534717, 28.3995902], [-81.5534205, 28.3995663], [-81.5533912, 28.3995147], [-81.5533859, 28.3994675], [-81.5533939, 28.3994226], [-81.5534205, 28.3993894], [-81.5534824, 28.3993755], [-81.5535441, 28.3993707], [-81.5535869, 28.3993471], [-81.5536164, 28.3992764], [-81.5536539, 28.399241], [-81.5537478, 28.3991796], [-81.553831, 28.3991395], [-81.5539569, 28.399085], [-81.5540427, 28.3990355], [-81.5541151, 28.3989836], [-81.5541715, 28.3989175], [-81.5542332, 28.3988562], [-81.5543056, 28.3988444], [-81.5543968, 28.3988514], [-81.5544907, 28.3988703], [-81.5545899, 28.3989246], [-81.554665, 28.3989954], [-81.5547052, 28.3990779], [-81.5547052, 28.3991629], [-81.5547106, 28.3992573], [-81.5547186, 28.3993257], [-81.5547428, 28.3993705], [-81.5548125, 28.3994366], [-81.5548662, 28.399505], [-81.5548796, 28.3995734], [-81.5548796, 28.3996112], [-81.5549493, 28.3996395], [-81.5550191, 28.3997008], [-81.5550325, 28.3997527], [-81.5550325, 28.3998117], [-81.5550298, 28.3999061], [-81.5550378, 28.4000264], [-81.5550915, 28.4000878], [-81.5552444, 28.4001845], [-81.5553838, 28.4002175], [-81.5555367, 28.40026], [-81.5556505, 28.4003067], [-81.5558172, 28.4004782], [-81.5558609, 28.4005211], [-81.5559179, 28.4005856], [-81.5559446, 28.400632], [-81.5559642, 28.4006657], [-81.5559916, 28.4007021], [-81.5560261, 28.4007328], [-81.5560681, 28.4007604], [-81.5561012, 28.4008012], [-81.5561126, 28.4008455], [-81.5561218, 28.4008986], [-81.5563887, 28.401141], [-81.5564365, 28.4013466], [-81.5565428, 28.401627], [-81.5567446, 28.4019308], [-81.5569306, 28.402314]]]}, "properties": {"kind": "wood", "name": null, "highway": null}}, {"type": "Feature", "geometry": {"type": "LineString", "coordinates": [[-81.5570245, 28.4023338], [-81.5571396, 28.4025856], [-81.5575863, 28.4035302], [-81.5576789, 28.4036992], [-81.5578266, 28.4039681], [-81.5580549, 28.4042859], [-81.5582985, 28.4045941], [-81.5586271, 28.4050211], [-81.5587196, 28.4051508], [-81.5588031, 28.4052879], [-81.5589252, 28.4054856], [-81.5590345, 28.4057219], [-81.5592256, 28.4061349], [-81.55926, 28.4064821], [-81.5591484, 28.4068219], [-81.5588995, 28.4072597], [-81.5588737, 28.4080298], [-81.5588909, 28.4083016], [-81.5589167, 28.4085054], [-81.5590025, 28.40883], [-81.5592943, 28.4094126], [-81.5593201, 28.4094642], [-81.5599037, 28.4102569], [-81.5600668, 28.4105589], [-81.5602985, 28.410891]]}, "properties": {"kind": "road", "name": "Fort Wilderness Trail", "highway": "unclassified"}}, {"type": "Feature", "geometry": {"type": "LineString", "coordinates": [[-81.5594197, 28.4018348], [-81.5591757, 28.4018511], [-81.5586506, 28.4018994], [-81.5578352, 28.4020731], [-81.5570245, 28.4023338]]}, "properties": {"kind": "road", "name": "Frontier Way", "highway": "unclassified"}}, {"type": "Feature", "geometry": {"type": "Polygon", "coordinates": [[[-81.5589678, 28.4054944], [-81.5589249, 28.4054142], [-81.559012, 28.4053858], [-81.5591059, 28.4053351], [-81.5591904, 28.4052596], [-81.5592601, 28.4051818], [-81.5593299, 28.4050508], [-81.5593996, 28.4049352], [-81.5594278, 28.4048503], [-81.5594332, 28.4047724], [-81.5594291, 28.4046663], [-81.5593808, 28.4045778], [-81.5593165, 28.4045188], [-81.5592306, 28.4044339], [-81.5591435, 28.4043537], [-81.5590322, 28.4042699], [-81.55889, 28.4041979], [-81.5587197, 28.4041602], [-81.5585306, 28.4041578], [-81.5584005, 28.4041932], [-81.5583214, 28.4042699], [-81.5583227, 28.4043454], [-81.558367, 28.4044834], [-81.5583026, 28.4045436], [-81.5580545, 28.4042404], [-81.5580541, 28.4042002], [-81.5580231, 28.4041097], [-81.5579029, 28.4038228], [-81.5578144, 28.4036359], [-81.5577594, 28.4035197], [-81.5577916, 28.4035114], [-81.5578265, 28.4035149], [-81.55786, 28.4035279], [-81.5579204, 28.4035527], [-81.557974, 28.4036058], [-81.5580049, 28.4036683], [-81.5580317, 28.4037249], [-81.5580786, 28.4037933], [-81.558143, 28.4038488], [-81.5581953, 28.4038794], [-81.5582771, 28.4039113], [-81.558371, 28.4039231], [-81.5583066, 28.4040694], [-81.558375, 28.4040694], [-81.558489, 28.4040694], [-81.5586178, 28.4040481], [-81.5586996, 28.4039915], [-81.5587894, 28.4039361], [-81.5588323, 28.4038959], [-81.5588927, 28.4038063], [-81.5589195, 28.4037567], [-81.5589745, 28.4036388], [-81.5589973, 28.4035869], [-81.5590322, 28.4035527], [-81.5590737, 28.4035362], [-81.5591368, 28.4035362], [-81.5591918, 28.4035479], [-81.559236, 28.4035798], [-81.5592722, 28.4036152], [-81.5593125, 28.4036293], [-81.5593648, 28.4036293], [-81.5593956, 28.4036376], [-81.559405, 28.4036506], [-81.5592628, 28.4037202], [-81.5591542, 28.4037744], [-81.5590871, 28.4038358], [-81.559059, 28.4038936], [-81.5590442, 28.4039714], [-81.5590469, 28.4040446], [-81.5590764, 28.4041342], [-81.559122, 28.4042215], [-81.5592092, 28.4042864], [-81.5593125, 28.4043725], [-81.5594466, 28.4045011], [-81.5595659, 28.4046273], [-81.5596477, 28.4046969], [-81.5597429, 28.4047736], [-81.5598569, 28.4048338], [-81.559979, 28.404901], [-81.5601171, 28.4049517], [-81.5602325, 28.4049871], [-81.5602325, 28.4050237], [-81.5601077, 28.4050414], [-81.5599508, 28.4050638], [-81.5597885, 28.4051004], [-81.5596437, 28.4051499], [-81.5594908, 28.4052608], [-81.5594305, 28.4053233], [-81.5593822, 28.4053988], [-81.5589678, 28.4054944]]]}, "properties": {"kind": "wood", "name": null, "highway": null}}, {"type": "Feature", "geometry": {"type": "Polygon", "coordinates": [[[-81.5577209, 28.4034354], [-81.5576931, 28.4034605], [-81.5576663, 28.4034699], [-81.5576368, 28.4034734], [-81.5576113, 28.4034687], [-81.5575885, 28.4034581], [-81.5575724, 28.4034369], [-81.5571178, 28.4024613], [-81.5571996, 28.4023221], [-81.5577387, 28.4021439], [-81.5578098, 28.4021239], [-81.5579439, 28.402085], [-81.5581625, 28.4020366], [-81.5583074, 28.4020047], [-81.558471, 28.4019741], [-81.5586212, 28.4019493], [-81.5587768, 28.4019269], [-81.5589779, 28.4019057], [-81.5592917, 28.4018809], [-81.5593856, 28.4019222], [-81.559395, 28.4020661], [-81.5593776, 28.4021038], [-81.5593534, 28.4021298], [-81.5593145, 28.4021475], [-81.559281, 28.4021569], [-81.5593561, 28.4020059], [-81.559277, 28.401967], [-81.5591053, 28.4019599], [-81.5589323, 28.4019835], [-81.5587526, 28.4020319], [-81.5585863, 28.4021475], [-81.5585152, 28.402289], [-81.558467, 28.4024471], [-81.5584965, 28.4025509], [-81.5585461, 28.4026111], [-81.5586292, 28.4027114], [-81.5587043, 28.4028223], [-81.5587674, 28.4029591], [-81.5587861, 28.4030936], [-81.558821, 28.4032446], [-81.5588492, 28.4033283], [-81.5588814, 28.4034298], [-81.5588639, 28.4034475], [-81.5588395, 28.4034446], [-81.5588241, 28.4034242], [-81.5588022, 28.4033625], [-81.5587848, 28.4032481], [-81.5587405, 28.4030889], [-81.5587003, 28.4029827], [-81.5586252, 28.4028223], [-81.5585635, 28.4027137], [-81.5584281, 28.4026276], [-81.5582899, 28.4025521], [-81.5581116, 28.4025096], [-81.5579788, 28.4025132], [-81.5578273, 28.4025615], [-81.5576703, 28.4026559], [-81.5575943, 28.4027817], [-81.5577629, 28.4028871], [-81.5577495, 28.4029921], [-81.5577579, 28.4031096], [-81.5577737, 28.4031879], [-81.5577926, 28.4032532], [-81.5577941, 28.4033038], [-81.5577789, 28.4033492], [-81.5577589, 28.4033952], [-81.5577368, 28.4034219], [-81.5577209, 28.4034354]]]}, "properties": {"kind": "wood", "name": null, "highway": null}}, {"type": "Feature", "geometry": {"type": "LineString", "coordinates": [[-81.557816, 28.4033258], [-81.5577951, 28.4033808], [-81.5577649, 28.403428], [-81.5577313, 28.4034604], [-81.5576965, 28.4034953], [-81.5577477, 28.4034951], [-81.5577884, 28.4034964], [-81.5578319, 28.4035012], [-81.5578731, 28.4035165]]}, "properties": {"kind": "road", "name": null, "highway": "service"}}, {"type": "Feature", "geometry": {"type": "Polygon", "coordinates": [[[-81.5580437, 28.4058138], [-81.5578487, 28.4056098], [-81.5573958, 28.4051994], [-81.55697, 28.4049125], [-81.5564944, 28.4047571], [-81.5561999, 28.404773], [-81.556064, 28.4048248], [-81.5559734, 28.4048966], [-81.5559236, 28.4049882], [-81.5559146, 28.4051277], [-81.5558557, 28.4057094], [-81.5558466, 28.4058289], [-81.5555794, 28.4059524], [-81.5551083, 28.4062273], [-81.5546734, 28.4063947], [-81.554542, 28.4064266], [-81.5544589, 28.4064313], [-81.5544884, 28.4065046], [-81.5545161, 28.406613], [-81.5545219, 28.4065773], [-81.554538, 28.406536], [-81.5545715, 28.4065053], [-81.5546265, 28.40649], [-81.5547069, 28.4064723], [-81.5547981, 28.4064499], [-81.55487, 28.4064236], [-81.5549014, 28.4064121], [-81.5550288, 28.4063602], [-81.5551415, 28.4063083], [-81.5552648, 28.4062387], [-81.5553627, 28.4061868], [-81.5554781, 28.4061314], [-81.5556926, 28.4060082], [-81.5558602, 28.4059205], [-81.5559327, 28.4059205], [-81.5560006, 28.4059763], [-81.5561003, 28.4061118], [-81.5561505, 28.406097], [-81.5561909, 28.406048], [-81.556055, 28.4058329], [-81.5560051, 28.4057253], [-81.5560323, 28.4054823], [-81.5560414, 28.40504], [-81.5560867, 28.4049484], [-81.5562045, 28.4048846], [-81.5563539, 28.4048766], [-81.5566484, 28.4049165], [-81.5569654, 28.4050679], [-81.5572871, 28.4052791], [-81.5576766, 28.4055779], [-81.5578487, 28.4057293], [-81.5579551, 28.4058617], [-81.5579958, 28.4058403], [-81.5580437, 28.4058138]]]}, "properties": {"kind": "water", "name": null, "highway": null}}, {"type": "Feature", "geometry": {"type": "Polygon", "coordinates": [[[-81.5593481, 28.4017791], [-81.5588205, 28.4017878], [-81.5583626, 28.4018404], [-81.5575114, 28.4020899], [-81.5571979, 28.4021731], [-81.5570784, 28.4021556], [-81.5569888, 28.4020768], [-81.5568893, 28.4017353], [-81.5568992, 28.4014463], [-81.5568245, 28.4009209], [-81.5567797, 28.4003429], [-81.5566702, 28.3998526], [-81.5565856, 28.3997475], [-81.5563815, 28.399765], [-81.5562173, 28.3997168], [-81.5559535, 28.3993753], [-81.5558589, 28.3992352], [-81.5558888, 28.3991301], [-81.5559833, 28.3990469], [-81.5559684, 28.3988937], [-81.5557942, 28.3987579], [-81.5556051, 28.3987448], [-81.5555105, 28.3987098], [-81.5555055, 28.3986353], [-81.5556051, 28.3985522], [-81.5558938, 28.3984339], [-81.5561974, 28.3983376], [-81.5563567, 28.3982413], [-81.5565159, 28.3980968], [-81.5567648, 28.3979742], [-81.5570635, 28.3979435], [-81.557382, 28.3980486], [-81.5577006, 28.3981931], [-81.5583078, 28.3982675], [-81.5587508, 28.3983683], [-81.5589898, 28.3985259], [-81.5590943, 28.398666], [-81.5591192, 28.3988149], [-81.5590146, 28.3988149], [-81.5589599, 28.3986572], [-81.5588803, 28.3985565], [-81.5586712, 28.3984339], [-81.558278, 28.3983683], [-81.557616, 28.3982544], [-81.5572377, 28.398088], [-81.5569739, 28.3980749], [-81.5567001, 28.3981756], [-81.5564911, 28.3983157], [-81.5563666, 28.3984996], [-81.5563368, 28.3991564], [-81.5564015, 28.3993359], [-81.5565757, 28.399476], [-81.5568345, 28.3995767], [-81.5572277, 28.3995986], [-81.5581486, 28.399511], [-81.558716, 28.3993709], [-81.55893, 28.3993228], [-81.55893, 28.3994848], [-81.5581287, 28.399638], [-81.5573621, 28.3997212], [-81.5570137, 28.3997475], [-81.5568594, 28.3998394], [-81.5568046, 28.4000189], [-81.5568743, 28.4003079], [-81.5569938, 28.4005137], [-81.5571481, 28.4006363], [-81.557382, 28.400702], [-81.5576857, 28.4006976], [-81.5586563, 28.4006319], [-81.5588404, 28.4005531], [-81.5590196, 28.4003692], [-81.5590993, 28.4003736], [-81.5592088, 28.4007677], [-81.5592735, 28.4010698], [-81.5592785, 28.401315], [-81.5591689, 28.401315], [-81.559159, 28.4010917], [-81.5591142, 28.4009778], [-81.5589599, 28.4008377], [-81.5587707, 28.4007764], [-81.5581585, 28.4007677], [-81.5575961, 28.4008027], [-81.5573422, 28.4009209], [-81.5572028, 28.4011135], [-81.5571431, 28.4013587], [-81.5572078, 28.4015514], [-81.5573721, 28.4017397], [-81.5576608, 28.4018185], [-81.5579395, 28.4017878], [-81.5583775, 28.4016784], [-81.558945, 28.4016433], [-81.5593282, 28.4016477], [-81.5593481, 28.4017791]]]}, "properties": {"kind": "wood", "name": null, "highway": null}}, {"type": "Feature", "geometry": {"type": "LineString", "coordinates": [[-81.5591836, 28.4019091], [-81.5585371, 28.401992], [-81.5583233, 28.4020354], [-81.5579726, 28.4021066], [-81.5578985, 28.4021488], [-81.5578495, 28.4021766], [-81.5575022, 28.4025108], [-81.5574949, 28.4026063], [-81.5575202, 28.4027891]]}, "properties": {"kind": "trail", "name": null, "highway": "footway"}}, {"type": "Feature", "geometry": {"type": "LineString", "coordinates": [[-81.5578985, 28.4021488], [-81.5580558, 28.4022944], [-81.5581137, 28.4024185], [-81.5581028, 28.4024853], [-81.5580377, 28.402619], [-81.5580247, 28.402743]]}, "properties": {"kind": "trail", "name": null, "highway": "footway"}}, {"type": "Feature", "geometry": {"type": "LineString", "coordinates": [[-81.5580558, 28.4022944], [-81.5583453, 28.4022753], [-81.5585733, 28.4023517], [-81.5587147, 28.4023986]]}, "properties": {"kind": "trail", "name": null, "highway": "footway"}}, {"type": "Feature", "geometry": {"type": "LineString", "coordinates": [[-81.5565925, 28.4025823], [-81.556413, 28.4026922], [-81.5562465, 28.4028673], [-81.5561343, 28.4030328], [-81.556062, 28.4032747], [-81.5560656, 28.403523], [-81.5560511, 28.403889], [-81.5560077, 28.4041723], [-81.5558955, 28.4044715], [-81.5558195, 28.4047707], [-81.5557906, 28.4049585], [-81.5557773, 28.4053553], [-81.5557774, 28.4053591], [-81.5557786, 28.4053965], [-81.555787, 28.4058083]]}, "properties": {"kind": "trail", "name": null, "highway": "footway"}}, {"type": "Feature", "geometry": {"type": "LineString", "coordinates": [[-81.5552032, 28.4052896], [-81.5552926, 28.4051235], [-81.5553274, 28.4049772], [-81.5553435, 28.4048285], [-81.5552835, 28.404655]]}, "properties": {"kind": "trail", "name": null, "highway": "footway"}}, {"type": "Feature", "geometry": {"type": "LineString", "coordinates": [[-81.5566122, 28.4040364], [-81.5565934, 28.4038306], [-81.5565937, 28.4036287]]}, "properties": {"kind": "trail", "name": null, "highway": "footway"}}, {"type": "Feature", "geometry": {"type": "LineString", "coordinates": [[-81.5560511, 28.403889], [-81.5559668, 28.4038658], [-81.5558987, 28.4038471], [-81.5558263, 28.4037928], [-81.5557646, 28.4037692], [-81.5553328, 28.4037385], [-81.5551719, 28.4037126], [-81.5550857, 28.4036815], [-81.5549171, 28.4036206], [-81.5546596, 28.403479], [-81.5545711, 28.4034672], [-81.55427, 28.4035649]]}, "properties": {"kind": "trail", "name": null, "highway": "footway"}}, {"type": "Feature", "geometry": {"type": "LineString", "coordinates": [[-81.5578144, 28.4036359], [-81.5577024, 28.4036882]]}, "properties": {"kind": "trail", "name": null, "highway": "footway"}}, {"type": "Feature", "geometry": {"type": "LineString", "coordinates": [[-81.5552421, 28.4026016], [-81.5550995, 28.402448], [-81.5549948, 28.4023607], [-81.5548661, 28.4023041], [-81.5547431, 28.4022875]]}, "properties": {"kind": "trail", "name": null, "highway": "footway"}}, {"type": "Feature", "geometry": {"type": "Polygon", "coordinates": [[[-81.5559265, 28.4036505], [-81.5558946, 28.4033935], [-81.5559424, 28.4031411], [-81.5560062, 28.4029869], [-81.5556609, 28.4034355], [-81.5554218, 28.403529], [-81.5552093, 28.403515], [-81.555204, 28.4035991], [-81.5555387, 28.4036645], [-81.5558202, 28.4036645], [-81.5559265, 28.4036505]]]}, "properties": {"kind": "wood", "name": null, "highway": null}}, {"type": "Feature", "geometry": {"type": "Polygon", "coordinates": [[[-81.557159, 28.4042066], [-81.5568509, 28.4042954], [-81.5566649, 28.4043], [-81.5566596, 28.4043795], [-81.5569253, 28.4044122], [-81.5571378, 28.4045197], [-81.5572334, 28.4045851], [-81.557329, 28.4044916], [-81.557159, 28.4042066]]]}, "properties": {"kind": "wood", "name": null, "highway": null}}, {"type": "Feature", "geometry": {"type": "Polygon", "coordinates": [[[-81.5568509, 28.4032907], [-81.5567287, 28.4030897], [-81.5565959, 28.4031832], [-81.5567234, 28.4033514], [-81.5568509, 28.4032907]]]}, "properties": {"kind": "wood", "name": null, "highway": null}}, {"type": "Feature", "geometry": {"type": "Polygon", "coordinates": [[[-81.5584978, 28.4035664], [-81.5582959, 28.4032673], [-81.5581684, 28.4029776], [-81.5579931, 28.4030336], [-81.558094, 28.4033841], [-81.558365, 28.4036692], [-81.5584978, 28.4035664]]]}, "properties": {"kind": "wood", "name": null, "highway": null}}, {"type": "Feature", "geometry": {"type": "Polygon", "coordinates": [[[-81.5558149, 28.402328], [-81.5556024, 28.4025523], [-81.5554962, 28.4025149], [-81.5554324, 28.4021598], [-81.5555918, 28.4020803], [-81.5557937, 28.402099], [-81.5558149, 28.402328]]]}, "properties": {"kind": "wood", "name": null, "highway": null}}, {"type": "Feature", "geometry": {"type": "Polygon", "coordinates": [[[-81.555629, 28.4054403], [-81.5556715, 28.4048468], [-81.5557352, 28.4045524], [-81.5558946, 28.404029], [-81.5558999, 28.4039168], [-81.5556768, 28.4038234], [-81.5557299, 28.4042346], [-81.5555918, 28.4047486], [-81.5555334, 28.4051131], [-81.5553846, 28.4052253], [-81.5553262, 28.4053421], [-81.5554962, 28.4054589], [-81.555629, 28.4054403]]]}, "properties": {"kind": "wood", "name": null, "highway": null}}, {"type": "Feature", "geometry": {"type": "LineString", "coordinates": [[-81.5577024, 28.4036882], [-81.5576789, 28.4036992], [-81.5576384, 28.4037181]]}, "properties": {"kind": "trail", "name": null, "highway": "footway"}}, {"type": "Feature", "geometry": {"type": "LineString", "coordinates": [[-81.5576384, 28.4037181], [-81.5576096, 28.4037316]]}, "properties": {"kind": "trail", "name": null, "highway": "footway"}}]}