{
 "type": "FeatureCollection",
 "features": [
  {
   "type": "Feature",
   "geometry": {
    "type": "LineString",
    "coordinates": [
     [
      -81.55512670445736,
      28.403640420083725
     ],
     [
      -81.55502230759778,
      28.403607489526266
     ],
     [
      -81.55492012712483,
      28.403568217693483
     ],
     [
      -81.55482054781339,
      28.403522752468984
     ],
     [
      -81.55472394464336,
      28.403471265058442
     ],
     [
      -81.55463068138752,
      28.403413949344937
     ],
     [
      -81.55454110924175,
      28.403351021158823
     ],
     [
      -81.55445556550255,
      28.40328271746502
     ],
     [
      -81.55405918279686,
      28.402979070472252
     ]
    ]
   },
   "properties": {
    "theoretical_left": [
     1852,
     1898
    ],
    "theoretical_right": [
     1853,
     1899
    ],
    "from": "Hickory Hollow, Timber Trl",
    "to": "Conestoga Trl",
    "length_ft": 423.1
   }
  },
  {
   "type": "Feature",
   "geometry": {
    "type": "LineString",
    "coordinates": [
     [
      -81.55426409337215,
      28.402814491764033
     ],
     [
      -81.55414079752637,
      28.402610239776504
     ],
     [
      -81.5541181117431,
      28.402565238615157
     ],
     [
      -81.5541004684234,
      28.40251850415548
     ],
     [
      -81.55408803237495,
      28.402470476473482
     ],
     [
      -81.55408092181588,
      28.402421608898376
     ],
     [
      -81.55407775547383,
      28.40235646655658
     ],
     [
      -81.55408246607901,
      28.40229139737638
     ],
     [
      -81.55409499448326,
      28.402227142130812
     ],
     [
      -81.55413538426079,
      28.402046437659628
     ],
     [
      -81.55418033049044,
      28.401866576185732
     ],
     [
      -81.55422981339754,
      28.40168764717188
     ],
     [
      -81.55428380777533,
      28.40150974216531
     ],
     [
      -81.55429969461503,
      28.401471805131877
     ],
     [
      -81.55432166663869,
      28.40143632209298
     ],
     [
      -81.55434925499621,
      28.401404051301434
     ],
     [
      -81.55438187150524,
      28.401375682048677
     ],
     [
      -81.55441881636307,
      28.40135182225741
     ],
     [
      -81.55445930293679,
      28.40133298050364
     ],
     [
      -81.55450246318128,
      28.401319561181726
     ],
     [
      -81.554547374776,
      28.40131184926751
     ],
     [
      -81.55459307822812,
      28.40131000956118
     ]
    ]
   },
   "properties": {
    "theoretical_left": [
     1901,
     1951
    ],
    "theoretical_right": [
     1900,
     1950
    ],
    "from": "Wagon Wheel Way",
    "to": "Wagon Wheel Way",
    "length_ft": 629.4
   }
  }
 ]
}