{
 "type": "FeatureCollection",
 "features": [
  {
   "type": "Feature",
   "geometry": {
    "type": "LineString",
    "coordinates": [
     [
      -81.5578867,
      28.4104532
     ],
     [
      -81.5577862,
      28.4105591
     ],
     [
      -81.5576626,
      28.4106099
     ],
     [
      -81.5573793,
      28.4107307
     ],
     [
      -81.5571648,
      28.4108666
     ],
     [
      -81.5571133,
      28.4109647
     ],
     [
      -81.557139,
      28.4111081
     ],
     [
      -81.5571734,
      28.4113271
     ],
     [
      -81.5572334,
      28.4114403
     ],
     [
      -81.5572588,
      28.4114774
     ],
     [
      -81.5573622,
      28.411629
     ],
     [
      -81.5574394,
      28.411848
     ],
     [
      -81.5574738,
      28.4120292
     ],
     [
      -81.557551,
      28.4121197
     ],
     [
      -81.557654,
      28.4122707
     ],
     [
      -81.5577742,
      28.412316
     ],
     [
      -81.5579115,
      28.4122934
     ],
     [
      -81.5579802,
      28.4122103
     ],
     [
      -81.5579973,
      28.4119914
     ],
     [
      -81.5579802,
      28.4118027
     ],
     [
      -81.5580317,
      28.411697
     ],
     [
      -81.5580917,
      28.4115838
     ],
     [
      -81.5581862,
      28.4115083
     ],
     [
      -81.5582548,
      28.4113799
     ],
     [
      -81.5582806,
      28.4112667
     ],
     [
      -81.5582682,
      28.4112196
     ],
     [
      -81.5582548,
      28.4111685
     ],
     [
      -81.5581347,
      28.4110704
     ],
     [
      -81.5580145,
      28.4109798
     ],
     [
      -81.5578943,
      28.4108741
     ],
     [
      -81.5578257,
      28.4107911
     ],
     [
      -81.5578514,
      28.4107005
     ],
     [
      -81.5579287,
      28.410625
     ],
     [
      -81.5580341,
      28.4105492
     ]
    ]
   },
   "properties": {
    "source": "OpenStreetMap",
    "streets": [
     "Cypress Knee Circle"
    ],
    "length_ft": 1679.6
   }
  }
 ]
}