{
 "type": "FeatureCollection",
 "features": [
  {
   "type": "Feature",
   "geometry": {
    "type": "LineString",
    "coordinates": [
     [
      -81.55891276886548,
      28.408512374796455
     ],
     [
      -81.55887430290004,
      28.408519471771307
     ],
     [
      -81.55883507041719,
      28.408521434224163
     ],
     [
      -81.55879594451062,
      28.408518217317038
     ],
     [
      -81.55875779421793,
      28.408509892431987
     ],
     [
      -81.55872146663393,
      28.408496647244334
     ],
     [
      -81.55868777128863,
      28.408478772722503
     ],
     [
      -81.55865243974111,
      28.40845615573402
     ],
     [
      -81.55862175685573,
      28.40842874574818
     ],
     [
      -81.55859654303487,
      28.408397276497634
     ],
     [
      -81.5585774745975,
      28.408362589569723
     ],
     [
      -81.55856506425508,
      28.408325618671473
     ],
     [
      -81.55855964302417,
      28.408287351198595
     ],
     [
      -81.55854923581667,
      28.40788431886314
     ],
     [
      -81.55855582180064,
      28.40760455702881
     ],
     [
      -81.55857298337519,
      28.407480789583932
     ],
     [
      -81.55859217160699,
      28.407407000779532
     ],
     [
      -81.55859847003335,
      28.40738212345849
     ],
     [
      -81.5586035290798,
      28.4073606967231
     ],
     [
      -81.55860735107692,
      28.40734271987641
     ],
     [
      -81.55860993214104,
      28.407328193622003
     ],
     [
      -81.55861127537987,
      28.407317117259648
     ],
     [
      -81.55861138002345,
      28.407309492167716
     ],
     [
      -81.55860446545881,
      28.40723025951154
     ],
     [
      -81.55861008321622,
      28.407182218079807
     ],
     [
      -81.55862276664183,
      28.407134149045078
     ],
     [
      -81.55869363412543,
      28.40699721815251
     ],
     [
      -81.55875236393835,
      28.40686358449123
     ],
     [
      -81.5588021245648,
      28.406729444405297
     ],
     [
      -81.55883023985679,
      28.40666407352082
     ],
     [
      -81.55883846915314,
      28.406642316790617
     ],
     [
      -81.558844006116,
      28.406621581172754
     ],
     [
      -81.55884684997666,
      28.406601868045897
     ],
     [
      -81.55886585184581,
      28.406358091013697
     ],
     [
      -81.55887884614602,
      28.406293430551965
     ],
     [
      -81.55888318106906,
      28.406275851767248
     ],
     [
      -81.55888884208714,
      28.406259644092557
     ],
     [
      -81.55889583308802,
      28.40624480751173
     ],
     [
      -81.55890415173849,
      28.406231342034207
     ],
     [
      -81.55891379804558,
      28.40621924903487
     ],
     [
      -81.55892477122069,
      28.40620852645391
     ],
     [
      -81.55893707438165,
      28.40619917565342
     ],
     [
      -81.55898884000581,
      28.40616458107441
     ],
     [
      -81.55904765153959,
      28.406138952584687
     ],
     [
      -81.55911110372975,
      28.406119331042813
     ],
     [
      -81.55918973698266,
      28.406086779627454
     ]
    ]
   },
   "properties": {
    "theoretical_left": [
     600,
     698
    ],
    "theoretical_right": [
     601,
     699
    ],
    "from": "Fort Wilderness Trl, Cinnamon Fern Way",
    "to": "Fort Wilderness Trl",
    "length_ft": 1036.2
   }
  }
 ]
}