{
 "type": "FeatureCollection",
 "features": [
  {
   "type": "Feature",
   "geometry": {
    "type": "LineString",
    "coordinates": [
     [
      -81.55797087866848,
      28.410158179694434
     ],
     [
      -81.55825697157778,
      28.40991835322722
     ],
     [
      -81.55836768942255,
      28.409819053139287
     ],
     [
      -81.55847454045959,
      28.409716494524673
     ],
     [
      -81.55858305552779,
      28.40960444991797
     ],
     [
      -81.5586862041734,
      28.40948850936308
     ],
     [
      -81.55871053674646,
      28.409452020345874
     ],
     [
      -81.55873066661258,
      28.409413580688707
     ],
     [
      -81.55874639434245,
      28.409373568697156
     ],
     [
      -81.55875756568757,
      28.409332376930518
     ],
     [
      -81.558765021254,
      28.40928095328659
     ],
     [
      -81.55876493270796,
      28.409229108158772
     ],
     [
      -81.55875730147817,
      28.409177704463733
     ],
     [
      -81.55874882479868,
      28.40915354440029
     ],
     [
      -81.5587365529523,
      28.40913069532024
     ],
     [
      -81.55872073487576,
      28.409109616885225
     ],
     [
      -81.55870169167201,
      28.40909073889435
     ],
     [
      -81.5586798102987,
      28.409074444120602
     ]
    ]
   },
   "properties": {
    "theoretical_left": [
     501,
     551
    ],
    "theoretical_right": [
     500,
     550
    ],
    "from": "Terry Trl",
    "to": "Terry Trl",
    "length_ft": 500.8
   }
  }
 ]
}