{
 "type": "FeatureCollection",
 "features": [
  {
   "type": "Feature",
   "geometry": {
    "type": "LineString",
    "coordinates": [
     [
      -81.5599135,
      28.4114568
     ],
     [
      -81.5598784,
      28.4114797
     ],
     [
      -81.5598661,
      28.4114946
     ],
     [
      -81.5598542,
      28.4115219
     ],
     [
      -81.5598487,
      28.4115566
     ],
     [
      -81.5598618,
      28.4116039
     ],
     [
      -81.5598838,
      28.4116567
     ],
     [
      -81.5599128,
      28.4117182
     ],
     [
      -81.5599319,
      28.41177
     ],
     [
      -81.5599516,
      28.4118143
     ],
     [
      -81.5599675,
      28.4118633
     ],
     [
      -81.5599849,
      28.4119344
     ],
     [
      -81.5599992,
      28.4119934
     ],
     [
      -81.5600073,
      28.4120182
     ],
     [
      -81.5600284,
      28.4120427
     ],
     [
      -81.5600584,
      28.4120638
     ],
     [
      -81.5600913,
      28.4120762
     ],
     [
      -81.5601474,
      28.4120788
     ],
     [
      -81.5602069,
      28.4120723
     ],
     [
      -81.5602545,
      28.4120664
     ],
     [
      -81.5603159,
      28.4120562
     ],
     [
      -81.5603648,
      28.4120381
     ],
     [
      -81.5604031,
      28.4120188
     ],
     [
      -81.5604317,
      28.4119991
     ],
     [
      -81.5604526,
      28.4119723
     ],
     [
      -81.5604659,
      28.4119448
     ],
     [
      -81.5604665,
      28.4119083
     ],
     [
      -81.5604497,
      28.4118298
     ],
     [
      -81.56042,
      28.4117444
     ],
     [
      -81.5603577,
      28.4115687
     ],
     [
      -81.5603415,
      28.4115323
     ],
     [
      -81.5603106,
      28.4114877
     ],
     [
      -81.5602617,
      28.4114442
     ],
     [
      -81.5602121,
      28.4114178
     ],
     [
      -81.5601426,
      28.4113978
     ],
     [
      -81.5600793,
      28.4113946
     ],
     [
      -81.5600135,
      28.4114055
     ],
     [
      -81.5599651,
      28.4114256
     ],
     [
      -81.5599135,
      28.4114568
     ]
    ]
   },
   "properties": {
    "source": "OpenStreetMap",
    "streets": [
     "Bay Tree Lane"
    ],
    "length_ft": 713.7
   }
  }
 ]
}