{
 "type": "FeatureCollection",
 "features": [
  {
   "type": "Feature",
   "geometry": {
    "type": "LineString",
    "coordinates": [
     [
      -81.5550209,
      28.4039087
     ],
     [
      -81.5549457,
      28.4040515
     ],
     [
      -81.5548428,
      28.4041874
     ],
     [
      -81.5547312,
      28.4042931
     ],
     [
      -81.554611,
      28.4043535
     ],
     [
      -81.5544908,
      28.4043761
     ],
     [
      -81.5543192,
      28.4044214
     ],
     [
      -81.5541475,
      28.4044969
     ],
     [
      -81.5540445,
      28.4046102
     ],
     [
      -81.5540188,
      28.4047461
     ],
     [
      -81.5540968,
      28.4048819
     ],
     [
      -81.5542505,
      28.4049424
     ],
     [
      -81.5544565,
      28.4049424
     ],
     [
      -81.5546539,
      28.4049046
     ],
     [
      -81.554817,
      28.4048518
     ],
     [
      -81.5550058,
      28.4047914
     ],
     [
      -81.5551088,
      28.4047385
     ],
     [
      -81.5552094,
      28.4046984
     ],
     [
      -81.5552835,
      28.404655
     ],
     [
      -81.5553124,
      28.404638
     ],
     [
      -81.5554068,
      28.4045474
     ],
     [
      -81.5554498,
      28.4044417
     ],
     [
      -81.5554841,
      28.4042907
     ],
     [
      -81.5554634,
      28.4041706
     ],
     [
      -81.555391,
      28.4040585
     ],
     [
      -81.5552622,
      28.4039948
     ],
     [
      -81.5551134,
      28.4039547
     ],
     [
      -81.5550209,
      28.4039087
     ]
    ]
   },
   "properties": {
    "source": "OpenStreetMap",
    "streets": [
     "Timber Trail"
    ],
    "length_ft": 1316.1
   }
  }
 ]
}