{
 "type": "FeatureCollection",
 "features": [
  {
   "type": "Feature",
   "geometry": {
    "type": "LineString",
    "coordinates": [
     [
      -81.55706640485177,
      28.403485783941893
     ],
     [
      -81.5570017250179,
      28.40352285586828
     ],
     [
      -81.55693468784509,
      28.403555472215366
     ],
     [
      -81.55686559981442,
      28.40358348386747
     ],
     [
      -81.5567947767831,
      28.403606762760706
     ],
     [
      -81.55672254254043,
      28.403625202468433
     ],
     [
      -81.55667914744318,
      28.40363265819355
     ],
     [
      -81.55663513421092,
      28.403633906267316
     ],
     [
      -81.55659138634518,
      28.403628921636464
     ],
     [
      -81.55654878202063,
      28.4036178043602
     ],
     [
      -81.55650817645702,
      28.40360077760165
     ],
     [
      -81.55647038475192,
      28.403578183148188
     ],
     [
      -81.55643616551873,
      28.403550474550563
     ],
     [
      -81.55640620565873,
      28.403518208018504
     ],
     [
      -81.55638430191414,
      28.403490578438195
     ],
     [
      -81.5563668711132,
      28.40345992986703
     ],
     [
      -81.55635432157705,
      28.40342698025584
     ],
     [
      -81.55634694728182,
      28.403392501457926
     ],
     [
      -81.55634492097236,
      28.40335730114819
     ],
     [
      -81.55634829011548,
      28.403322203903137
     ],
     [
      -81.5563569757881,
      28.40328803188496
     ],
     [
      -81.55638380036206,
      28.40320138552031
     ],
     [
      -81.5564165742437,
      28.403116809974446
     ],
     [
      -81.55645513935261,
      28.40303471318614
     ],
     [
      -81.55648082196312,
      28.402997873618567
     ],
     [
      -81.55651140320182,
      28.402964986872583
     ],
     [
      -81.55654628226542,
      28.402936699045796
     ],
     [
      -81.55658477391496,
      28.40291356588481
     ],
     [
      -81.55662612193812,
      28.402896041866928
     ],
     [
      -81.55666951400585,
      28.402884471271463
     ],
     [
      -81.55671409763154,
      28.402879081415946
     ],
     [
      -81.55675899691903,
      28.402879978190235
     ],
     [
      -81.55680332977066,
      28.402887143976177
     ],
     [
      -81.55684622521703,
      28.402900437993736
     ]
    ]
   },
   "properties": {
    "theoretical_left": [
     1212,
     1250
    ],
    "theoretical_right": [
     1213,
     1251
    ],
    "from": "Dogwood Dr",
    "to": "Dogwood Dr",
    "length_ft": 573.9
   }
  }
 ]
}