{
 "type": "FeatureCollection",
 "features": [
  {
   "type": "Feature",
   "geometry": {
    "type": "LineString",
    "coordinates": [
     [
      -81.55572558856335,
      28.40556869960504
     ],
     [
      -81.55557378053965,
      28.405573148733684
     ]
    ]
   },
   "properties": {
    "theoretical_left": [
     1400,
     1410
    ],
    "theoretical_right": [
     1401,
     1409
    ],
    "from": "Big Pine Dr",
    "to": "Cottontail Curl",
    "length_ft": 48.8
   }
  },
  {
   "type": "Feature",
   "geometry": {
    "type": "LineString",
    "coordinates": [
     [
      -81.55557378053965,
      28.405573148733684
     ],
     [
      -81.55541719488383,
      28.40566293175824
     ],
     [
      -81.55534446401369,
      28.40570967145531
     ],
     [
      -81.55526868900373,
      28.40575246576483
     ],
     [
      -81.55519014274685,
      28.405791152673824
     ],
     [
      -81.5551140965986,
      28.40581954990371
     ],
     [
      -81.55503598412649,
      28.40584316027023
     ],
     [
      -81.5549561920245,
      28.40586187149263
     ],
     [
      -81.55490970757394,
      28.40587254521748
     ],
     [
      -81.55486198790521,
      28.405877340952433
     ],
     [
      -81.5548139828332,
      28.40587616612849
     ],
     [
      -81.55476663499864,
      28.405869043722063
     ],
     [
      -81.55472088844273,
      28.405856116345486
     ],
     [
      -81.55468242832866,
      28.4058391279515
     ],
     [
      -81.5546474434014,
      28.405817035179336
     ],
     [
      -81.55461678648969,
      28.405790386004988
     ],
     [
      -81.55459121373826,
      28.405759829186465
     ],
     [
      -81.55457349803096,
      28.40572741413958
     ],
     [
      -81.55456005125349,
      28.405693433261273
     ],
     [
      -81.55455104363402,
      28.40565832041566
     ],
     [
      -81.55454659809335,
      28.40562253441226
     ]
    ]
   },
   "properties": {
    "theoretical_left": [
     1412,
     1450
    ],
    "theoretical_right": [
     1411,
     1451
    ],
    "from": "Cottontail Curl",
    "to": "Cottontail Curl",
    "length_ft": 411.5
   }
  },
  {
   "type": "Feature",
   "geometry": {
    "type": "LineString",
    "coordinates": [
     [
      -81.55454659809335,
      28.40562253441226
     ],
     [
      -81.55454571800176,
      28.405571054127634
     ],
     [
      -81.55455199924405,
      28.405519866479082
     ],
     [
      -81.55456534086859,
      28.40546974747643
     ],
     [
      -81.55457575273242,
      28.405447933287622
     ],
     [
      -81.55458898450358,
      28.405427344588457
     ],
     [
      -81.5546048518274,
      28.40540827022829
     ],
     [
      -81.55463040289095,
      28.40538510722886
     ],
     [
      -81.5546598065492,
      28.405365853291674
     ],
     [
      -81.55469231568861,
      28.405350995518955
     ],
     [
      -81.55478028462096,
      28.4053173964908
     ],
     [
      -81.5548704022291,
      28.405288591458522
     ],
     [
      -81.55492464256879,
      28.4052789416004
     ],
     [
      -81.5549796676649,
      28.405273791539763
     ],
     [
      -81.55503499248019,
      28.405273181069372
     ],
     [
      -81.55509014502898,
      28.405277117612883
     ],
     [
      -81.55513137390349,
      28.405284650584335
     ],
     [
      -81.55517083398718,
      28.40529762063771
     ],
     [
      -81.55520761855011,
      28.405315729618945
     ],
     [
      -81.55524087464231,
      28.405338554014573
     ],
     [
      -81.55526983512675,
      28.405365573699545
     ],
     [
      -81.55530252679098,
      28.40540303501102
     ],
     [
      -81.55534006704436,
      28.40543675531868
     ],
     [
      -81.55538190825762,
      28.405466255539555
     ],
     [
      -81.55547602511909,
      28.405522251260333
     ],
     [
      -81.55557378053965,
      28.405573148733684
     ]
    ]
   },
   "properties": {
    "theoretical_left": [
     1452,
     1500
    ],
    "theoretical_right": [
     1453,
     1499
    ],
    "from": null,
    "to": null,
    "length_ft": 442.8
   }
  }
 ]
}