{"type": "FeatureCollection", "features": [{"type": "Feature", "geometry": {"type": "Point", "coordinates": [-81.557216, 28.4058871]}, "properties": {"kind": "amenity", "name": "Meadow Depot", "highway": null}}, {"type": "Feature", "geometry": {"type": "Point", "coordinates": [-81.5566073, 28.4058076]}, "properties": {"kind": "amenity", "name": null, "highway": null}}, {"type": "Feature", "geometry": {"type": "Point", "coordinates": [-81.5566041, 28.4057919]}, "properties": {"kind": "amenity", "name": null, "highway": null}}, {"type": "Feature", "geometry": {"type": "Point", "coordinates": [-81.5566014, 28.4057769]}, "properties": {"kind": "amenity", "name": null, "highway": null}}, {"type": "Feature", "geometry": {"type": "LineString", "coordinates": [[-81.5570245, 28.4023338], [-81.5565658, 28.4025155], [-81.5563417, 28.4026469], [-81.5561443, 28.402896], [-81.5560242, 28.4031225], [-81.5559641, 28.4033867], [-81.5559757, 28.4037042], [-81.5559668, 28.4038658], [-81.5559641, 28.4039152], [-81.5559525, 28.4040693], [-81.5558954, 28.4042701], [-81.5557842, 28.4046143], [-81.555737, 28.4048008], [-81.5557236, 28.4049993], [-81.5557237, 28.4053119], [-81.5557223, 28.4053948], [-81.5557182, 28.4055614], [-81.5557348, 28.4058163]]}, "properties": {"kind": "road", "name": "Big Pine Trail", "highway": "unclassified"}}, {"type": "Feature", "geometry": {"type": "LineString", "coordinates": [[-81.5558439, 28.4053561], [-81.5560928, 28.4053712]]}, "properties": {"kind": "trail", "name": null, "highway": "footway"}}, {"type": "Feature", "geometry": {"type": "LineString", "coordinates": [[-81.5560928, 28.4053712], [-81.5561308, 28.4053685], [-81.5562036, 28.4053495], [-81.5562376, 28.4053517], [-81.5564361, 28.4054101], [-81.5566174, 28.4054498], [-81.5567613, 28.4054947]]}, "properties": {"kind": "trail", "name": null, "highway": "footway"}}, {"type": "Feature", "geometry": {"type": "LineString", "coordinates": [[-81.5557686, 28.4060489], [-81.5558243, 28.4062631], [-81.5559874, 28.4066255], [-81.5561787, 28.4069955], [-81.5562216, 28.4072295], [-81.5561787, 28.408143], [-81.5561958, 28.4083091], [-81.5562559, 28.4086111], [-81.556419, 28.4089886]]}, "properties": {"kind": "road", "name": "Big Pine Trail", "highway": "unclassified"}}, {"type": "Feature", "geometry": {"type": "LineString", "coordinates": [[-81.5557348, 28.4058163], [-81.5557686, 28.4060489]]}, "properties": {"kind": "road", "name": "Big Pine Trail", "highway": "unclassified"}}, {"type": "Feature", "geometry": {"type": "LineString", "coordinates": [[-81.555484, 28.4055246], [-81.5556734, 28.4054915], [-81.5556815, 28.4053948], [-81.5557223, 28.4053948], [-81.5557786, 28.4053965]]}, "properties": {"kind": "trail", "name": null, "highway": "footway"}}, {"type": "Feature", "geometry": {"type": "LineString", "coordinates": [[-81.5575867, 28.4036942], [-81.5576096, 28.4037316], [-81.5576856, 28.4038556], [-81.5576923, 28.403891], [-81.557691, 28.4039264], [-81.5577017, 28.4039618], [-81.5577299, 28.403996], [-81.5577996, 28.4040384], [-81.5578278, 28.4040738], [-81.5578399, 28.4041092], [-81.5578519, 28.4041363], [-81.5578868, 28.4041635], [-81.5579176, 28.4041871], [-81.5579351, 28.404226], [-81.5579485, 28.4042567], [-81.557986, 28.4042932], [-81.5580402, 28.4043589], [-81.5582512, 28.4046272], [-81.5582874, 28.4046861], [-81.5583424, 28.4048206], [-81.5584108, 28.4049433], [-81.5584953, 28.4051073], [-81.5585462, 28.4051851], [-81.5585881, 28.4052268], [-81.5587353, 28.4053231], [-81.5587863, 28.4053633], [-81.5588198, 28.4054034], [-81.5589526, 28.4056936], [-81.55895, 28.4057329], [-81.5590445, 28.4059217], [-81.5591389, 28.406133], [-81.5591904, 28.4062916], [-81.5591818, 28.4064501], [-81.5591475, 28.4065709], [-81.559096, 28.4066389], [-81.5590874, 28.4066917], [-81.5590874, 28.4067597], [-81.5590187, 28.4068352], [-81.5589415, 28.4069484], [-81.5589071, 28.4070466], [-81.5588791, 28.4071566], [-81.5588473, 28.4072214]]}, "properties": {"kind": "trail", "name": null, "highway": "footway"}}, {"type": "Feature", "geometry": {"type": "LineString", "coordinates": [[-81.5565925, 28.4025823], [-81.5566475, 28.4025611], [-81.5566962, 28.4025466], [-81.5567551, 28.4025341], [-81.556808, 28.4025301], [-81.5568749, 28.4025368], [-81.5569357, 28.4025453], [-81.5569951, 28.4025559], [-81.5571396, 28.4025856], [-81.5572005, 28.4025997], [-81.557273, 28.4026182], [-81.5573282, 28.4026386], [-81.5573826, 28.4026614], [-81.5574234, 28.4026885], [-81.5574618, 28.4027198], [-81.5574939, 28.4027552], [-81.5575202, 28.4027891], [-81.557551, 28.4028262], [-81.5575747, 28.4028533], [-81.5575988, 28.4028961]]}, "properties": {"kind": "trail", "name": null, "highway": "footway"}}, {"type": "Feature", "geometry": {"type": "LineString", "coordinates": [[-81.5585037, 28.4056876], [-81.5585638, 28.4056801], [-81.5586153, 28.4057027], [-81.5586668, 28.4057103], [-81.5587097, 28.4057254], [-81.5587612, 28.405748], [-81.5588299, 28.4057329], [-81.5589071, 28.4057405], [-81.55895, 28.4057329]]}, "properties": {"kind": "trail", "name": null, "highway": "footway"}}, {"type": "Feature", "geometry": {"type": "LineString", "coordinates": [[-81.5585638, 28.4056801], [-81.5587863, 28.4053633]]}, "properties": {"kind": "trail", "name": null, "highway": "footway"}}, {"type": "Feature", "geometry": {"type": "LineString", "coordinates": [[-81.5587097, 28.4057254], [-81.558581, 28.4058009]]}, "properties": {"kind": "trail", "name": null, "highway": "footway"}}, {"type": "Feature", "geometry": {"type": "LineString", "coordinates": [[-81.5559531, 28.4058403], [-81.5561505, 28.406097]]}, "properties": {"kind": "water", "name": null, "highway": null}}, {"type": "Feature", "geometry": {"type": "LineString", "coordinates": [[-81.5558243, 28.4062631], [-81.5558929, 28.4062485], [-81.5561075, 28.4062027], [-81.556202, 28.4061649], [-81.5562353, 28.4061454], [-81.556262, 28.4061045], [-81.5562792, 28.4060139], [-81.5562892, 28.4059736], [-81.5563135, 28.405946], [-81.5564165, 28.4059082], [-81.5567341, 28.4058554], [-81.5568629, 28.4058629], [-81.5569006, 28.4058762], [-81.5569487, 28.4058931], [-81.5570946, 28.4059535], [-81.5572608, 28.405991], [-81.5573069, 28.4060116], [-81.5573311, 28.4060351], [-81.5574122, 28.4061347], [-81.5574356, 28.4061657], [-81.5575639, 28.4062591]]}, "properties": {"kind": "road", "name": null, "highway": "service"}}, {"type": "Feature", "geometry": {"type": "LineString", "coordinates": [[-81.5579696, 28.4057065], [-81.5578784, 28.4057761]]}, "properties": {"kind": "trail", "name": null, "highway": "footway"}}, {"type": "Feature", "geometry": {"type": "LineString", "coordinates": [[-81.5567599, 28.4056516], [-81.5566654, 28.4056742], [-81.556571, 28.4056818]]}, "properties": {"kind": "trail", "name": null, "highway": "footway"}}, {"type": "Feature", "geometry": {"type": "LineString", "coordinates": [[-81.5578784, 28.4057761], [-81.5578211, 28.4058257], [-81.5578211, 28.405871], [-81.5577782, 28.4059087], [-81.5577295, 28.4059148], [-81.5576666, 28.4058785], [-81.5576151, 28.405803], [-81.5575628, 28.4057027], [-81.5575121, 28.4056143], [-81.5574403, 28.405522], [-81.5573473, 28.4054358], [-81.5573061, 28.4054063], [-81.5572595, 28.4053805], [-81.5571749, 28.4053647], [-81.5570894, 28.4053737], [-81.556967, 28.4054134], [-81.5568886, 28.4054477], [-81.5568226, 28.4054779], [-81.5567613, 28.4054947], [-81.5567513, 28.4055534], [-81.5567599, 28.4056516], [-81.556797, 28.4057284], [-81.55688, 28.4057799]]}, "properties": {"kind": "trail", "name": null, "highway": "footway"}}, {"type": "Feature", "geometry": {"type": "Polygon", "coordinates": [[[-81.5585192, 28.4058227], [-81.5583113, 28.4055309], [-81.5581662, 28.405611], [-81.5582309, 28.4057018], [-81.5582563, 28.4056878], [-81.5583053, 28.4057566], [-81.5582661, 28.4057782], [-81.5583081, 28.4058373], [-81.5583415, 28.4058189], [-81.5583935, 28.405892], [-81.5585192, 28.4058227]]]}, "properties": {"kind": "building", "name": "Meadow Trading Post", "highway": null}}, {"type": "Feature", "geometry": {"type": "LineString", "coordinates": [[-81.5557182, 28.4055614], [-81.5555294, 28.405569]]}, "properties": {"kind": "road", "name": null, "highway": "service"}}, {"type": "Feature", "geometry": {"type": "LineString", "coordinates": [[-81.5555294, 28.405569], [-81.555484, 28.4055246], [-81.5554522, 28.4054935], [-81.5553749, 28.4054633], [-81.5552805, 28.4053802], [-81.5552032, 28.4052896], [-81.5550917, 28.4052594], [-81.5549286, 28.4052745], [-81.5547998, 28.4053274], [-81.5546625, 28.4053727], [-81.5545681, 28.4054708], [-81.5545595, 28.4055992], [-81.554611, 28.40572], [-81.5546968, 28.4058332], [-81.5548342, 28.405871], [-81.5550058, 28.4058559], [-81.5551603, 28.4058257], [-81.5552719, 28.4057426], [-81.5553921, 28.4056596], [-81.5555294, 28.405569]]}, "properties": {"kind": "road", "name": "Cottontail Curl", "highway": "service"}}, {"type": "Feature", "geometry": {"type": "LineString", "coordinates": [[-81.5559757, 28.4037042], [-81.5557783, 28.4037268], [-81.555538, 28.4037042], [-81.5552891, 28.4036664], [-81.5551064, 28.4036112], [-81.5547741, 28.4034777], [-81.5544938, 28.403307], [-81.5542248, 28.4030851], [-81.5540874, 28.4029719]]}, "properties": {"kind": "road", "name": null, "highway": "service"}}, {"type": "Feature", "geometry": {"type": "LineString", "coordinates": [[-81.5551923, 28.4033319], [-81.5551408, 28.4035206], [-81.5551064, 28.4036112], [-81.5550857, 28.4036815], [-81.5550745, 28.4037193], [-81.5550549, 28.4038151], [-81.5550209, 28.4039087]]}, "properties": {"kind": "road", "name": null, "highway": "service"}}, {"type": "Feature", "geometry": {"type": "LineString", "coordinates": [[-81.5552953, 28.403347], [-81.5554092, 28.4033116], [-81.5555294, 28.4032361], [-81.555641, 28.4031379], [-81.5557182, 28.4030398], [-81.5557268, 28.4029492], [-81.5557268, 28.4028435], [-81.5557526, 28.4027529], [-81.5558298, 28.4026548], [-81.5559414, 28.402534], [-81.5560272, 28.4024283], [-81.5560873, 28.4022999], [-81.5560701, 28.4021414], [-81.5559671, 28.4019904], [-81.5558384, 28.4018847], [-81.5556667, 28.4018545], [-81.55558, 28.4018558], [-81.5555036, 28.4018696], [-81.5553921, 28.4019224], [-81.5552867, 28.4020031], [-81.5552352, 28.402139], [-81.5552438, 28.4022598], [-81.5552523, 28.4023957], [-81.5552523, 28.4025014], [-81.5552421, 28.4026016], [-81.5552094, 28.4027052], [-81.5551517, 28.4027831], [-81.5551002, 28.4028586], [-81.5550316, 28.4029417], [-81.5550144, 28.4030323], [-81.5550316, 28.403153], [-81.5550917, 28.4032587], [-81.5551923, 28.4033319], [-81.5552953, 28.403347]]}, "properties": {"kind": "road", "name": "Hickory Hollow", "highway": "service"}}, {"type": "Feature", "geometry": {"type": "LineString", "coordinates": [[-81.5550209, 28.4039087], [-81.5549457, 28.4040515], [-81.5548428, 28.4041874], [-81.5547312, 28.4042931], [-81.554611, 28.4043535], [-81.5544908, 28.4043761], [-81.5543192, 28.4044214], [-81.5541475, 28.4044969], [-81.5540445, 28.4046102], [-81.5540188, 28.4047461], [-81.5540968, 28.4048819], [-81.5542505, 28.4049424], [-81.5544565, 28.4049424], [-81.5546539, 28.4049046], [-81.554817, 28.4048518], [-81.5550058, 28.4047914], [-81.5551088, 28.4047385], [-81.5552094, 28.4046984], [-81.5552835, 28.404655], [-81.5553124, 28.404638], [-81.5554068, 28.4045474], [-81.5554498, 28.4044417], [-81.5554841, 28.4042907], [-81.5554634, 28.4041706], [-81.555391, 28.4040585], [-81.5552622, 28.4039948], [-81.5551134, 28.4039547], [-81.5550209, 28.4039087]]}, "properties": {"kind": "road", "name": "Timber Trail", "highway": "service"}}, {"type": "Feature", "geometry": {"type": "LineString", "coordinates": [[-81.5575863, 28.4035302], [-81.5574295, 28.4035854], [-81.5573048, 28.4036421]]}, "properties": {"kind": "road", "name": null, "highway": "service"}}, {"type": "Feature", "geometry": {"type": "LineString", "coordinates": [[-81.5570727, 28.4034934], [-81.5572323, 28.4035713], [-81.5573048, 28.4036421], [-81.5573061, 28.4037042], [-81.5572889, 28.403825], [-81.5572803, 28.4039533]]}, "properties": {"kind": "road", "name": null, "highway": "service"}}, {"type": "Feature", "geometry": {"type": "LineString", "coordinates": [[-81.5572803, 28.4039533], [-81.5571344, 28.4039609], [-81.5570314, 28.4039609], [-81.5568941, 28.403976], [-81.5567825, 28.4040213], [-81.5566709, 28.4040364], [-81.5566122, 28.4040364], [-81.5565594, 28.4040364], [-81.556422, 28.4040364], [-81.556351, 28.4040718], [-81.5563166, 28.4041397], [-81.5562909, 28.4042001], [-81.5562823, 28.4042832], [-81.5562995, 28.4043738], [-81.5563338, 28.4044417], [-81.5563963, 28.4044969], [-81.5565422, 28.4045573], [-81.5566881, 28.4045875], [-81.5568426, 28.4046328], [-81.556937, 28.4046555], [-81.55704, 28.4047159], [-81.5570915, 28.4047838], [-81.5571602, 28.4048291], [-81.5572632, 28.4048593], [-81.5573833, 28.4048291], [-81.5574949, 28.4047461], [-81.5575808, 28.4046479], [-81.5575893, 28.4045422], [-81.5575464, 28.4044139], [-81.5574778, 28.4043233], [-81.5574005, 28.4041949], [-81.5573404, 28.4040515], [-81.5572803, 28.4039533]]}, "properties": {"kind": "road", "name": "Tumbleweed Turn", "highway": "service"}}, {"type": "Feature", "geometry": {"type": "LineString", "coordinates": [[-81.5570727, 28.4034934], [-81.5570915, 28.4033795], [-81.5570829, 28.4032663], [-81.5570229, 28.4031455], [-81.5569885, 28.4030021], [-81.5569199, 28.402919], [-81.5567911, 28.4028662], [-81.5566771, 28.4028638], [-81.5565484, 28.4029091], [-81.556454, 28.4030072], [-81.5564025, 28.4031356], [-81.5563596, 28.4032488], [-81.5563362, 28.4033493], [-81.5563791, 28.4034475], [-81.5564564, 28.4035532], [-81.5565937, 28.4036287], [-81.5567139, 28.4036287], [-81.556834, 28.4035834], [-81.5569199, 28.4035381], [-81.5570229, 28.4035003], [-81.5570727, 28.4034934]]}, "properties": {"kind": "road", "name": "Dogwood Drive", "highway": "service"}}, {"type": "Feature", "geometry": {"type": "LineString", "coordinates": [[-81.5575863, 28.4035302], [-81.5576965, 28.4034953]]}, "properties": {"kind": "road", "name": null, "highway": "service"}}, {"type": "Feature", "geometry": {"type": "LineString", "coordinates": [[-81.5578731, 28.4035165], [-81.5579481, 28.4035546], [-81.5580023, 28.4036014], [-81.558047, 28.4036909], [-81.5580957, 28.4037948], [-81.5582245, 28.4038552], [-81.5583704, 28.4038854], [-81.5585249, 28.4038627], [-81.5586451, 28.4037646], [-81.558688, 28.4036287], [-81.5587137, 28.4035154], [-81.5586708, 28.4034173], [-81.5585592, 28.4033342], [-81.5584648, 28.4032285], [-81.5584391, 28.4031078], [-81.5584452, 28.4029846], [-81.5584091, 28.4029245], [-81.558368, 28.4028562], [-81.5582392, 28.4027656], [-81.5580247, 28.402743], [-81.5578812, 28.4027907], [-81.5577867, 28.4028813], [-81.5577782, 28.4030474], [-81.5578086, 28.4032209], [-81.5578165, 28.4032785], [-81.557816, 28.4033258], [-81.5578159, 28.4033791], [-81.5578266, 28.4034333], [-81.5578421, 28.4034793], [-81.5578731, 28.4035165]]}, "properties": {"kind": "road", "name": "Possum Path", "highway": "service"}}, {"type": "Feature", "geometry": {"type": "LineString", "coordinates": [[-81.5588031, 28.4052879], [-81.558894, 28.4052443], [-81.5590055, 28.4051915], [-81.5591171, 28.4051009], [-81.5591686, 28.4049348], [-81.5591944, 28.4047989], [-81.5591772, 28.4046253], [-81.5590656, 28.4044894], [-81.5589111, 28.4043912], [-81.5587062, 28.4043593], [-81.5585211, 28.40441], [-81.5584059, 28.4044941], [-81.5582985, 28.4045941]]}, "properties": {"kind": "road", "name": "Racoon Lane", "highway": "service"}}, {"type": "Feature", "geometry": {"type": "LineString", "coordinates": [[-81.5587196, 28.4051508], [-81.5585881, 28.4052268], [-81.5582548, 28.4054234], [-81.5582002, 28.4054588]]}, "properties": {"kind": "road", "name": null, "highway": "service"}}, {"type": "Feature", "geometry": {"type": "LineString", "coordinates": [[-81.5553281, 28.4050693], [-81.5553581, 28.404898], [-81.555456, 28.4049113], [-81.5554467, 28.4049645], [-81.555485, 28.4049697], [-81.5554756, 28.4050231], [-81.5554439, 28.4050188], [-81.5554326, 28.4050834], [-81.5553281, 28.4050693]]}, "properties": {"kind": "comfort", "name": "Comfort Station", "highway": null}}, {"type": "Feature", "geometry": {"type": "LineString", "coordinates": [[-81.5566573, 28.4039566], [-81.5566422, 28.403865], [-81.5568313, 28.403845], [-81.5568434, 28.4039346], [-81.5566573, 28.4039566]]}, "properties": {"kind": "comfort", "name": "Comfort Station", "highway": null}}, {"type": "Feature", "geometry": {"type": "Polygon", "coordinates": [[[-81.5568168, 28.4075972], [-81.5567323, 28.4076609], [-81.5566103, 28.4077788], [-81.5565365, 28.4078567], [-81.5564976, 28.4079086], [-81.5564534, 28.4079699], [-81.5564024, 28.4079959], [-81.5563541, 28.4079959], [-81.5563058, 28.4079782], [-81.5562736, 28.407951], [-81.5562629, 28.4079145], [-81.5562616, 28.4077989], [-81.5562697, 28.4076918], [-81.5562848, 28.4075615], [-81.5562984, 28.4073996], [-81.5562892, 28.4072429], [-81.5562714, 28.4071113], [-81.5562402, 28.4069754], [-81.5561771, 28.40682], [-81.5560993, 28.4066569], [-81.555974, 28.4064132], [-81.5559651, 28.4063886], [-81.5559656, 28.4063599], [-81.5559875, 28.4063446], [-81.5560252, 28.4063363], [-81.556067, 28.4063363], [-81.556132, 28.4063277], [-81.5562093, 28.4062976], [-81.5561831, 28.4062451], [-81.5563294, 28.406186], [-81.5563337, 28.4061387], [-81.5563355, 28.4060996], [-81.5563439, 28.4060533], [-81.5563675, 28.4060133], [-81.5563878, 28.4059866], [-81.5564149, 28.4059568], [-81.5564416, 28.4059444], [-81.5564776, 28.4059448], [-81.5565194, 28.4059506], [-81.5565643, 28.4059515], [-81.5566024, 28.4059434], [-81.5566342, 28.4059267], [-81.5566499, 28.4059099], [-81.556658, 28.4058864], [-81.5567583, 28.4058707], [-81.5568141, 28.4058741], [-81.5568541, 28.4058835], [-81.5569116, 28.4058994], [-81.5569673, 28.4059198], [-81.5570265, 28.4059536], [-81.5570884, 28.4059743], [-81.5571493, 28.4059893], [-81.5572067, 28.406001], [-81.5572483, 28.4060163], [-81.5572865, 28.4060405], [-81.5573033, 28.4060677], [-81.5573492, 28.406243], [-81.557351, 28.4063407], [-81.557383, 28.4064121], [-81.5574375, 28.4064687], [-81.557467, 28.4065462], [-81.5574743, 28.4066295], [-81.5574704, 28.4066644], [-81.5574922, 28.4066991], [-81.5574882, 28.4067465], [-81.5575649, 28.4067484], [-81.5575956, 28.406767], [-81.5575407, 28.4069219], [-81.5574538, 28.4069755], [-81.5574847, 28.4070475], [-81.5573184, 28.4072657], [-81.5572282, 28.4072996], [-81.5570603, 28.4073817], [-81.5571172, 28.4074717], [-81.5571293, 28.40757], [-81.5570756, 28.4075559], [-81.5569938, 28.4075464], [-81.5569107, 28.4075606], [-81.5568168, 28.4075972]]]}, "properties": {"kind": "wood", "name": null, "highway": null}}, {"type": "Feature", "geometry": {"type": "LineString", "coordinates": [[-81.5579696, 28.4057065], [-81.5580353, 28.405657], [-81.5580608, 28.4056192], [-81.5580621, 28.4055933], [-81.5580339, 28.4055378], [-81.5580219, 28.4055013], [-81.5580366, 28.4054671], [-81.5580701, 28.4054376], [-81.5581224, 28.4054104], [-81.55816, 28.4054022], [-81.5582087, 28.4054013]]}, "properties": {"kind": "trail", "name": null, "highway": "footway"}}, {"type": "Feature", "geometry": {"type": "LineString", "coordinates": [[-81.5580402, 28.4043589], [-81.5580154, 28.4045241], [-81.5579835, 28.4047312], [-81.5579527, 28.4048523], [-81.55794, 28.4049175], [-81.5579314, 28.4049886], [-81.5579286, 28.4050598], [-81.5579394, 28.4051196], [-81.5579606, 28.4051845], [-81.5579932, 28.4052369], [-81.5580691, 28.4053053], [-81.5581604, 28.4053781], [-81.5582087, 28.4054013], [-81.5582548, 28.4054234], [-81.5583492, 28.4054838], [-81.5584436, 28.4055744], [-81.5585037, 28.4056876], [-81.558581, 28.4058009]]}, "properties": {"kind": "trail", "name": null, "highway": "footway"}}, {"type": "Feature", "geometry": {"type": "Polygon", "coordinates": [[[-81.5575649, 28.4036185], [-81.5575073, 28.4036397], [-81.5575408, 28.4037117], [-81.5575867, 28.4036942], [-81.5575998, 28.4036893], [-81.5575649, 28.4036185]]]}, "properties": {"kind": "building", "name": null, "highway": null}}, {"type": "Feature", "geometry": {"type": "LineString", "coordinates": [[-81.5575988, 28.4028961], [-81.5576025, 28.403015], [-81.5576025, 28.4031056], [-81.5576368, 28.4032339], [-81.5577209, 28.4034354], [-81.5577313, 28.4034604], [-81.5577477, 28.4034951], [-81.5577594, 28.4035197], [-81.5578144, 28.4036359], [-81.5579029, 28.4038228], [-81.5580231, 28.4041097], [-81.5580541, 28.4042002], [-81.5580545, 28.4042404], [-81.5580549, 28.4042859], [-81.5580402, 28.4043589]]}, "properties": {"kind": "trail", "name": null, "highway": "footway"}}, {"type": "Feature", "geometry": {"type": "LineString", "coordinates": [[-81.5570245, 28.4023338], [-81.5571396, 28.4025856], [-81.5575863, 28.4035302], [-81.5576789, 28.4036992], [-81.5578266, 28.4039681], [-81.5580549, 28.4042859], [-81.5582985, 28.4045941], [-81.5586271, 28.4050211], [-81.5587196, 28.4051508], [-81.5588031, 28.4052879], [-81.5589252, 28.4054856], [-81.5590345, 28.4057219], [-81.5592256, 28.4061349], [-81.55926, 28.4064821], [-81.5591484, 28.4068219], [-81.5588995, 28.4072597], [-81.5588737, 28.4080298], [-81.5588909, 28.4083016], [-81.5589167, 28.4085054], [-81.5590025, 28.40883], [-81.5592943, 28.4094126], [-81.5593201, 28.4094642], [-81.5599037, 28.4102569], [-81.5600668, 28.4105589], [-81.5602985, 28.410891]]}, "properties": {"kind": "road", "name": "Fort Wilderness Trail", "highway": "unclassified"}}, {"type": "Feature", "geometry": {"type": "LineString", "coordinates": [[-81.556797, 28.4057284], [-81.5567213, 28.4057479]]}, "properties": {"kind": "trail", "name": null, "highway": "footway"}}, {"type": "Feature", "geometry": {"type": "Polygon", "coordinates": [[[-81.5567362, 28.4057953], [-81.5566567, 28.4058147], [-81.5566257, 28.4057165], [-81.5567053, 28.4056971], [-81.5567213, 28.4057479], [-81.5567362, 28.4057953]]]}, "properties": {"kind": "building", "name": null, "highway": null}}, {"type": "Feature", "geometry": {"type": "LineString", "coordinates": [[-81.557007, 28.4058345], [-81.5570564, 28.4057724]]}, "properties": {"kind": "trail", "name": null, "highway": "footway"}}, {"type": "Feature", "geometry": {"type": "LineString", "coordinates": [[-81.5577295, 28.4059148], [-81.557722, 28.4059457], [-81.5577127, 28.405987], [-81.5577131, 28.4060619], [-81.5577542, 28.4060802], [-81.5577945, 28.4061167], [-81.557836, 28.4061521], [-81.5578629, 28.4061946], [-81.5578745, 28.4062161], [-81.5578897, 28.4062441], [-81.5579178, 28.4063137], [-81.5579473, 28.4063904], [-81.5579299, 28.406427], [-81.5579299, 28.4064553], [-81.5579299, 28.4064942], [-81.5579192, 28.4065272], [-81.5578816, 28.4065508], [-81.5578199, 28.4065673], [-81.5577867, 28.4065957]]}, "properties": {"kind": "trail", "name": null, "highway": "footway"}}, {"type": "Feature", "geometry": {"type": "LineString", "coordinates": [[-81.5577131, 28.4060619], [-81.5576724, 28.4060507], [-81.5575732, 28.4060436], [-81.5574431, 28.4060389], [-81.5574418, 28.4061556], [-81.557498, 28.4061951], [-81.5576067, 28.4062689], [-81.5576393, 28.4063616], [-81.5576979, 28.4065898]]}, "properties": {"kind": "trail", "name": null, "highway": "footway"}}, {"type": "Feature", "geometry": {"type": "LineString", "coordinates": [[-81.557007, 28.4058345], [-81.5569487, 28.4058931]]}, "properties": {"kind": "trail", "name": null, "highway": "footway"}}, {"type": "Feature", "geometry": {"type": "LineString", "coordinates": [[-81.55688, 28.4057799], [-81.5568959, 28.4058065], [-81.5569013, 28.4058431], [-81.5569006, 28.4058762]]}, "properties": {"kind": "trail", "name": null, "highway": "footway"}}, {"type": "Feature", "geometry": {"type": "Polygon", "coordinates": [[[-81.5564118, 28.4090811], [-81.5563588, 28.4090935], [-81.5562991, 28.4091112], [-81.5562626, 28.4091241], [-81.5562385, 28.4091394], [-81.5561956, 28.4091665], [-81.5561406, 28.4092196], [-81.556103, 28.409281], [-81.5560735, 28.4093411], [-81.5560574, 28.4093954], [-81.5560443, 28.4094261], [-81.5559994, 28.4094733], [-81.5559605, 28.4095305], [-81.5559129, 28.4096007], [-81.5558961, 28.409632], [-81.5558908, 28.4096562], [-81.5558908, 28.4096856], [-81.5558975, 28.4097069], [-81.5559095, 28.4097399], [-81.5559297, 28.409793], [-81.5559598, 28.4098496], [-81.5559692, 28.4098862], [-81.5559692, 28.4099216], [-81.5559753, 28.4099682], [-81.555988, 28.4100035], [-81.5560121, 28.4100372], [-81.556045, 28.4100761], [-81.5560792, 28.4101274], [-81.5561151, 28.4101739], [-81.5561594, 28.4102293], [-81.5561822, 28.4102612], [-81.5561956, 28.4102895], [-81.5561875, 28.4103119], [-81.5561634, 28.410332], [-81.5559488, 28.4104393], [-81.5557919, 28.410516], [-81.5556859, 28.4105584], [-81.5556363, 28.4105927], [-81.5556149, 28.4106245], [-81.55558, 28.4106528], [-81.5555371, 28.4106752], [-81.5554888, 28.4106941], [-81.5554392, 28.4106988], [-81.5553949, 28.4106976], [-81.555268, 28.410635], [-81.5555632, 28.4108317], [-81.5555498, 28.410808], [-81.5555443, 28.4107814], [-81.5555431, 28.4107585], [-81.5555533, 28.4107336], [-81.5555816, 28.4107101], [-81.5556286, 28.4106865], [-81.5556997, 28.4106488], [-81.5557613, 28.4106205], [-81.5558364, 28.4105933], [-81.5558928, 28.4105768], [-81.5559384, 28.410558], [-81.5559893, 28.4105367], [-81.5560403, 28.410506], [-81.5560832, 28.4104872], [-81.5561194, 28.4104648], [-81.5561677, 28.41044], [-81.556212, 28.4104176], [-81.5562468, 28.4103916], [-81.5562871, 28.4103704], [-81.5563219, 28.4103574], [-81.5563622, 28.4103527], [-81.5564104, 28.4103568], [-81.5564592, 28.4103673], [-81.5565734, 28.4104303], [-81.5566853, 28.4104599], [-81.5567946, 28.4105241], [-81.5568235, 28.4105483], [-81.5568532, 28.4105687], [-81.5568852, 28.4105823], [-81.5569152, 28.4105865], [-81.5569419, 28.4105871], [-81.556985, 28.4105778], [-81.5570171, 28.4105754], [-81.5570521, 28.4105691], [-81.5570845, 28.4105566], [-81.557107, 28.41054], [-81.5571179, 28.410519], [-81.5571206, 28.4104936], [-81.5571245, 28.4104718], [-81.5571282, 28.4104382], [-81.5571241, 28.4104097], [-81.5571095, 28.4103877], [-81.5570866, 28.4103738], [-81.5570622, 28.4103646], [-81.5570296, 28.4103606], [-81.5569749, 28.4103646], [-81.556948, 28.4103613], [-81.5569201, 28.4103472], [-81.5568602, 28.4103356], [-81.5567648, 28.4103219], [-81.5566835, 28.4103182], [-81.5566247, 28.410316], [-81.5565474, 28.4103027], [-81.5564916, 28.4102964], [-81.5564049, 28.4102648], [-81.5563596, 28.4102349], [-81.5563233, 28.41021], [-81.5562582, 28.410171], [-81.5562113, 28.4101392], [-81.5561657, 28.4101056], [-81.5561221, 28.4100755], [-81.5560906, 28.4100401], [-81.5560671, 28.4100065], [-81.5560504, 28.409954], [-81.5560443, 28.4099098], [-81.556047, 28.4098585], [-81.5560322, 28.4098018], [-81.5560108, 28.4097464], [-81.5560007, 28.4097122], [-81.555996, 28.4096815], [-81.555998, 28.4096449], [-81.5560088, 28.4096184], [-81.5560329, 28.4095877], [-81.5560644, 28.4095476], [-81.5561067, 28.409504], [-81.5561308, 28.4094733], [-81.5561553, 28.4094319], [-81.5561704, 28.4094114], [-81.5561871, 28.4093801], [-81.5562053, 28.4093418], [-81.5562361, 28.409297], [-81.5562643, 28.4092575], [-81.5562991, 28.4092262], [-81.5563367, 28.4091997], [-81.5563736, 28.409179], [-81.5564098, 28.4091619], [-81.5564493, 28.4091513], [-81.5565592, 28.4091087], [-81.5566262, 28.4090798], [-81.5566913, 28.4090598], [-81.5567476, 28.4090545], [-81.5567986, 28.4090545], [-81.5568535, 28.4090427], [-81.5569112, 28.4090208], [-81.5569803, 28.4089837], [-81.5570245, 28.4089577], [-81.5570755, 28.4089341], [-81.55716, 28.4089247], [-81.5572324, 28.4089282], [-81.5573249, 28.4089412], [-81.5574081, 28.4089589], [-81.5575073, 28.4089778], [-81.5575999, 28.4089955], [-81.557679, 28.4090061], [-81.557746, 28.4090085], [-81.5578171, 28.4090085], [-81.5578708, 28.4090049], [-81.5578929, 28.4089984], [-81.557915, 28.4089919], [-81.5579593, 28.4089719], [-81.5579982, 28.4089448], [-81.5580706, 28.408887], [-81.5581269, 28.4088292], [-81.5582168, 28.4087313], [-81.5582476, 28.4086782], [-81.5582597, 28.4086251], [-81.558265, 28.4085767], [-81.558265, 28.4085154], [-81.5582597, 28.408434], [-81.558255, 28.4083768], [-81.5582503, 28.4083261], [-81.558249, 28.4082865], [-81.558251, 28.4082311], [-81.558259, 28.4081745], [-81.5582832, 28.4080783], [-81.5582905, 28.4080158], [-81.5582972, 28.4079433], [-81.5582999, 28.4078819], [-81.5582992, 28.40783], [-81.5582959, 28.4077734], [-81.5582972, 28.4077015], [-81.5582986, 28.4076124], [-81.5582999, 28.4075611], [-81.5583026, 28.407518], [-81.558308, 28.407472], [-81.558322, 28.4073906], [-81.5583415, 28.4072974], [-81.5583495, 28.4072444], [-81.5583569, 28.4071948], [-81.5583589, 28.407163], [-81.5583589, 28.4071388], [-81.5583549, 28.4071164], [-81.5583482, 28.4070875], [-81.5583475, 28.4070621], [-81.5583502, 28.4070291], [-81.5583596, 28.4069996], [-81.558371, 28.4069724], [-81.5583817, 28.4069412], [-81.558403, 28.4068786], [-81.5584272, 28.4068342], [-81.5584582, 28.4067881], [-81.5584825, 28.4067454], [-81.5584962, 28.4067068], [-81.5585149, 28.4066678], [-81.5585285, 28.4066328], [-81.5585402, 28.4065689], [-81.5585503, 28.4064868], [-81.5585524, 28.4064278], [-81.5585503, 28.4063677], [-81.558537, 28.4063151], [-81.5585167, 28.4062606], [-81.558474, 28.4061997], [-81.5583859, 28.4061163], [-81.5583101, 28.4060449], [-81.5582226, 28.4059576], [-81.5581548, 28.4058983], [-81.558092, 28.4058507], [-81.5580437, 28.4058138], [-81.5579958, 28.4058403], [-81.5579551, 28.4058617], [-81.5579357, 28.405946], [-81.5579331, 28.4059909], [-81.5579271, 28.4060297], [-81.55791, 28.4060743], [-81.5579055, 28.4061123], [-81.5579082, 28.4061531], [-81.5579151, 28.4061766], [-81.5579824, 28.4062859], [-81.5580195, 28.4063003], [-81.5580446, 28.4063174], [-81.5580494, 28.4063318], [-81.5580476, 28.4063605], [-81.5581044, 28.4064632], [-81.5580881, 28.4065551], [-81.5580901, 28.4066206], [-81.5581101, 28.4066787], [-81.5581263, 28.4067308], [-81.5581472, 28.4067705], [-81.5581671, 28.4068017], [-81.558208, 28.406831], [-81.5582291, 28.4068538], [-81.5582489, 28.4068841], [-81.5582537, 28.4069102], [-81.5582406, 28.4070027], [-81.5582411, 28.4070412], [-81.5582429, 28.4070739], [-81.5582402, 28.407101], [-81.5582295, 28.4071488], [-81.5582268, 28.4071824], [-81.5582322, 28.4072267], [-81.5582322, 28.4072756], [-81.5582349, 28.4073216], [-81.5582349, 28.4073523], [-81.5582342, 28.407475], [-81.5582315, 28.4075735], [-81.5582268, 28.4076537], [-81.5582268, 28.4076961], [-81.5582268, 28.4077333], [-81.5582315, 28.4077823], [-81.5582376, 28.4078259], [-81.5582342, 28.407876], [-81.5582275, 28.4079462], [-81.5582161, 28.4080312], [-81.5582, 28.4081361], [-81.558192, 28.4082087], [-81.5581846, 28.4082801], [-81.5581772, 28.4083408], [-81.5581799, 28.4083809], [-81.5581832, 28.4084305], [-81.5581953, 28.408493], [-81.5582047, 28.4085455], [-81.5581973, 28.4085879], [-81.5581846, 28.408628], [-81.5581705, 28.4086823], [-81.558141, 28.4087236], [-81.5581128, 28.4087548], [-81.558078, 28.4087879], [-81.5580364, 28.4088132], [-81.5579874, 28.4088415], [-81.5579667, 28.408871], [-81.5579425, 28.4089058], [-81.557915, 28.4089271], [-81.5578761, 28.4089483], [-81.5578372, 28.4089589], [-81.5577983, 28.4089642], [-81.5577574, 28.4089648], [-81.5577165, 28.4089601], [-81.5576676, 28.4089501], [-81.5576092, 28.4089341], [-81.557569, 28.4089188], [-81.5575254, 28.40891], [-81.5574852, 28.408907], [-81.5574383, 28.40891], [-81.5573746, 28.4089123], [-81.5573377, 28.4089035], [-81.5573102, 28.4088899], [-81.557274, 28.4088716], [-81.5572445, 28.4088598], [-81.5571995, 28.4088492], [-81.557166, 28.4088575], [-81.5571285, 28.4088716], [-81.5570896, 28.4088817], [-81.5570353, 28.4088952], [-81.5569796, 28.4089235], [-81.5569293, 28.4089448], [-81.5568797, 28.4089695], [-81.5568348, 28.4089843], [-81.5567851, 28.4089919], [-81.5567362, 28.408999], [-81.5566899, 28.4090032], [-81.5566369, 28.409012], [-81.5565893, 28.4090238], [-81.5565444, 28.4090332], [-81.5565203, 28.4090403], [-81.5564118, 28.4090811]]]}, "properties": {"kind": "water", "name": null, "highway": null}}, {"type": "Feature", "geometry": {"type": "Polygon", "coordinates": [[[-81.5589678, 28.4054944], [-81.5589249, 28.4054142], [-81.559012, 28.4053858], [-81.5591059, 28.4053351], [-81.5591904, 28.4052596], [-81.5592601, 28.4051818], [-81.5593299, 28.4050508], [-81.5593996, 28.4049352], [-81.5594278, 28.4048503], [-81.5594332, 28.4047724], [-81.5594291, 28.4046663], [-81.5593808, 28.4045778], [-81.5593165, 28.4045188], [-81.5592306, 28.4044339], [-81.5591435, 28.4043537], [-81.5590322, 28.4042699], [-81.55889, 28.4041979], [-81.5587197, 28.4041602], [-81.5585306, 28.4041578], [-81.5584005, 28.4041932], [-81.5583214, 28.4042699], [-81.5583227, 28.4043454], [-81.558367, 28.4044834], [-81.5583026, 28.4045436], [-81.5580545, 28.4042404], [-81.5580541, 28.4042002], [-81.5580231, 28.4041097], [-81.5579029, 28.4038228], [-81.5578144, 28.4036359], [-81.5577594, 28.4035197], [-81.5577916, 28.4035114], [-81.5578265, 28.4035149], [-81.55786, 28.4035279], [-81.5579204, 28.4035527], [-81.557974, 28.4036058], [-81.5580049, 28.4036683], [-81.5580317, 28.4037249], [-81.5580786, 28.4037933], [-81.558143, 28.4038488], [-81.5581953, 28.4038794], [-81.5582771, 28.4039113], [-81.558371, 28.4039231], [-81.5583066, 28.4040694], [-81.558375, 28.4040694], [-81.558489, 28.4040694], [-81.5586178, 28.4040481], [-81.5586996, 28.4039915], [-81.5587894, 28.4039361], [-81.5588323, 28.4038959], [-81.5588927, 28.4038063], [-81.5589195, 28.4037567], [-81.5589745, 28.4036388], [-81.5589973, 28.4035869], [-81.5590322, 28.4035527], [-81.5590737, 28.4035362], [-81.5591368, 28.4035362], [-81.5591918, 28.4035479], [-81.559236, 28.4035798], [-81.5592722, 28.4036152], [-81.5593125, 28.4036293], [-81.5593648, 28.4036293], [-81.5593956, 28.4036376], [-81.559405, 28.4036506], [-81.5592628, 28.4037202], [-81.5591542, 28.4037744], [-81.5590871, 28.4038358], [-81.559059, 28.4038936], [-81.5590442, 28.4039714], [-81.5590469, 28.4040446], [-81.5590764, 28.4041342], [-81.559122, 28.4042215], [-81.5592092, 28.4042864], [-81.5593125, 28.4043725], [-81.5594466, 28.4045011], [-81.5595659, 28.4046273], [-81.5596477, 28.4046969], [-81.5597429, 28.4047736], [-81.5598569, 28.4048338], [-81.559979, 28.404901], [-81.5601171, 28.4049517], [-81.5602325, 28.4049871], [-81.5602325, 28.4050237], [-81.5601077, 28.4050414], [-81.5599508, 28.4050638], [-81.5597885, 28.4051004], [-81.5596437, 28.4051499], [-81.5594908, 28.4052608], [-81.5594305, 28.4053233], [-81.5593822, 28.4053988], [-81.5589678, 28.4054944]]]}, "properties": {"kind": "wood", "name": null, "highway": null}}, {"type": "Feature", "geometry": {"type": "Polygon", "coordinates": [[[-81.5577209, 28.4034354], [-81.5576931, 28.4034605], [-81.5576663, 28.4034699], [-81.5576368, 28.4034734], [-81.5576113, 28.4034687], [-81.5575885, 28.4034581], [-81.5575724, 28.4034369], [-81.5571178, 28.4024613], [-81.5571996, 28.4023221], [-81.5577387, 28.4021439], [-81.5578098, 28.4021239], [-81.5579439, 28.402085], [-81.5581625, 28.4020366], [-81.5583074, 28.4020047], [-81.558471, 28.4019741], [-81.5586212, 28.4019493], [-81.5587768, 28.4019269], [-81.5589779, 28.4019057], [-81.5592917, 28.4018809], [-81.5593856, 28.4019222], [-81.559395, 28.4020661], [-81.5593776, 28.4021038], [-81.5593534, 28.4021298], [-81.5593145, 28.4021475], [-81.559281, 28.4021569], [-81.5593561, 28.4020059], [-81.559277, 28.401967], [-81.5591053, 28.4019599], [-81.5589323, 28.4019835], [-81.5587526, 28.4020319], [-81.5585863, 28.4021475], [-81.5585152, 28.402289], [-81.558467, 28.4024471], [-81.5584965, 28.4025509], [-81.5585461, 28.4026111], [-81.5586292, 28.4027114], [-81.5587043, 28.4028223], [-81.5587674, 28.4029591], [-81.5587861, 28.4030936], [-81.558821, 28.4032446], [-81.5588492, 28.4033283], [-81.5588814, 28.4034298], [-81.5588639, 28.4034475], [-81.5588395, 28.4034446], [-81.5588241, 28.4034242], [-81.5588022, 28.4033625], [-81.5587848, 28.4032481], [-81.5587405, 28.4030889], [-81.5587003, 28.4029827], [-81.5586252, 28.4028223], [-81.5585635, 28.4027137], [-81.5584281, 28.4026276], [-81.5582899, 28.4025521], [-81.5581116, 28.4025096], [-81.5579788, 28.4025132], [-81.5578273, 28.4025615], [-81.5576703, 28.4026559], [-81.5575943, 28.4027817], [-81.5577629, 28.4028871], [-81.5577495, 28.4029921], [-81.5577579, 28.4031096], [-81.5577737, 28.4031879], [-81.5577926, 28.4032532], [-81.5577941, 28.4033038], [-81.5577789, 28.4033492], [-81.5577589, 28.4033952], [-81.5577368, 28.4034219], [-81.5577209, 28.4034354]]]}, "properties": {"kind": "wood", "name": null, "highway": null}}, {"type": "Feature", "geometry": {"type": "LineString", "coordinates": [[-81.557816, 28.4033258], [-81.5577951, 28.4033808], [-81.5577649, 28.403428], [-81.5577313, 28.4034604], [-81.5576965, 28.4034953], [-81.5577477, 28.4034951], [-81.5577884, 28.4034964], [-81.5578319, 28.4035012], [-81.5578731, 28.4035165]]}, "properties": {"kind": "road", "name": null, "highway": "service"}}, {"type": "Feature", "geometry": {"type": "Polygon", "coordinates": [[[-81.5588709, 28.4028636], [-81.5587423, 28.4028423], [-81.5587506, 28.4028034], [-81.5588792, 28.4028247], [-81.5588709, 28.4028636]]]}, "properties": {"kind": "building", "name": null, "highway": null}}, {"type": "Feature", "geometry": {"type": "Polygon", "coordinates": [[[-81.5580437, 28.4058138], [-81.5578487, 28.4056098], [-81.5573958, 28.4051994], [-81.55697, 28.4049125], [-81.5564944, 28.4047571], [-81.5561999, 28.404773], [-81.556064, 28.4048248], [-81.5559734, 28.4048966], [-81.5559236, 28.4049882], [-81.5559146, 28.4051277], [-81.5558557, 28.4057094], [-81.5558466, 28.4058289], [-81.5555794, 28.4059524], [-81.5551083, 28.4062273], [-81.5546734, 28.4063947], [-81.554542, 28.4064266], [-81.5544589, 28.4064313], [-81.5544884, 28.4065046], [-81.5545161, 28.406613], [-81.5545219, 28.4065773], [-81.554538, 28.406536], [-81.5545715, 28.4065053], [-81.5546265, 28.40649], [-81.5547069, 28.4064723], [-81.5547981, 28.4064499], [-81.55487, 28.4064236], [-81.5549014, 28.4064121], [-81.5550288, 28.4063602], [-81.5551415, 28.4063083], [-81.5552648, 28.4062387], [-81.5553627, 28.4061868], [-81.5554781, 28.4061314], [-81.5556926, 28.4060082], [-81.5558602, 28.4059205], [-81.5559327, 28.4059205], [-81.5560006, 28.4059763], [-81.5561003, 28.4061118], [-81.5561505, 28.406097], [-81.5561909, 28.406048], [-81.556055, 28.4058329], [-81.5560051, 28.4057253], [-81.5560323, 28.4054823], [-81.5560414, 28.40504], [-81.5560867, 28.4049484], [-81.5562045, 28.4048846], [-81.5563539, 28.4048766], [-81.5566484, 28.4049165], [-81.5569654, 28.4050679], [-81.5572871, 28.4052791], [-81.5576766, 28.4055779], [-81.5578487, 28.4057293], [-81.5579551, 28.4058617], [-81.5579958, 28.4058403], [-81.5580437, 28.4058138]]]}, "properties": {"kind": "water", "name": null, "highway": null}}, {"type": "Feature", "geometry": {"type": "Polygon", "coordinates": [[[-81.5574243, 28.4057438], [-81.5574808, 28.4057636], [-81.5575295, 28.4057804], [-81.5575803, 28.4057976], [-81.5575543, 28.4058568], [-81.557506, 28.4058404], [-81.5574673, 28.4059285], [-81.5573358, 28.4059803], [-81.5571133, 28.4059104], [-81.5571189, 28.4058968], [-81.557033, 28.4058698], [-81.5570714, 28.4057752], [-81.5570937, 28.4057821], [-81.5570849, 28.4058037], [-81.5571451, 28.4058225], [-81.557149, 28.4058128], [-81.5573267, 28.4058684], [-81.5573764, 28.4058495], [-81.5574243, 28.4057438]]]}, "properties": {"kind": "building", "name": null, "highway": null}}, {"type": "Feature", "geometry": {"type": "LineString", "coordinates": [[-81.5591836, 28.4019091], [-81.5585371, 28.401992], [-81.5583233, 28.4020354], [-81.5579726, 28.4021066], [-81.5578985, 28.4021488], [-81.5578495, 28.4021766], [-81.5575022, 28.4025108], [-81.5574949, 28.4026063], [-81.5575202, 28.4027891]]}, "properties": {"kind": "trail", "name": null, "highway": "footway"}}, {"type": "Feature", "geometry": {"type": "LineString", "coordinates": [[-81.5565925, 28.4025823], [-81.556413, 28.4026922], [-81.5562465, 28.4028673], [-81.5561343, 28.4030328], [-81.556062, 28.4032747], [-81.5560656, 28.403523], [-81.5560511, 28.403889], [-81.5560077, 28.4041723], [-81.5558955, 28.4044715], [-81.5558195, 28.4047707], [-81.5557906, 28.4049585], [-81.5557773, 28.4053553], [-81.5557774, 28.4053591], [-81.5557786, 28.4053965], [-81.555787, 28.4058083]]}, "properties": {"kind": "trail", "name": null, "highway": "footway"}}, {"type": "Feature", "geometry": {"type": "LineString", "coordinates": [[-81.5558195, 28.4060311], [-81.5558929, 28.4062485], [-81.5559281, 28.4063526], [-81.5560547, 28.4066327], [-81.5561705, 28.4068619], [-81.5562212, 28.4070019], [-81.556261, 28.4072279], [-81.5562718, 28.4074252], [-81.5562357, 28.4081159], [-81.556261, 28.4082019], [-81.5563448, 28.4082944], [-81.5563804, 28.4083737], [-81.5563623, 28.4084692], [-81.5563117, 28.4085552], [-81.5563225, 28.4086443], [-81.55646, 28.4089753]]}, "properties": {"kind": "trail", "name": null, "highway": "footway"}}, {"type": "Feature", "geometry": {"type": "LineString", "coordinates": [[-81.555787, 28.4058083], [-81.5558195, 28.4060311]]}, "properties": {"kind": "trail", "name": null, "highway": "footway"}}, {"type": "Feature", "geometry": {"type": "LineString", "coordinates": [[-81.5552032, 28.4052896], [-81.5552926, 28.4051235], [-81.5553274, 28.4049772], [-81.5553435, 28.4048285], [-81.5552835, 28.404655]]}, "properties": {"kind": "trail", "name": null, "highway": "footway"}}, {"type": "Feature", "geometry": {"type": "LineString", "coordinates": [[-81.5566122, 28.4040364], [-81.5565934, 28.4038306], [-81.5565937, 28.4036287]]}, "properties": {"kind": "trail", "name": null, "highway": "footway"}}, {"type": "Feature", "geometry": {"type": "LineString", "coordinates": [[-81.5560511, 28.403889], [-81.5559668, 28.4038658], [-81.5558987, 28.4038471], [-81.5558263, 28.4037928], [-81.5557646, 28.4037692], [-81.5553328, 28.4037385], [-81.5551719, 28.4037126], [-81.5550857, 28.4036815], [-81.5549171, 28.4036206], [-81.5546596, 28.403479], [-81.5545711, 28.4034672], [-81.55427, 28.4035649]]}, "properties": {"kind": "trail", "name": null, "highway": "footway"}}, {"type": "Feature", "geometry": {"type": "LineString", "coordinates": [[-81.5578144, 28.4036359], [-81.5577024, 28.4036882]]}, "properties": {"kind": "trail", "name": null, "highway": "footway"}}, {"type": "Feature", "geometry": {"type": "LineString", "coordinates": [[-81.5589775, 28.4028918], [-81.5588397, 28.4028763], [-81.5585902, 28.4028797], [-81.5584091, 28.4029245]]}, "properties": {"kind": "trail", "name": null, "highway": "footway"}}, {"type": "Feature", "geometry": {"type": "Polygon", "coordinates": [[[-81.5559265, 28.4036505], [-81.5558946, 28.4033935], [-81.5559424, 28.4031411], [-81.5560062, 28.4029869], [-81.5556609, 28.4034355], [-81.5554218, 28.403529], [-81.5552093, 28.403515], [-81.555204, 28.4035991], [-81.5555387, 28.4036645], [-81.5558202, 28.4036645], [-81.5559265, 28.4036505]]]}, "properties": {"kind": "wood", "name": null, "highway": null}}, {"type": "Feature", "geometry": {"type": "Polygon", "coordinates": [[[-81.557159, 28.4042066], [-81.5568509, 28.4042954], [-81.5566649, 28.4043], [-81.5566596, 28.4043795], [-81.5569253, 28.4044122], [-81.5571378, 28.4045197], [-81.5572334, 28.4045851], [-81.557329, 28.4044916], [-81.557159, 28.4042066]]]}, "properties": {"kind": "wood", "name": null, "highway": null}}, {"type": "Feature", "geometry": {"type": "Polygon", "coordinates": [[[-81.5568509, 28.4032907], [-81.5567287, 28.4030897], [-81.5565959, 28.4031832], [-81.5567234, 28.4033514], [-81.5568509, 28.4032907]]]}, "properties": {"kind": "wood", "name": null, "highway": null}}, {"type": "Feature", "geometry": {"type": "Polygon", "coordinates": [[[-81.5584978, 28.4035664], [-81.5582959, 28.4032673], [-81.5581684, 28.4029776], [-81.5579931, 28.4030336], [-81.558094, 28.4033841], [-81.558365, 28.4036692], [-81.5584978, 28.4035664]]]}, "properties": {"kind": "wood", "name": null, "highway": null}}, {"type": "Feature", "geometry": {"type": "Polygon", "coordinates": [[[-81.555629, 28.4054403], [-81.5556715, 28.4048468], [-81.5557352, 28.4045524], [-81.5558946, 28.404029], [-81.5558999, 28.4039168], [-81.5556768, 28.4038234], [-81.5557299, 28.4042346], [-81.5555918, 28.4047486], [-81.5555334, 28.4051131], [-81.5553846, 28.4052253], [-81.5553262, 28.4053421], [-81.5554962, 28.4054589], [-81.555629, 28.4054403]]]}, "properties": {"kind": "wood", "name": null, "highway": null}}, {"type": "Feature", "geometry": {"type": "LineString", "coordinates": [[-81.5557774, 28.4053591], [-81.5558439, 28.4053561]]}, "properties": {"kind": "trail", "name": null, "highway": "footway"}}, {"type": "Feature", "geometry": {"type": "LineString", "coordinates": [[-81.5572077, 28.4054936], [-81.5572232, 28.4054558], [-81.5571767, 28.4054409], [-81.5571814, 28.4054294], [-81.557156, 28.4054213], [-81.557152, 28.405431]]}, "properties": {"kind": "road", "name": null, "highway": "steps"}}, {"type": "Feature", "geometry": {"type": "LineString", "coordinates": [[-81.5577024, 28.4036882], [-81.5576789, 28.4036992], [-81.5576384, 28.4037181]]}, "properties": {"kind": "trail", "name": null, "highway": "footway"}}, {"type": "Feature", "geometry": {"type": "LineString", "coordinates": [[-81.5576384, 28.4037181], [-81.5576096, 28.4037316]]}, "properties": {"kind": "trail", "name": null, "highway": "footway"}}]}