{
 "type": "FeatureCollection",
 "features": [
  {
   "type": "Feature",
   "geometry": {
    "type": "LineString",
    "coordinates": [
     [
      -81.56058720887866,
      28.402126827431875
     ],
     [
      -81.56044991725676,
      28.402285702680576
     ],
     [
      -81.56042460844857,
      28.402322067277655
     ],
     [
      -81.56040324882403,
      28.402360883332737
     ],
     [
      -81.56038607348678,
      28.402401723600654
     ],
     [
      -81.56037327148438,
      28.402444138555886
     ]
    ]
   },
   "properties": {
    "theoretical_left": [
     2000,
     2010
    ],
    "theoretical_right": [
     2001,
     2011
    ],
    "from": "Frontier Way",
    "to": null,
    "length_ft": 136.1
   }
  },
  {
   "type": "Feature",
   "geometry": {
    "type": "LineString",
    "coordinates": [
     [
      -81.56037327148438,
      28.402444138555886
     ],
     [
      -81.56039853036587,
      28.402442611362577
     ],
     [
      -81.56042368635596,
      28.402445353547254
     ],
     [
      -81.5604480229651,
      28.402452287007378
     ],
     [
      -81.56047084704129,
      28.402463214265065
     ],
     [
      -81.56049150851223,
      28.402477824091637
     ],
     [
      -81.56050941890071,
      28.402495700371976
     ],
     [
      -81.5605705679769,
      28.402551863492626
     ],
     [
      -81.5606272961811,
      28.40261248870593
     ],
     [
      -81.56067927883439,
      28.402677229028747
     ],
     [
      -81.56072621841854,
      28.40274571392547
     ],
     [
      -81.56076313138631,
      28.402808724729685
     ],
     [
      -81.56079579254758,
      28.402874040709214
     ],
     [
      -81.56082405864151,
      28.4029413753702
     ],
     [
      -81.56084780568527,
      28.40301043336431
     ],
     [
      -81.56088201054425,
      28.40317878244811
     ],
     [
      -81.56091999142032,
      28.40334632002433
     ],
     [
      -81.56094670194568,
      28.403446858915284
     ],
     [
      -81.56097838827013,
      28.403545942201475
     ],
     [
      -81.56101497169449,
      28.403643323790195
     ],
     [
      -81.56105636135668,
      28.403738761815234
     ],
     [
      -81.56113337843242,
      28.403885747261622
     ],
     [
      -81.56121617047336,
      28.404029559046133
     ],
     [
      -81.56123892578435,
      28.404062461183432
     ],
     [
      -81.56125610085864,
      28.404098591110643
     ],
     [
      -81.56126724969761,
      28.404137010613592
     ],
     [
      -81.5612720827906,
      28.404176722022907
     ],
     [
      -81.56127047463288,
      28.40421669412125
     ],
     [
      -81.5612606164459,
      28.404253846544044
     ],
     [
      -81.56124502005798,
      28.40428897828259
     ],
     [
      -81.56122407614892,
      28.40432120930868
     ],
     [
      -81.5611983093506,
      28.40434973225514
     ],
     [
      -81.56116836510535,
      28.404373832639898
     ],
     [
      -81.56113340528249,
      28.404394904747473
     ],
     [
      -81.56109588741617,
      28.404410986806994
     ],
     [
      -81.56105651952569,
      28.404421775325492
     ],
     [
      -81.56101604454315,
      28.404427066707175
     ],
     [
      -81.56097522629315,
      28.40442676109561
     ],
     [
      -81.56082708732752,
      28.40442140789127
     ],
     [
      -81.56067885248804,
      28.404420915654775
     ],
     [
      -81.56058568648346,
      28.404425499588843
     ],
     [
      -81.56049290747147,
      28.40443514177712
     ],
     [
      -81.56040078987519,
      28.404449813699813
     ],
     [
      -81.56029531822317,
      28.40446785379233
     ],
     [
      -81.56018921232325,
      28.404481683193
     ],
     [
      -81.56013828415789,
      28.404480549544022
     ],
     [
      -81.56008778823649,
      28.404473832021527
     ],
     [
      -81.56003833492576,
      28.404461611823216
     ],
     [
      -81.55999052198999,
      28.404444036660077
     ],
     [
      -81.55994492736544,
      28.40442131897096
     ],
     [
      -81.55989580819738,
      28.404389349164187
     ],
     [
      -81.55985081163367,
      28.40435179825917
     ],
     [
      -81.55981056838424,
      28.404309192601215
     ],
     [
      -81.55977564253259,
      28.404262129387327
     ],
     [
      -81.55974652362906,
      28.4042112682954
     ]
    ]
   },
   "properties": {
    "theoretical_left": [
     2012,
     2050
    ],
    "theoretical_right": [
     2013,
     2051
    ],
    "from": "Spanish Moss Ln",
    "to": "Spanish Moss Ln",
    "length_ft": 1307.1
   }
  },
  {
   "type": "Feature",
   "geometry": {
    "type": "LineString",
    "coordinates": [
     [
      -81.55974652362906,
      28.4042112682954
     ],
     [
      -81.55973725713909,
      28.404163434163983
     ],
     [
      -81.55973502650384,
      28.40411476182861
     ],
     [
      -81.55973987889783,
      28.404066280633934
     ],
     [
      -81.55975171170041,
      28.404019015882294
     ],
     [
      -81.55976945880195,
      28.40397437013462
     ],
     [
      -81.55979264486012,
      28.40393229152836
     ],
     [
      -81.55982090651995,
      28.40389343948874
     ],
     [
      -81.5598538008853,
      28.403858422876585
     ],
     [
      -81.55989081245968,
      28.403827790446705
     ],
     [
      -81.55993363765914,
      28.40379899078533
     ],
     [
      -81.55997443281474,
      28.40376738107979
     ],
     [
      -81.56000620671664,
      28.403739417918867
     ],
     [
      -81.56003631526006,
      28.403709669056305
     ],
     [
      -81.56007319516844,
      28.403666549134552
     ],
     [
      -81.5601057782318,
      28.403620097016457
     ],
     [
      -81.5601337652181,
      28.403570739302864
     ],
     [
      -81.56015689910414,
      28.403518929278636
     ],
     [
      -81.56017616757225,
      28.403456281385765
     ],
     [
      -81.56019007774411,
      28.403392230316584
     ],
     [
      -81.56019853027982,
      28.40332723349371
     ],
     [
      -81.56020146481535,
      28.40326175509387
     ],
     [
      -81.56021672516873,
      28.403054290066176
     ],
     [
      -81.56022651853729,
      28.402846495200905
     ],
     [
      -81.56023014045448,
      28.402699350161484
     ],
     [
      -81.56023753481247,
      28.402638309479357
     ],
     [
      -81.56025118100337,
      28.402578355973382
     ],
     [
      -81.56027093368246,
      28.402520128204465
     ],
     [
      -81.56027926130295,
      28.402502839148916
     ],
     [
      -81.56029025386586,
      28.40248710942338
     ],
     [
      -81.56030362679886,
      28.40247334623451
     ],
     [
      -81.56031903390725,
      28.40246190587981
     ],
     [
      -81.56033607633623,
      28.402453084523934
     ],
     [
      -81.56035431289622,
      28.40244711053162
     ],
     [
      -81.56037327148438,
      28.402444138555886
     ]
    ]
   },
   "properties": {
    "theoretical_left": [
     2052,
     2098
    ],
    "theoretical_right": [
     2053,
     2099
    ],
    "from": "Spanish Moss Ln",
    "to": "Spanish Moss Ln",
    "length_ft": 712.4
   }
  }
 ]
}