{
 "type": "FeatureCollection",
 "features": [
  {
   "type": "Feature",
   "geometry": {
    "type": "LineString",
    "coordinates": [
     [
      -81.5593336,
      28.4115239
     ],
     [
      -81.5592947,
      28.411495
     ],
     [
      -81.5592365,
      28.4114821
     ],
     [
      -81.5591742,
      28.4114747
     ],
     [
      -81.5591124,
      28.4114782
     ],
     [
      -81.559067,
      28.4114913
     ],
     [
      -81.5590267,
      28.4115153
     ],
     [
      -81.5589924,
      28.4115417
     ],
     [
      -81.5589639,
      28.4115705
     ],
     [
      -81.5589283,
      28.4116198
     ],
     [
      -81.558898,
      28.4116788
     ],
     [
      -81.5588538,
      28.4117778
     ],
     [
      -81.5588165,
      28.4118751
     ],
     [
      -81.5587952,
      28.4119509
     ],
     [
      -81.5587739,
      28.4120204
     ],
     [
      -81.5587557,
      28.412084
     ],
     [
      -81.5587417,
      28.4121464
     ],
     [
      -81.5587363,
      28.4121974
     ],
     [
      -81.5587393,
      28.4122376
     ],
     [
      -81.5587484,
      28.4122728
     ],
     [
      -81.5587619,
      28.4123
     ],
     [
      -81.5587851,
      28.4123274
     ],
     [
      -81.558817,
      28.4123453
     ],
     [
      -81.5588558,
      28.4123612
     ],
     [
      -81.5589015,
      28.4123707
     ],
     [
      -81.5589589,
      28.4123788
     ],
     [
      -81.5590147,
      28.412377
     ],
     [
      -81.5590922,
      28.4123612
     ],
     [
      -81.5591551,
      28.4123369
     ],
     [
      -81.5592169,
      28.4123125
     ],
     [
      -81.5592856,
      28.4122745
     ],
     [
      -81.5593527,
      28.4122126
     ],
     [
      -81.559373,
      28.4121791
     ],
     [
      -81.55939,
      28.4121231
     ],
     [
      -81.559396,
      28.4120675
     ],
     [
      -81.5593887,
      28.4119859
     ],
     [
      -81.5593646,
      28.4119039
     ],
     [
      -81.5593223,
      28.411792
     ],
     [
      -81.5593143,
      28.411749
     ],
     [
      -81.5593114,
      28.4116719
     ],
     [
      -81.5593146,
      28.4116195
     ],
     [
      -81.5593328,
      28.411568
     ],
     [
      -81.5593336,
      28.4115239
     ]
    ]
   },
   "properties": {
    "source": "OpenStreetMap",
    "streets": [
     "Palmetto Path"
    ],
    "length_ft": 891.2
   }
  }
 ]
}