{
 "type": "FeatureCollection",
 "features": [
  {
   "type": "Feature",
   "geometry": {
    "type": "LineString",
    "coordinates": [
     [
      -81.5538527,
      28.4032941
     ],
     [
      -81.5537924,
      28.4033507
     ],
     [
      -81.553684,
      28.4034475
     ],
     [
      -81.5535886,
      28.4035288
     ],
     [
      -81.5534491,
      28.4035984
     ],
     [
      -81.5532978,
      28.4036664
     ],
     [
      -81.5531862,
      28.4037646
     ],
     [
      -81.5531691,
      28.4038854
     ],
     [
      -81.5531862,
      28.4040213
     ],
     [
      -81.5532635,
      28.4041194
     ],
     [
      -81.5533922,
      28.4041723
     ],
     [
      -81.5535124,
      28.4041798
     ],
     [
      -81.5536325,
      28.4041572
     ],
     [
      -81.5537098,
      28.4040892
     ],
     [
      -81.5538214,
      28.4040364
     ],
     [
      -81.5539587,
      28.4040288
     ],
     [
      -81.5540874,
      28.4040062
     ],
     [
      -81.5542323,
      28.4039641
     ],
     [
      -81.5543302,
      28.403904
     ],
     [
      -81.5543637,
      28.4038084
     ],
     [
      -81.5543543,
      28.4037011
     ],
     [
      -81.5543154,
      28.4036126
     ],
     [
      -81.55427,
      28.4035649
     ],
     [
      -81.5542256,
      28.4035182
     ],
     [
      -81.5540982,
      28.4034309
     ],
     [
      -81.5539882,
      28.4033755
     ],
     [
      -81.5538527,
      28.4032941
     ]
    ]
   },
   "properties": {
    "source": "OpenStreetMap",
    "streets": [
     "Conestoga Trail"
    ],
    "length_ft": 1089.6
   }
  }
 ]
}