{
 "type": "FeatureCollection",
 "features": [
  {
   "type": "Feature",
   "geometry": {
    "type": "LineString",
    "coordinates": [
     [
      -81.5570727,
      28.4034934
     ],
     [
      -81.5570915,
      28.4033795
     ],
     [
      -81.5570829,
      28.4032663
     ],
     [
      -81.5570229,
      28.4031455
     ],
     [
      -81.5569885,
      28.4030021
     ],
     [
      -81.5569199,
      28.402919
     ],
     [
      -81.5567911,
      28.4028662
     ],
     [
      -81.5566771,
      28.4028638
     ],
     [
      -81.5565484,
      28.4029091
     ],
     [
      -81.556454,
      28.4030072
     ],
     [
      -81.5564025,
      28.4031356
     ],
     [
      -81.5563596,
      28.4032488
     ],
     [
      -81.5563362,
      28.4033493
     ],
     [
      -81.5563791,
      28.4034475
     ],
     [
      -81.5564564,
      28.4035532
     ],
     [
      -81.5565937,
      28.4036287
     ],
     [
      -81.5567139,
      28.4036287
     ],
     [
      -81.556834,
      28.4035834
     ],
     [
      -81.5569199,
      28.4035381
     ],
     [
      -81.5570229,
      28.4035003
     ],
     [
      -81.5570727,
      28.4034934
     ]
    ]
   },
   "properties": {
    "source": "OpenStreetMap",
    "streets": [
     "Dogwood Drive"
    ],
    "length_ft": 828.3
   }
  }
 ]
}