{
 "type": "FeatureCollection",
 "features": [
  {
   "type": "Feature",
   "geometry": {
    "type": "LineString",
    "coordinates": [
     [
      -81.5578731,
      28.4035165
     ],
     [
      -81.5579481,
      28.4035546
     ],
     [
      -81.5580023,
      28.4036014
     ],
     [
      -81.558047,
      28.4036909
     ],
     [
      -81.5580957,
      28.4037948
     ],
     [
      -81.5582245,
      28.4038552
     ],
     [
      -81.5583704,
      28.4038854
     ],
     [
      -81.5585249,
      28.4038627
     ],
     [
      -81.5586451,
      28.4037646
     ],
     [
      -81.558688,
      28.4036287
     ],
     [
      -81.5587137,
      28.4035154
     ],
     [
      -81.5586708,
      28.4034173
     ],
     [
      -81.5585592,
      28.4033342
     ],
     [
      -81.5584648,
      28.4032285
     ],
     [
      -81.5584391,
      28.4031078
     ],
     [
      -81.5584452,
      28.4029846
     ],
     [
      -81.5584091,
      28.4029245
     ],
     [
      -81.558368,
      28.4028562
     ],
     [
      -81.5582392,
      28.4027656
     ],
     [
      -81.5580247,
      28.402743
     ],
     [
      -81.5578812,
      28.4027907
     ],
     [
      -81.5577867,
      28.4028813
     ],
     [
      -81.5577782,
      28.4030474
     ],
     [
      -81.5578086,
      28.4032209
     ],
     [
      -81.5578165,
      28.4032785
     ],
     [
      -81.557816,
      28.4033258
     ],
     [
      -81.5578159,
      28.4033791
     ],
     [
      -81.5578266,
      28.4034333
     ],
     [
      -81.5578421,
      28.4034793
     ],
     [
      -81.5578731,
      28.4035165
     ]
    ]
   },
   "properties": {
    "source": "OpenStreetMap",
    "streets": [
     "Possum Path"
    ],
    "length_ft": 1151.9
   }
  }
 ]
}