{"type": "FeatureCollection", "features": [{"type": "Feature", "geometry": {"type": "LineString", "coordinates": [[-81.5568653, 28.4096303], [-81.5571613, 28.4099329], [-81.5571829, 28.4099549], [-81.5575348, 28.4102342], [-81.5578867, 28.4104532], [-81.5579226, 28.4104766], [-81.5580341, 28.4105492], [-81.5585476, 28.4108835], [-81.5587439, 28.4109804], [-81.5589853, 28.4110571], [-81.5592065, 28.4110982], [-81.5593801, 28.4111175], [-81.5595475, 28.4111036], [-81.5597406, 28.4110798], [-81.5599076, 28.4110449], [-81.5600239, 28.4110118], [-81.5602985, 28.410891]]}, "properties": {"kind": "road", "name": "Big Pine Road", "highway": "unclassified"}}, {"type": "Feature", "geometry": {"type": "LineString", "coordinates": [[-81.5576387, 28.4138216], [-81.557644, 28.4136838], [-81.5576307, 28.4135456], [-81.5575501, 28.4132812], [-81.5573576, 28.4128652], [-81.5573272, 28.4127978], [-81.5571259, 28.4123519], [-81.5569714, 28.4120197], [-81.5568856, 28.4118536], [-81.5567997, 28.4117253], [-81.5567311, 28.4116422], [-81.5565852, 28.4115063], [-81.5564307, 28.4113856], [-81.5562342, 28.4112712], [-81.5559243, 28.4111138], [-81.5554865, 28.4108797], [-81.5553835, 28.4108043], [-81.5551346, 28.4106155], [-81.55493, 28.410411], [-81.5547312, 28.4101626], [-81.5546111, 28.4099663], [-81.5545338, 28.40977], [-81.5544912, 28.4095924], [-81.5544504, 28.4093528], [-81.5544528, 28.40909], [-81.5544733, 28.4087917], [-81.554551, 28.4079581], [-81.5545681, 28.4077694], [-81.5545681, 28.4074901], [-81.5545424, 28.4072258], [-81.5545166, 28.407022], [-81.5544737, 28.40672], [-81.5544051, 28.4064935], [-81.5538987, 28.4054064], [-81.5538214, 28.4052705], [-81.5537442, 28.4051195], [-81.5536154, 28.4049307], [-81.5533837, 28.4046967], [-81.5531605, 28.4044853], [-81.5529717, 28.4042965], [-81.5524728, 28.4039554], [-81.5521026, 28.4037148], [-81.551821, 28.4035779], [-81.5514348, 28.4034128], [-81.5511505, 28.4033184], [-81.5509681, 28.4032783], [-81.5489119, 28.4028394], [-81.5486345, 28.4027663], [-81.5483019, 28.402613], [-81.5480766, 28.4024431], [-81.5478476, 28.4021826], [-81.5475901, 28.4019032], [-81.5474356, 28.4017447], [-81.5471781, 28.4013747], [-81.5470236, 28.4010425], [-81.5468589, 28.4006995], [-81.5467057, 28.4002752], [-81.5466658, 28.4001249], [-81.5466282, 28.3997642], [-81.5465553, 28.3993391], [-81.5464651, 28.3989685], [-81.5463971, 28.3967087], [-81.5463542, 28.3964445], [-81.5462554, 28.3961387], [-81.5461739, 28.3959386], [-81.5459679, 28.3954478], [-81.5458504, 28.395235], [-81.5456761, 28.394942], [-81.5454958, 28.3947003], [-81.545255, 28.3944328], [-81.5449094, 28.3941307], [-81.5443081, 28.393522], [-81.5440909, 28.393338], [-81.5438656, 28.3930454], [-81.5436912, 28.3928401], [-81.5435464, 28.392616], [-81.5433962, 28.3921676], [-81.5432743, 28.3916391]]}, "properties": {"kind": "water", "name": null, "highway": null}}, {"type": "Feature", "geometry": {"type": "LineString", "coordinates": [[-81.5565306, 28.4092], [-81.5568653, 28.4096303]]}, "properties": {"kind": "road", "name": "Big Pine Trail", "highway": "unclassified"}}, {"type": "Feature", "geometry": {"type": "LineString", "coordinates": [[-81.5597406, 28.4110798], [-81.559759, 28.4111744], [-81.5598047, 28.4114745], [-81.5597019, 28.4114784], [-81.5595832, 28.4115009], [-81.5594657, 28.4115147], [-81.5593336, 28.4115239]]}, "properties": {"kind": "road", "name": null, "highway": "service"}}, {"type": "Feature", "geometry": {"type": "LineString", "coordinates": [[-81.5593336, 28.4115239], [-81.5592947, 28.411495], [-81.5592365, 28.4114821], [-81.5591742, 28.4114747], [-81.5591124, 28.4114782], [-81.559067, 28.4114913], [-81.5590267, 28.4115153], [-81.5589924, 28.4115417], [-81.5589639, 28.4115705], [-81.5589283, 28.4116198], [-81.558898, 28.4116788], [-81.5588538, 28.4117778], [-81.5588165, 28.4118751], [-81.5587952, 28.4119509], [-81.5587739, 28.4120204], [-81.5587557, 28.412084], [-81.5587417, 28.4121464], [-81.5587363, 28.4121974], [-81.5587393, 28.4122376], [-81.5587484, 28.4122728], [-81.5587619, 28.4123], [-81.5587851, 28.4123274], [-81.558817, 28.4123453], [-81.5588558, 28.4123612], [-81.5589015, 28.4123707], [-81.5589589, 28.4123788], [-81.5590147, 28.412377], [-81.5590922, 28.4123612], [-81.5591551, 28.4123369], [-81.5592169, 28.4123125], [-81.5592856, 28.4122745], [-81.5593527, 28.4122126], [-81.559373, 28.4121791], [-81.55939, 28.4121231], [-81.559396, 28.4120675], [-81.5593887, 28.4119859], [-81.5593646, 28.4119039], [-81.5593223, 28.411792], [-81.5593143, 28.411749], [-81.5593114, 28.4116719], [-81.5593146, 28.4116195], [-81.5593328, 28.411568], [-81.5593336, 28.4115239]]}, "properties": {"kind": "road", "name": "Palmetto Path", "highway": "service"}}, {"type": "Feature", "geometry": {"type": "LineString", "coordinates": [[-81.5578867, 28.4104532], [-81.5577862, 28.4105591], [-81.5576626, 28.4106099], [-81.5573793, 28.4107307], [-81.5571648, 28.4108666], [-81.5571133, 28.4109647], [-81.557139, 28.4111081], [-81.5571734, 28.4113271], [-81.5572334, 28.4114403], [-81.5572588, 28.4114774], [-81.5573622, 28.411629], [-81.5574394, 28.411848], [-81.5574738, 28.4120292], [-81.557551, 28.4121197], [-81.557654, 28.4122707], [-81.5577742, 28.412316], [-81.5579115, 28.4122934], [-81.5579802, 28.4122103], [-81.5579973, 28.4119914], [-81.5579802, 28.4118027], [-81.5580317, 28.411697], [-81.5580917, 28.4115838], [-81.5581862, 28.4115083], [-81.5582548, 28.4113799], [-81.5582806, 28.4112667], [-81.5582682, 28.4112196], [-81.5582548, 28.4111685], [-81.5581347, 28.4110704], [-81.5580145, 28.4109798], [-81.5578943, 28.4108741], [-81.5578257, 28.4107911], [-81.5578514, 28.4107005], [-81.5579287, 28.410625], [-81.5580341, 28.4105492]]}, "properties": {"kind": "road", "name": "Cypress Knee Circle", "highway": "service"}}, {"type": "Feature", "geometry": {"type": "LineString", "coordinates": [[-81.5580013, 28.4101515], [-81.5580528, 28.4100458], [-81.5581215, 28.4099477], [-81.5582159, 28.4098722], [-81.5583361, 28.4098118], [-81.558379, 28.4097514], [-81.5584047, 28.4096835], [-81.5584734, 28.409608], [-81.558585, 28.4095023], [-81.5586794, 28.4094192], [-81.558748, 28.4093211], [-81.5587652, 28.4092079], [-81.5587223, 28.4091248], [-81.5586021, 28.4090418], [-81.558482, 28.4090342], [-81.5583876, 28.4090795], [-81.5582331, 28.4091475], [-81.5581129, 28.4092079], [-81.557967, 28.4092607], [-81.5578382, 28.4092683], [-81.5576923, 28.4092607], [-81.5575293, 28.4092532], [-81.5574177, 28.4092305], [-81.5572975, 28.4092381], [-81.5572203, 28.4092909], [-81.5571945, 28.4093966], [-81.5572288, 28.4095174], [-81.5572975, 28.4096004], [-81.5574153, 28.4096358], [-81.5575269, 28.4096736], [-81.5576384, 28.4097415], [-81.55775, 28.4098397], [-81.5578125, 28.4099477], [-81.5578812, 28.4100383], [-81.5580013, 28.4101515]]}, "properties": {"kind": "road", "name": "Buffalo Bend", "highway": "service"}}, {"type": "Feature", "geometry": {"type": "LineString", "coordinates": [[-81.5578867, 28.4104532], [-81.5579377, 28.4103829], [-81.5580013, 28.4101515]]}, "properties": {"kind": "road", "name": null, "highway": "service"}}, {"type": "Feature", "geometry": {"type": "LineString", "coordinates": [[-81.5595377, 28.4107479], [-81.559572, 28.4106875], [-81.5596149, 28.4105969], [-81.5596149, 28.4104762], [-81.5595377, 28.4103629], [-81.5594261, 28.4102421], [-81.5593145, 28.4101213], [-81.5591944, 28.4100534], [-81.5591206, 28.410061], [-81.5590485, 28.4100685], [-81.5589111, 28.4101138], [-81.558851, 28.4102497], [-81.5588425, 28.410378], [-81.5588854, 28.4105139], [-81.558997, 28.4106347], [-81.5590914, 28.4106951], [-81.5591858, 28.4107253], [-81.5593918, 28.4107328], [-81.5595377, 28.4107479]]}, "properties": {"kind": "road", "name": "Whispering Pine Way", "highway": "service"}}, {"type": "Feature", "geometry": {"type": "LineString", "coordinates": [[-81.5578349, 28.4113733], [-81.5578544, 28.4114711], [-81.5576223, 28.4115069], [-81.5576028, 28.4114091], [-81.5578349, 28.4113733]]}, "properties": {"kind": "comfort", "name": "Comfort Station", "highway": null}}, {"type": "Feature", "geometry": {"type": "LineString", "coordinates": [[-81.5589938, 28.4095148], [-81.5590888, 28.4094704], [-81.5591842, 28.4096285], [-81.5590892, 28.4096729], [-81.5589938, 28.4095148]]}, "properties": {"kind": "comfort", "name": "Comfort Station", "highway": null}}, {"type": "Feature", "geometry": {"type": "LineString", "coordinates": [[-81.5596125, 28.4113193], [-81.5596125, 28.4112136], [-81.5596033, 28.4112136], [-81.5594495, 28.4112136], [-81.5594495, 28.4113193], [-81.5596125, 28.4113193]]}, "properties": {"kind": "comfort", "name": "Comfort Station", "highway": null}}, {"type": "Feature", "geometry": {"type": "Polygon", "coordinates": [[[-81.5577247, 28.4138125], [-81.5576387, 28.4138216], [-81.5575073, 28.4138782], [-81.5575596, 28.413608], [-81.5574969, 28.4134454], [-81.5575622, 28.4133662], [-81.5575363, 28.413312], [-81.5575177, 28.4132733], [-81.5574961, 28.4132282], [-81.5574041, 28.4132169], [-81.557213, 28.4127675], [-81.5570077, 28.4123416], [-81.556888, 28.4120668], [-81.5568412, 28.4119483], [-81.5568027, 28.4118792], [-81.5567579, 28.4118109], [-81.5566973, 28.4117417], [-81.5566157, 28.4116634], [-81.5565354, 28.411587], [-81.5564456, 28.4115173], [-81.5563729, 28.4114717], [-81.5562668, 28.4113931], [-81.5561096, 28.4113033], [-81.5559457, 28.4112244], [-81.5557241, 28.411114], [-81.5555528, 28.4110168], [-81.5554667, 28.410958], [-81.5553401, 28.4108697], [-81.5551394, 28.4107257], [-81.5549732, 28.4105876], [-81.5547969, 28.4104139], [-81.5547165, 28.4103083], [-81.5546654, 28.410223], [-81.5544831, 28.4098985], [-81.5544363, 28.4097864], [-81.5544041, 28.4096663], [-81.5543721, 28.4095155], [-81.554356, 28.4093481], [-81.5543727, 28.4092393], [-81.5543592, 28.4090788], [-81.5543879, 28.4089], [-81.5544137, 28.4085228], [-81.5544329, 28.4083658], [-81.5544291, 28.4082507], [-81.5544316, 28.4081715], [-81.5544684, 28.4079955], [-81.5544805, 28.4078356], [-81.5544916, 28.4076734], [-81.5544932, 28.4075225], [-81.5544859, 28.4073725], [-81.5544781, 28.4072228], [-81.5544594, 28.4070717], [-81.5544448, 28.406943], [-81.5544051, 28.4068072], [-81.5543786, 28.4066694], [-81.5543273, 28.4065744], [-81.5543068, 28.4064844], [-81.5542315, 28.4063099], [-81.5541285, 28.406087], [-81.5540652, 28.4059422], [-81.5540083, 28.4058601], [-81.5539866, 28.4057863], [-81.5539322, 28.4056596], [-81.5538596, 28.4055088], [-81.5537522, 28.4053367], [-81.5536389, 28.4051773], [-81.5534859, 28.4049688], [-81.5533041, 28.4047596], [-81.5531155, 28.4045731], [-81.552916, 28.4043834], [-81.5528414, 28.4043398], [-81.5527002, 28.4042089], [-81.5525149, 28.4040743], [-81.5522179, 28.4038846], [-81.5520843, 28.4038126], [-81.5520147, 28.4037606], [-81.5517149, 28.4036282], [-81.5515144, 28.4035339], [-81.5511639, 28.4034289], [-81.5509794, 28.4033738], [-81.5508004, 28.4033325], [-81.5499457, 28.4032245], [-81.5488224, 28.4029688], [-81.5482806, 28.4027239], [-81.5480306, 28.4025526], [-81.5472484, 28.4017443], [-81.5470253, 28.4014668], [-81.546818, 28.401071], [-81.546787, 28.40085], [-81.546712, 28.400493], [-81.5466389, 28.4002594], [-81.5465859, 28.4001214], [-81.5466658, 28.4001249], [-81.5467576, 28.400129], [-81.5467503, 28.4002205], [-81.5468307, 28.4004293], [-81.546942, 28.400735], [-81.547204, 28.401181], [-81.547322, 28.401329], [-81.547428, 28.4015], [-81.547571, 28.401698], [-81.547925, 28.402116], [-81.548149, 28.402342], [-81.548541, 28.402562], [-81.5491683, 28.4028299], [-81.5495789, 28.4029033], [-81.550228, 28.40303], [-81.550551, 28.403085], [-81.550838, 28.403156], [-81.5509201, 28.4031815], [-81.550999, 28.403206], [-81.5515407, 28.4033478], [-81.5520423, 28.4035932], [-81.5524929, 28.4038551], [-81.5526076, 28.4039328], [-81.5529529, 28.4041665], [-81.5536797, 28.4049026], [-81.5539748, 28.4053556], [-81.554123, 28.405688], [-81.554341, 28.406139], [-81.5544589, 28.4064313], [-81.5544884, 28.4065046], [-81.5545161, 28.406613], [-81.554652, 28.407146], [-81.554664, 28.407548], [-81.554615, 28.408555], [-81.554534, 28.409259], [-81.554577, 28.409611], [-81.554764, 28.410068], [-81.555031, 28.410404], [-81.555268, 28.410635], [-81.555467, 28.410767], [-81.5555632, 28.4108317], [-81.5563598, 28.4112625], [-81.556718, 28.411532], [-81.5569455, 28.4117746], [-81.5570515, 28.4119751], [-81.5573937, 28.4127115], [-81.5574419, 28.4128248], [-81.5575998, 28.4131456], [-81.5575435, 28.4132138], [-81.5575623, 28.4132567], [-81.5575811, 28.4132962], [-81.5575902, 28.4133154], [-81.5576067, 28.4133502], [-81.5576693, 28.413359], [-81.5577073, 28.4133644], [-81.5577362, 28.4135567], [-81.5577547, 28.4136151], [-81.5578108, 28.4137923], [-81.5577247, 28.4138125]]]}, "properties": {"kind": "water", "name": null, "highway": null}}, {"type": "Feature", "geometry": {"type": "LineString", "coordinates": [[-81.557484, 28.4126764], [-81.5574252, 28.4125391], [-81.5574244, 28.4125346], [-81.5574142, 28.4124781], [-81.557423, 28.4124238], [-81.5574663, 28.4123693], [-81.5575251, 28.4123337], [-81.557654, 28.4122707]]}, "properties": {"kind": "trail", "name": "Swamp Trail", "highway": "track"}}, {"type": "Feature", "geometry": {"type": "LineString", "coordinates": [[-81.5606709, 28.4122556], [-81.5605905, 28.4122945], [-81.560518, 28.4123582], [-81.5604791, 28.4124396], [-81.5604416, 28.4125906], [-81.5604202, 28.4126166], [-81.5603786, 28.4126673], [-81.5603197, 28.4127047], [-81.5602542, 28.4127221], [-81.5601479, 28.4127274], [-81.5600513, 28.4127593], [-81.5599333, 28.4128289], [-81.5598475, 28.4128595], [-81.5597563, 28.4128595], [-81.5595766, 28.4128454], [-81.559421, 28.4128584], [-81.5592882, 28.4129044], [-81.5591863, 28.4129468], [-81.5590844, 28.4129751], [-81.5589959, 28.4129905], [-81.5588631, 28.4130317], [-81.55878, 28.4130282], [-81.5587016, 28.4130104], [-81.5586418, 28.4129975], [-81.5584755, 28.413007], [-81.5583897, 28.4130082], [-81.5583012, 28.4130317], [-81.5582207, 28.4130966], [-81.5581403, 28.4131851], [-81.5580598, 28.4132488], [-81.5579606, 28.4132641], [-81.5578559, 28.41325], [-81.5577567, 28.4132488], [-81.5576828, 28.4132514], [-81.5576004, 28.4132659]]}, "properties": {"kind": "trail", "name": null, "highway": "track"}}, {"type": "Feature", "geometry": {"type": "LineString", "coordinates": [[-81.5588631, 28.4130317], [-81.5587698, 28.413078], [-81.5586717, 28.413142], [-81.5585909, 28.4132158], [-81.5584849, 28.4133066], [-81.5583548, 28.4133974], [-81.5581993, 28.4135224], [-81.5580474, 28.4136318], [-81.5579976, 28.4136351], [-81.5579471, 28.4136334], [-81.5579021, 28.4136133], [-81.55786, 28.4135823], [-81.5578173, 28.4134966], [-81.557791, 28.4134069], [-81.5577567, 28.4132488], [-81.5577182, 28.4131333], [-81.5576749, 28.4130232], [-81.5575881, 28.4128892], [-81.5575348, 28.4128033]]}, "properties": {"kind": "trail", "name": null, "highway": "track"}}, {"type": "Feature", "geometry": {"type": "LineString", "coordinates": [[-81.5575348, 28.4128033], [-81.557484, 28.4126764]]}, "properties": {"kind": "trail", "name": null, "highway": "footway"}}, {"type": "Feature", "geometry": {"type": "LineString", "coordinates": [[-81.5574998, 28.4132964], [-81.5574397, 28.4133107], [-81.5574213, 28.4133247], [-81.5574133, 28.4133461]]}, "properties": {"kind": "trail", "name": null, "highway": "track"}}, {"type": "Feature", "geometry": {"type": "LineString", "coordinates": [[-81.5576004, 28.4132659], [-81.5575501, 28.4132812], [-81.5574998, 28.4132964]]}, "properties": {"kind": "trail", "name": null, "highway": "track"}}, {"type": "Feature", "geometry": {"type": "LineString", "coordinates": [[-81.5588473, 28.4072214], [-81.5588442, 28.4073221], [-81.5588214, 28.4079179], [-81.5587956, 28.4080657], [-81.5588041, 28.408111], [-81.5588213, 28.4081563], [-81.5588041, 28.4082016], [-81.5588213, 28.4082771], [-81.5588385, 28.4084055], [-81.5588299, 28.4085112], [-81.5588338, 28.4085354], [-81.5588556, 28.4086697], [-81.5589243, 28.4088282], [-81.55895, 28.4089188], [-81.5590445, 28.4090925], [-81.5591045, 28.4092359], [-81.5591818, 28.409334], [-81.5592247, 28.4094171], [-81.55924, 28.4094416], [-81.5593191, 28.4095681], [-81.5593878, 28.4096889], [-81.559465, 28.4097719], [-81.5597311, 28.4101192], [-81.5597654, 28.4101947], [-81.5597998, 28.41024], [-81.5598341, 28.4103155], [-81.5598856, 28.4103834], [-81.5599285, 28.4104967], [-81.5599886, 28.4105872], [-81.5599972, 28.4106476], [-81.5599972, 28.4107005], [-81.5600315, 28.4107533], [-81.5600916, 28.4108515], [-81.5601688, 28.410859], [-81.5602985, 28.410891]]}, "properties": {"kind": "trail", "name": null, "highway": "footway"}}, {"type": "Feature", "geometry": {"type": "LineString", "coordinates": [[-81.5584849, 28.4133066], [-81.5584831, 28.4133673], [-81.558467, 28.4134522], [-81.5584361, 28.4135372]]}, "properties": {"kind": "trail", "name": null, "highway": "track"}}, {"type": "Feature", "geometry": {"type": "LineString", "coordinates": [[-81.5584849, 28.4133066], [-81.5585367, 28.413365], [-81.5586011, 28.4134027], [-81.5586882, 28.4134251], [-81.5587861, 28.4134334], [-81.5589055, 28.4134298], [-81.5590584, 28.4134287], [-81.5591844, 28.413418], [-81.5592622, 28.4134051], [-81.5593762, 28.4133815], [-81.559509, 28.4133602], [-81.5596458, 28.4133532], [-81.5597973, 28.4133461], [-81.5599288, 28.4133355], [-81.5600977, 28.4133249], [-81.5602158, 28.4133131]]}, "properties": {"kind": "trail", "name": null, "highway": "track"}}, {"type": "Feature", "geometry": {"type": "LineString", "coordinates": [[-81.5574397, 28.4133107], [-81.5573978, 28.4132786], [-81.5573723, 28.4132521], [-81.5573621, 28.4132304]]}, "properties": {"kind": "trail", "name": null, "highway": "track"}}, {"type": "Feature", "geometry": {"type": "LineString", "coordinates": [[-81.5573272, 28.4127978], [-81.5578603, 28.4126521]]}, "properties": {"kind": "water", "name": null, "highway": null}}, {"type": "Feature", "geometry": {"type": "LineString", "coordinates": [[-81.5574133, 28.4133461], [-81.5574371, 28.413417], [-81.5574222, 28.4135832], [-81.5574222, 28.4136421], [-81.5573998, 28.4137104], [-81.5573489, 28.4138083], [-81.5573015, 28.4138415], [-81.5572412, 28.4138474], [-81.5571799, 28.4138425], [-81.5571205, 28.4138415], [-81.5570709, 28.4138415], [-81.5570025, 28.4138462], [-81.5569555, 28.4138592], [-81.5569059, 28.4138781], [-81.5568442, 28.4138993], [-81.5567919, 28.4139064], [-81.5567289, 28.4139146], [-81.5566846, 28.4139205], [-81.556635, 28.4139134], [-81.556572, 28.4139052], [-81.5565224, 28.413904], [-81.5564714, 28.4139075], [-81.5564124, 28.4139288], [-81.5563172, 28.4139771], [-81.5562447, 28.4140149], [-81.5561455, 28.4140691], [-81.5560811, 28.4141222], [-81.5560624, 28.4141541], [-81.5560422, 28.4141895], [-81.5560114, 28.4142013], [-81.5559859, 28.4142095], [-81.555951, 28.4142437], [-81.5559001, 28.4143015], [-81.5558518, 28.4143629], [-81.5558102, 28.4144336], [-81.5557687, 28.4144902], [-81.5557365, 28.4145268], [-81.5556748, 28.4145362], [-81.5556171, 28.414528], [-81.5555688, 28.4145138], [-81.5555429, 28.4145056], [-81.5555179, 28.4145221], [-81.5555152, 28.4145669], [-81.5554991, 28.4145929], [-81.5554736, 28.414607]]}, "properties": {"kind": "trail", "name": null, "highway": "track"}}, {"type": "Feature", "geometry": {"type": "Polygon", "coordinates": [[[-81.5555022, 28.4062151], [-81.5554781, 28.4061314], [-81.5553627, 28.4061868], [-81.5552648, 28.4062387], [-81.5551415, 28.4063083], [-81.5550288, 28.4063602], [-81.5549014, 28.4064121], [-81.55487, 28.4064236], [-81.5547981, 28.4064499], [-81.5547069, 28.4064723], [-81.5546265, 28.40649], [-81.5545715, 28.4065053], [-81.554538, 28.406536], [-81.5545219, 28.4065773], [-81.5545161, 28.406613], [-81.5545444, 28.4067293], [-81.554652, 28.407146], [-81.554664, 28.407548], [-81.554615, 28.408555], [-81.554534, 28.409259], [-81.554577, 28.409611], [-81.554764, 28.410068], [-81.555031, 28.410404], [-81.555268, 28.410635], [-81.5553949, 28.4106976], [-81.5554392, 28.4106988], [-81.5554888, 28.4106941], [-81.5555371, 28.4106752], [-81.55558, 28.4106528], [-81.5556149, 28.4106245], [-81.5556363, 28.4105927], [-81.5556859, 28.4105584], [-81.5557919, 28.410516], [-81.5559488, 28.4104393], [-81.5561634, 28.410332], [-81.5561875, 28.4103119], [-81.5561956, 28.4102895], [-81.5561822, 28.4102612], [-81.5561594, 28.4102293], [-81.5561151, 28.4101739], [-81.5563136, 28.4100559], [-81.5564182, 28.4099958], [-81.5565215, 28.4099439], [-81.5565751, 28.4099156], [-81.5565845, 28.4098837], [-81.5565858, 28.4098566], [-81.5565644, 28.4098082], [-81.5565335, 28.409761], [-81.5564812, 28.4097221], [-81.5564262, 28.409695], [-81.5563632, 28.4096761], [-81.5562975, 28.4096655], [-81.5562506, 28.4096714], [-81.556221, 28.4096844], [-81.5562103, 28.4097068], [-81.5562264, 28.4097257], [-81.5562425, 28.4097398], [-81.5562304, 28.4097552], [-81.556217, 28.4097563], [-81.5561956, 28.4097516], [-81.5561661, 28.4097292], [-81.5561513, 28.4097127], [-81.5561527, 28.4096926], [-81.5561755, 28.4096596], [-81.5562063, 28.4096242], [-81.556221, 28.4095924], [-81.5562331, 28.4095475], [-81.5562452, 28.4095051], [-81.5562532, 28.4094673], [-81.5561553, 28.4094319], [-81.5560574, 28.4093954], [-81.5560735, 28.4093411], [-81.556103, 28.409281], [-81.5561406, 28.4092196], [-81.5561956, 28.4091665], [-81.5562385, 28.4091394], [-81.5562626, 28.4091241], [-81.556264, 28.4088775], [-81.5562626, 28.4088221], [-81.5562398, 28.4087383], [-81.5561969, 28.4086322], [-81.5561567, 28.4085142], [-81.5561245, 28.4083715], [-81.5561071, 28.4082382], [-81.5561097, 28.4080306], [-81.5561272, 28.407823], [-81.5561379, 28.4077203], [-81.5561473, 28.4075929], [-81.55615, 28.4075033], [-81.5561325, 28.4074455], [-81.5561486, 28.4073606], [-81.5561459, 28.4073134], [-81.5561379, 28.4072756], [-81.5561379, 28.4072131], [-81.5561325, 28.4071411], [-81.5561178, 28.407081], [-81.5560883, 28.4069937], [-81.5560615, 28.4069111], [-81.5560199, 28.4068179], [-81.5559756, 28.4067259], [-81.5559247, 28.4066433], [-81.5558576, 28.4065254], [-81.5558174, 28.406444], [-81.5557678, 28.4063095], [-81.5557235, 28.4062033], [-81.5557047, 28.4061786], [-81.5556739, 28.4061597], [-81.5556363, 28.4061644], [-81.5556055, 28.4061833], [-81.5555639, 28.4061998], [-81.5555022, 28.4062151]]]}, "properties": {"kind": "wood", "name": null, "highway": null}}, {"type": "Feature", "geometry": {"type": "Polygon", "coordinates": [[[-81.5575251, 28.4123337], [-81.5575528, 28.4123915], [-81.5576171, 28.4124481], [-81.5577003, 28.4124941], [-81.5577714, 28.412513], [-81.5578532, 28.4125154], [-81.5579417, 28.4125083], [-81.558002, 28.4124965], [-81.5580651, 28.4124741], [-81.5581254, 28.4124234], [-81.5581777, 28.4123691], [-81.5582005, 28.4122924], [-81.5581925, 28.4122181], [-81.5581978, 28.4121167], [-81.5582166, 28.4120494], [-81.5582555, 28.4119503], [-81.5582703, 28.4118607], [-81.5582729, 28.4117935], [-81.5582783, 28.4117286], [-81.5583239, 28.4116531], [-81.5583749, 28.4116154], [-81.5584285, 28.411567], [-81.5584862, 28.4115139], [-81.5585117, 28.4114561], [-81.5585465, 28.4113724], [-81.5585559, 28.411291], [-81.5585613, 28.4112108], [-81.5585358, 28.4111518], [-81.5584915, 28.4110822], [-81.5584486, 28.4110279], [-81.5584298, 28.4109831], [-81.55845, 28.410956], [-81.5584889, 28.4109465], [-81.5585559, 28.4109607], [-81.5586189, 28.4109996], [-81.5587008, 28.4110397], [-81.5588027, 28.4110775], [-81.5588872, 28.4111105], [-81.5589958, 28.41114], [-81.5591326, 28.4111612], [-81.5592667, 28.4111718], [-81.5593995, 28.4111707], [-81.5594773, 28.4111671], [-81.559547, 28.4111636], [-81.5595805, 28.4111695], [-81.5596006, 28.4111872], [-81.5596033, 28.4112136], [-81.5594495, 28.4112136], [-81.5594495, 28.4113193], [-81.5593311, 28.4112957], [-81.5592023, 28.4112591], [-81.5590776, 28.4112568], [-81.5589529, 28.4112721], [-81.5589199, 28.4112919], [-81.5588469, 28.4113358], [-81.5587678, 28.4114361], [-81.5587423, 28.4115481], [-81.5587075, 28.4116283], [-81.5586592, 28.4117144], [-81.5585961, 28.4118501], [-81.5585465, 28.4119515], [-81.558505, 28.4120895], [-81.5584929, 28.4122134], [-81.5585036, 28.4123113], [-81.5585599, 28.4124493], [-81.5586149, 28.4124988], [-81.5586954, 28.4125484], [-81.5587826, 28.4125743], [-81.5588872, 28.412592], [-81.5589998, 28.4125861], [-81.5591232, 28.4125755], [-81.5592788, 28.4125307], [-81.5593941, 28.4124741], [-81.5594933, 28.412408], [-81.5595631, 28.4123549], [-81.5596127, 28.4122936], [-81.5596382, 28.4122205], [-81.5596301, 28.4121674], [-81.5596114, 28.4120836], [-81.5595899, 28.4119445], [-81.5595564, 28.4118123], [-81.5595389, 28.4116543], [-81.5595644, 28.4115823], [-81.5596315, 28.4115788], [-81.5596624, 28.4116084], [-81.5596771, 28.4116554], [-81.5596843, 28.4116835], [-81.5596999, 28.4117817], [-81.559716, 28.4118749], [-81.5597602, 28.4120176], [-81.5598098, 28.4121556], [-81.55989, 28.4122198], [-81.559998, 28.4122549], [-81.5600727, 28.4122618], [-81.5601598, 28.4122708], [-81.5602253, 28.4122906], [-81.5602738, 28.412298], [-81.5603599, 28.4122905], [-81.5604388, 28.41228], [-81.5605132, 28.4122631], [-81.5605746, 28.4122541], [-81.5606346, 28.4122865], [-81.5606869, 28.4123502], [-81.5606051, 28.4123939], [-81.5607218, 28.4125885], [-81.5607956, 28.4125566], [-81.5608935, 28.412526], [-81.5609551, 28.4125531], [-81.5609645, 28.4126003], [-81.5609538, 28.4126557], [-81.5609444, 28.41273], [-81.5609567, 28.4127687], [-81.5609605, 28.4127808], [-81.5609243, 28.4128704], [-81.5609042, 28.4129412], [-81.5608774, 28.4130049], [-81.5608613, 28.4130544], [-81.5608398, 28.4131158], [-81.5607806, 28.4131604], [-81.5607218, 28.4131783], [-81.5606668, 28.4131865], [-81.5605756, 28.4131912], [-81.5605166, 28.4132113], [-81.5604509, 28.4132384], [-81.5603651, 28.4132585], [-81.5602792, 28.4132785], [-81.5602135, 28.4132879], [-81.5601719, 28.4132939], [-81.5600593, 28.4133057], [-81.5599882, 28.4133127], [-81.5599145, 28.4133198], [-81.559889, 28.4133186], [-81.5598702, 28.4133092], [-81.5598528, 28.4132927], [-81.5598434, 28.4132644], [-81.5596999, 28.4132927], [-81.5596181, 28.4133175], [-81.5595108, 28.4133316], [-81.5593847, 28.4133304], [-81.5592573, 28.4133293], [-81.5591661, 28.4133552], [-81.5590937, 28.4133599], [-81.5590266, 28.4133469], [-81.5589623, 28.413334], [-81.5589073, 28.4133481], [-81.5588563, 28.4133434], [-81.5588027, 28.4133198], [-81.5587356, 28.413295], [-81.5586954, 28.413249], [-81.5586632, 28.4132007], [-81.5586042, 28.4131618], [-81.5585666, 28.4132184], [-81.5585036, 28.4132502], [-81.5584661, 28.4132632], [-81.5584298, 28.4132573], [-81.5584057, 28.4132431], [-81.5583668, 28.4132691], [-81.5583722, 28.4133057], [-81.5583601, 28.4133434], [-81.5583199, 28.4133658], [-81.5582823, 28.4133753], [-81.5582555, 28.4133871], [-81.5582542, 28.4134295], [-81.5582394, 28.4134507], [-81.558218, 28.4134684], [-81.5581603, 28.4135144], [-81.5580932, 28.4135522], [-81.558049, 28.4135687], [-81.5579967, 28.4135557], [-81.5579725, 28.4135298], [-81.5579256, 28.4135109], [-81.557888, 28.4134932], [-81.5578639, 28.4134684], [-81.5578612, 28.4134472], [-81.5579041, 28.4132384], [-81.5578585, 28.4132125], [-81.5578196, 28.4131877], [-81.5577995, 28.4131677], [-81.5578022, 28.4128964], [-81.5577459, 28.4128586], [-81.5576882, 28.4128244], [-81.5576399, 28.4127819], [-81.5576158, 28.4127348], [-81.557597, 28.412684], [-81.55753, 28.4126982], [-81.5575152, 28.4126687], [-81.557484, 28.4126764], [-81.5574244, 28.4125346], [-81.5574142, 28.4124781], [-81.557423, 28.4124238], [-81.5574663, 28.4123693], [-81.5575251, 28.4123337]]]}, "properties": {"kind": "wood", "name": null, "highway": null}}, {"type": "Feature", "geometry": {"type": "LineString", "coordinates": [[-81.5570245, 28.4023338], [-81.5571396, 28.4025856], [-81.5575863, 28.4035302], [-81.5576789, 28.4036992], [-81.5578266, 28.4039681], [-81.5580549, 28.4042859], [-81.5582985, 28.4045941], [-81.5586271, 28.4050211], [-81.5587196, 28.4051508], [-81.5588031, 28.4052879], [-81.5589252, 28.4054856], [-81.5590345, 28.4057219], [-81.5592256, 28.4061349], [-81.55926, 28.4064821], [-81.5591484, 28.4068219], [-81.5588995, 28.4072597], [-81.5588737, 28.4080298], [-81.5588909, 28.4083016], [-81.5589167, 28.4085054], [-81.5590025, 28.40883], [-81.5592943, 28.4094126], [-81.5593201, 28.4094642], [-81.5599037, 28.4102569], [-81.5600668, 28.4105589], [-81.5602985, 28.410891]]}, "properties": {"kind": "road", "name": "Fort Wilderness Trail", "highway": "unclassified"}}, {"type": "Feature", "geometry": {"type": "Polygon", "coordinates": [[[-81.5569756, 28.4115731], [-81.5570309, 28.4115822], [-81.557063, 28.4115539], [-81.5570604, 28.4114973], [-81.5570201, 28.4113699], [-81.5569745, 28.4112661], [-81.5569102, 28.4111009], [-81.5568511, 28.4109499], [-81.5568646, 28.4108768], [-81.5568806, 28.4108131], [-81.5569611, 28.4107447], [-81.5569879, 28.4106928], [-81.5569745, 28.4106598], [-81.5569182, 28.4106432], [-81.5568243, 28.4106338], [-81.5566902, 28.4105961], [-81.5565266, 28.410563], [-81.5564032, 28.4105159], [-81.5563523, 28.4104592], [-81.556312, 28.4104474], [-81.5562584, 28.4104734], [-81.555899, 28.410655], [-81.5558426, 28.4107069], [-81.5558212, 28.4107754], [-81.555848, 28.4108202], [-81.5559446, 28.410865], [-81.5562128, 28.4110066], [-81.5565105, 28.4111693], [-81.5567144, 28.411292], [-81.5568914, 28.4114619], [-81.5569756, 28.4115731]]]}, "properties": {"kind": "wood", "name": null, "highway": null}}, {"type": "Feature", "geometry": {"type": "Polygon", "coordinates": [[[-81.5564118, 28.4090811], [-81.5563588, 28.4090935], [-81.5562991, 28.4091112], [-81.5562626, 28.4091241], [-81.5562385, 28.4091394], [-81.5561956, 28.4091665], [-81.5561406, 28.4092196], [-81.556103, 28.409281], [-81.5560735, 28.4093411], [-81.5560574, 28.4093954], [-81.5560443, 28.4094261], [-81.5559994, 28.4094733], [-81.5559605, 28.4095305], [-81.5559129, 28.4096007], [-81.5558961, 28.409632], [-81.5558908, 28.4096562], [-81.5558908, 28.4096856], [-81.5558975, 28.4097069], [-81.5559095, 28.4097399], [-81.5559297, 28.409793], [-81.5559598, 28.4098496], [-81.5559692, 28.4098862], [-81.5559692, 28.4099216], [-81.5559753, 28.4099682], [-81.555988, 28.4100035], [-81.5560121, 28.4100372], [-81.556045, 28.4100761], [-81.5560792, 28.4101274], [-81.5561151, 28.4101739], [-81.5561594, 28.4102293], [-81.5561822, 28.4102612], [-81.5561956, 28.4102895], [-81.5561875, 28.4103119], [-81.5561634, 28.410332], [-81.5559488, 28.4104393], [-81.5557919, 28.410516], [-81.5556859, 28.4105584], [-81.5556363, 28.4105927], [-81.5556149, 28.4106245], [-81.55558, 28.4106528], [-81.5555371, 28.4106752], [-81.5554888, 28.4106941], [-81.5554392, 28.4106988], [-81.5553949, 28.4106976], [-81.555268, 28.410635], [-81.5555632, 28.4108317], [-81.5555498, 28.410808], [-81.5555443, 28.4107814], [-81.5555431, 28.4107585], [-81.5555533, 28.4107336], [-81.5555816, 28.4107101], [-81.5556286, 28.4106865], [-81.5556997, 28.4106488], [-81.5557613, 28.4106205], [-81.5558364, 28.4105933], [-81.5558928, 28.4105768], [-81.5559384, 28.410558], [-81.5559893, 28.4105367], [-81.5560403, 28.410506], [-81.5560832, 28.4104872], [-81.5561194, 28.4104648], [-81.5561677, 28.41044], [-81.556212, 28.4104176], [-81.5562468, 28.4103916], [-81.5562871, 28.4103704], [-81.5563219, 28.4103574], [-81.5563622, 28.4103527], [-81.5564104, 28.4103568], [-81.5564592, 28.4103673], [-81.5565734, 28.4104303], [-81.5566853, 28.4104599], [-81.5567946, 28.4105241], [-81.5568235, 28.4105483], [-81.5568532, 28.4105687], [-81.5568852, 28.4105823], [-81.5569152, 28.4105865], [-81.5569419, 28.4105871], [-81.556985, 28.4105778], [-81.5570171, 28.4105754], [-81.5570521, 28.4105691], [-81.5570845, 28.4105566], [-81.557107, 28.41054], [-81.5571179, 28.410519], [-81.5571206, 28.4104936], [-81.5571245, 28.4104718], [-81.5571282, 28.4104382], [-81.5571241, 28.4104097], [-81.5571095, 28.4103877], [-81.5570866, 28.4103738], [-81.5570622, 28.4103646], [-81.5570296, 28.4103606], [-81.5569749, 28.4103646], [-81.556948, 28.4103613], [-81.5569201, 28.4103472], [-81.5568602, 28.4103356], [-81.5567648, 28.4103219], [-81.5566835, 28.4103182], [-81.5566247, 28.410316], [-81.5565474, 28.4103027], [-81.5564916, 28.4102964], [-81.5564049, 28.4102648], [-81.5563596, 28.4102349], [-81.5563233, 28.41021], [-81.5562582, 28.410171], [-81.5562113, 28.4101392], [-81.5561657, 28.4101056], [-81.5561221, 28.4100755], [-81.5560906, 28.4100401], [-81.5560671, 28.4100065], [-81.5560504, 28.409954], [-81.5560443, 28.4099098], [-81.556047, 28.4098585], [-81.5560322, 28.4098018], [-81.5560108, 28.4097464], [-81.5560007, 28.4097122], [-81.555996, 28.4096815], [-81.555998, 28.4096449], [-81.5560088, 28.4096184], [-81.5560329, 28.4095877], [-81.5560644, 28.4095476], [-81.5561067, 28.409504], [-81.5561308, 28.4094733], [-81.5561553, 28.4094319], [-81.5561704, 28.4094114], [-81.5561871, 28.4093801], [-81.5562053, 28.4093418], [-81.5562361, 28.409297], [-81.5562643, 28.4092575], [-81.5562991, 28.4092262], [-81.5563367, 28.4091997], [-81.5563736, 28.409179], [-81.5564098, 28.4091619], [-81.5564493, 28.4091513], [-81.5565592, 28.4091087], [-81.5566262, 28.4090798], [-81.5566913, 28.4090598], [-81.5567476, 28.4090545], [-81.5567986, 28.4090545], [-81.5568535, 28.4090427], [-81.5569112, 28.4090208], [-81.5569803, 28.4089837], [-81.5570245, 28.4089577], [-81.5570755, 28.4089341], [-81.55716, 28.4089247], [-81.5572324, 28.4089282], [-81.5573249, 28.4089412], [-81.5574081, 28.4089589], [-81.5575073, 28.4089778], [-81.5575999, 28.4089955], [-81.557679, 28.4090061], [-81.557746, 28.4090085], [-81.5578171, 28.4090085], [-81.5578708, 28.4090049], [-81.5578929, 28.4089984], [-81.557915, 28.4089919], [-81.5579593, 28.4089719], [-81.5579982, 28.4089448], [-81.5580706, 28.408887], [-81.5581269, 28.4088292], [-81.5582168, 28.4087313], [-81.5582476, 28.4086782], [-81.5582597, 28.4086251], [-81.558265, 28.4085767], [-81.558265, 28.4085154], [-81.5582597, 28.408434], [-81.558255, 28.4083768], [-81.5582503, 28.4083261], [-81.558249, 28.4082865], [-81.558251, 28.4082311], [-81.558259, 28.4081745], [-81.5582832, 28.4080783], [-81.5582905, 28.4080158], [-81.5582972, 28.4079433], [-81.5582999, 28.4078819], [-81.5582992, 28.40783], [-81.5582959, 28.4077734], [-81.5582972, 28.4077015], [-81.5582986, 28.4076124], [-81.5582999, 28.4075611], [-81.5583026, 28.407518], [-81.558308, 28.407472], [-81.558322, 28.4073906], [-81.5583415, 28.4072974], [-81.5583495, 28.4072444], [-81.5583569, 28.4071948], [-81.5583589, 28.407163], [-81.5583589, 28.4071388], [-81.5583549, 28.4071164], [-81.5583482, 28.4070875], [-81.5583475, 28.4070621], [-81.5583502, 28.4070291], [-81.5583596, 28.4069996], [-81.558371, 28.4069724], [-81.5583817, 28.4069412], [-81.558403, 28.4068786], [-81.5584272, 28.4068342], [-81.5584582, 28.4067881], [-81.5584825, 28.4067454], [-81.5584962, 28.4067068], [-81.5585149, 28.4066678], [-81.5585285, 28.4066328], [-81.5585402, 28.4065689], [-81.5585503, 28.4064868], [-81.5585524, 28.4064278], [-81.5585503, 28.4063677], [-81.558537, 28.4063151], [-81.5585167, 28.4062606], [-81.558474, 28.4061997], [-81.5583859, 28.4061163], [-81.5583101, 28.4060449], [-81.5582226, 28.4059576], [-81.5581548, 28.4058983], [-81.558092, 28.4058507], [-81.5580437, 28.4058138], [-81.5579958, 28.4058403], [-81.5579551, 28.4058617], [-81.5579357, 28.405946], [-81.5579331, 28.4059909], [-81.5579271, 28.4060297], [-81.55791, 28.4060743], [-81.5579055, 28.4061123], [-81.5579082, 28.4061531], [-81.5579151, 28.4061766], [-81.5579824, 28.4062859], [-81.5580195, 28.4063003], [-81.5580446, 28.4063174], [-81.5580494, 28.4063318], [-81.5580476, 28.4063605], [-81.5581044, 28.4064632], [-81.5580881, 28.4065551], [-81.5580901, 28.4066206], [-81.5581101, 28.4066787], [-81.5581263, 28.4067308], [-81.5581472, 28.4067705], [-81.5581671, 28.4068017], [-81.558208, 28.406831], [-81.5582291, 28.4068538], [-81.5582489, 28.4068841], [-81.5582537, 28.4069102], [-81.5582406, 28.4070027], [-81.5582411, 28.4070412], [-81.5582429, 28.4070739], [-81.5582402, 28.407101], [-81.5582295, 28.4071488], [-81.5582268, 28.4071824], [-81.5582322, 28.4072267], [-81.5582322, 28.4072756], [-81.5582349, 28.4073216], [-81.5582349, 28.4073523], [-81.5582342, 28.407475], [-81.5582315, 28.4075735], [-81.5582268, 28.4076537], [-81.5582268, 28.4076961], [-81.5582268, 28.4077333], [-81.5582315, 28.4077823], [-81.5582376, 28.4078259], [-81.5582342, 28.407876], [-81.5582275, 28.4079462], [-81.5582161, 28.4080312], [-81.5582, 28.4081361], [-81.558192, 28.4082087], [-81.5581846, 28.4082801], [-81.5581772, 28.4083408], [-81.5581799, 28.4083809], [-81.5581832, 28.4084305], [-81.5581953, 28.408493], [-81.5582047, 28.4085455], [-81.5581973, 28.4085879], [-81.5581846, 28.408628], [-81.5581705, 28.4086823], [-81.558141, 28.4087236], [-81.5581128, 28.4087548], [-81.558078, 28.4087879], [-81.5580364, 28.4088132], [-81.5579874, 28.4088415], [-81.5579667, 28.408871], [-81.5579425, 28.4089058], [-81.557915, 28.4089271], [-81.5578761, 28.4089483], [-81.5578372, 28.4089589], [-81.5577983, 28.4089642], [-81.5577574, 28.4089648], [-81.5577165, 28.4089601], [-81.5576676, 28.4089501], [-81.5576092, 28.4089341], [-81.557569, 28.4089188], [-81.5575254, 28.40891], [-81.5574852, 28.408907], [-81.5574383, 28.40891], [-81.5573746, 28.4089123], [-81.5573377, 28.4089035], [-81.5573102, 28.4088899], [-81.557274, 28.4088716], [-81.5572445, 28.4088598], [-81.5571995, 28.4088492], [-81.557166, 28.4088575], [-81.5571285, 28.4088716], [-81.5570896, 28.4088817], [-81.5570353, 28.4088952], [-81.5569796, 28.4089235], [-81.5569293, 28.4089448], [-81.5568797, 28.4089695], [-81.5568348, 28.4089843], [-81.5567851, 28.4089919], [-81.5567362, 28.408999], [-81.5566899, 28.4090032], [-81.5566369, 28.409012], [-81.5565893, 28.4090238], [-81.5565444, 28.4090332], [-81.5565203, 28.4090403], [-81.5564118, 28.4090811]]]}, "properties": {"kind": "water", "name": null, "highway": null}}, {"type": "Feature", "geometry": {"type": "Polygon", "coordinates": [[[-81.5570896, 28.4088817], [-81.5571995, 28.4088492], [-81.5572995, 28.408848], [-81.5574014, 28.4088504], [-81.5575033, 28.408861], [-81.5576535, 28.4089047], [-81.557734, 28.4089235], [-81.5578024, 28.4089106], [-81.5578627, 28.4088787], [-81.5579325, 28.4088339], [-81.5579901, 28.4088056], [-81.558078, 28.4087879], [-81.5582168, 28.4087313], [-81.5582476, 28.4086782], [-81.5582597, 28.4086251], [-81.558265, 28.4085767], [-81.558265, 28.4085154], [-81.5582597, 28.408434], [-81.558255, 28.4083768], [-81.5582503, 28.4083261], [-81.558249, 28.4082865], [-81.558251, 28.4082311], [-81.558259, 28.4081745], [-81.5582825, 28.4081686], [-81.5583093, 28.4081768], [-81.5583227, 28.4082075], [-81.5583214, 28.4082724], [-81.5583294, 28.4083526], [-81.5583455, 28.4084257], [-81.5584126, 28.408539], [-81.5584756, 28.4086003], [-81.5585507, 28.4086463], [-81.5586258, 28.4086864], [-81.5586754, 28.4087018], [-81.5587143, 28.4086817], [-81.5587411, 28.4086215], [-81.5587586, 28.408572], [-81.5587586, 28.4085366], [-81.5588338, 28.4085354], [-81.5588556, 28.4086697], [-81.5589243, 28.4088282], [-81.55895, 28.4089188], [-81.5590445, 28.4090925], [-81.5591045, 28.4092359], [-81.5591818, 28.409334], [-81.5592247, 28.4094171], [-81.55924, 28.4094416], [-81.5593191, 28.4095681], [-81.5593878, 28.4096889], [-81.559465, 28.4097719], [-81.5597311, 28.4101192], [-81.559688, 28.4101385], [-81.5596437, 28.4101362], [-81.5595713, 28.4101161], [-81.5595123, 28.4100831], [-81.5594694, 28.4100111], [-81.559413, 28.4099392], [-81.5593393, 28.409879], [-81.559236, 28.4098401], [-81.5591207, 28.4098377], [-81.5589879, 28.409846], [-81.5588981, 28.409879], [-81.558827, 28.4099262], [-81.5587344, 28.4099899], [-81.5586808, 28.4100654], [-81.5586526, 28.4101998], [-81.5586392, 28.4103178], [-81.5586245, 28.4104051], [-81.5586339, 28.4104723], [-81.5586714, 28.4105726], [-81.5587277, 28.4106422], [-81.5588176, 28.4107401], [-81.5588913, 28.410792], [-81.5589892, 28.4108498], [-81.5591032, 28.4108993], [-81.5591636, 28.41091], [-81.5593098, 28.4109253], [-81.5594063, 28.4109465], [-81.5594613, 28.4109713], [-81.5595056, 28.410976], [-81.5595539, 28.410976], [-81.5595994, 28.4109501], [-81.5596477, 28.4108993], [-81.5596719, 28.4109371], [-81.5596813, 28.4109713], [-81.5596848, 28.4110003], [-81.559659, 28.4110057], [-81.5595665, 28.4110211], [-81.5594665, 28.4110384], [-81.5594385, 28.4110185], [-81.5593889, 28.4109937], [-81.5593326, 28.4109737], [-81.5592695, 28.410956], [-81.5592038, 28.4109477], [-81.5591395, 28.4109536], [-81.5590885, 28.4109666], [-81.5590483, 28.4109807], [-81.5590113, 28.4109886], [-81.5589238, 28.4109535], [-81.5588388, 28.4109074], [-81.5587189, 28.4108471], [-81.5586277, 28.4107958], [-81.5585473, 28.4107533], [-81.558448, 28.4106943], [-81.5583541, 28.4106365], [-81.5582401, 28.4105681], [-81.5581369, 28.4105056], [-81.5580196, 28.4104286], [-81.5579807, 28.4103886], [-81.5580156, 28.4102647], [-81.5581122, 28.4103166], [-81.5581148, 28.4103615], [-81.5581296, 28.4104063], [-81.5581537, 28.4104428], [-81.5581792, 28.410457], [-81.5582087, 28.4104641], [-81.5582275, 28.4104641], [-81.5582516, 28.4104393], [-81.5582677, 28.4104063], [-81.5582637, 28.4103732], [-81.5582557, 28.410352], [-81.5582382, 28.410332], [-81.5582181, 28.4102978], [-81.5582114, 28.4102565], [-81.5582195, 28.4102022], [-81.5582369, 28.410168], [-81.5582744, 28.4101137], [-81.55832, 28.4100807], [-81.5583925, 28.4100583], [-81.5584823, 28.4100206], [-81.5585386, 28.4099698], [-81.558595, 28.4098955], [-81.5586392, 28.4098424], [-81.5586902, 28.4097457], [-81.5587559, 28.4096336], [-81.5588283, 28.4095758], [-81.5588954, 28.4095534], [-81.5589262, 28.4095051], [-81.5589651, 28.4094308], [-81.5589933, 28.4093777], [-81.5590241, 28.4093069], [-81.5590375, 28.4092479], [-81.5590107, 28.4091854], [-81.5589732, 28.4091217], [-81.5589249, 28.4090509], [-81.5588766, 28.4089495], [-81.5587988, 28.4088799], [-81.558666, 28.4088079], [-81.5585038, 28.4087832], [-81.5583925, 28.4088103], [-81.558257, 28.4088811], [-81.5581417, 28.4089648], [-81.5580478, 28.4090096], [-81.5579713, 28.4090368], [-81.5579298, 28.4090344], [-81.5578654, 28.4090462], [-81.5577877, 28.4090651], [-81.5577393, 28.4090627], [-81.557675, 28.4090391], [-81.5575511, 28.4090295], [-81.5574132, 28.409052], [-81.5573243, 28.4090849], [-81.5572146, 28.409137], [-81.5571252, 28.4091876], [-81.5570467, 28.4092547], [-81.5570125, 28.4093258], [-81.556999, 28.4094308], [-81.5570125, 28.4095405], [-81.5570634, 28.4096454], [-81.5571251, 28.4097233], [-81.5572002, 28.4097835], [-81.5573062, 28.4098318], [-81.5573611, 28.4098566], [-81.5574322, 28.4098849], [-81.5575181, 28.4099344], [-81.5575891, 28.4100029], [-81.5576388, 28.4100666], [-81.5576964, 28.4100949], [-81.5577729, 28.4102057], [-81.5578365, 28.4103169], [-81.5577623, 28.4102664], [-81.5576862, 28.4102022], [-81.5576264, 28.4101439], [-81.5575649, 28.4100947], [-81.5574915, 28.4100469], [-81.5574212, 28.4100095], [-81.5573397, 28.4099735], [-81.5572174, 28.4099232], [-81.5571144, 28.409807], [-81.5570353, 28.4097186], [-81.5569883, 28.409669], [-81.5569427, 28.4096101], [-81.5569038, 28.4095251], [-81.5568663, 28.4094815], [-81.55681, 28.4094496], [-81.5567644, 28.4094048], [-81.5567013, 28.4093328], [-81.556653, 28.409268], [-81.5566007, 28.4091866], [-81.5565592, 28.4091087], [-81.5565203, 28.4090403], [-81.5564975, 28.4089884], [-81.5564586, 28.4089106], [-81.5564264, 28.4088516], [-81.5563848, 28.4087619], [-81.5563567, 28.4086841], [-81.5563272, 28.4085885], [-81.5563432, 28.4085437], [-81.5563634, 28.4085225], [-81.5563808, 28.4085036], [-81.5564157, 28.4084965], [-81.5564318, 28.4084753], [-81.5564291, 28.4084364], [-81.5564143, 28.4083903], [-81.5564277, 28.4083491], [-81.5564465, 28.4083172], [-81.5565538, 28.4082983], [-81.5565806, 28.4082995], [-81.5566074, 28.408309], [-81.5566289, 28.4083208], [-81.556641, 28.4083349], [-81.5566933, 28.4084422], [-81.5566316, 28.4084517], [-81.5565766, 28.4084635], [-81.5565659, 28.4085048], [-81.5565659, 28.4085873], [-81.5565994, 28.4086546], [-81.5566638, 28.408697], [-81.5567442, 28.4087372], [-81.5568126, 28.4087973], [-81.5568944, 28.4088457], [-81.5569923, 28.4088728], [-81.5570896, 28.4088817]]]}, "properties": {"kind": "wood", "name": null, "highway": null}}, {"type": "Feature", "geometry": {"type": "LineString", "coordinates": [[-81.5579804, 28.4104111], [-81.5579226, 28.4104766], [-81.5578206, 28.4105921], [-81.5576939, 28.4106494], [-81.5576071, 28.411025], [-81.557589, 28.4112382], [-81.5576324, 28.4113083]]}, "properties": {"kind": "trail", "name": null, "highway": "footway"}}, {"type": "Feature", "geometry": {"type": "LineString", "coordinates": [[-81.5582682, 28.4112196], [-81.5576324, 28.4113083], [-81.5574189, 28.4113815], [-81.5572588, 28.4114774]]}, "properties": {"kind": "trail", "name": null, "highway": "footway"}}, {"type": "Feature", "geometry": {"type": "LineString", "coordinates": [[-81.55924, 28.4094416], [-81.5592943, 28.4094126], [-81.5596812, 28.409206]]}, "properties": {"kind": "trail", "name": null, "highway": "footway"}}, {"type": "Feature", "geometry": {"type": "LineString", "coordinates": [[-81.5591206, 28.410061], [-81.5590835, 28.4097296], [-81.5589532, 28.4095259], [-81.558748, 28.4093211]]}, "properties": {"kind": "trail", "name": null, "highway": "footway"}}, {"type": "Feature", "geometry": {"type": "LineString", "coordinates": [[-81.557214, 28.4098879], [-81.5571613, 28.4099329], [-81.5570788, 28.4100033], [-81.5570069, 28.4099545]]}, "properties": {"kind": "trail", "name": null, "highway": "footway"}}, {"type": "Feature", "geometry": {"type": "LineString", "coordinates": [[-81.5578206, 28.4105921], [-81.5577862, 28.4105591], [-81.5576614, 28.4104394], [-81.5574877, 28.4103534], [-81.5574236, 28.4103159]]}, "properties": {"kind": "trail", "name": null, "highway": "footway"}}, {"type": "Feature", "geometry": {"type": "LineString", "coordinates": [[-81.5565758, 28.4091885], [-81.5568219, 28.4095036], [-81.5570462, 28.4097614], [-81.557214, 28.4098879], [-81.5572489, 28.4099142], [-81.5575456, 28.4100479], [-81.557665, 28.4101402], [-81.557893, 28.4103534], [-81.5579377, 28.4103829], [-81.5579804, 28.4104111], [-81.5583706, 28.4106685], [-81.5587144, 28.4108786], [-81.5590835, 28.4110154], [-81.5596371, 28.4109868], [-81.5597158, 28.4109781], [-81.5598687, 28.4109613], [-81.5599954, 28.4109168], [-81.5600916, 28.4108515]]}, "properties": {"kind": "trail", "name": null, "highway": "footway"}}, {"type": "Feature", "geometry": {"type": "Polygon", "coordinates": [[[-81.5574151, 28.4134134], [-81.5573981, 28.4133731], [-81.5573188, 28.4133989], [-81.5573358, 28.4134392], [-81.5574151, 28.4134134]]]}, "properties": {"kind": "building", "name": null, "highway": null}}]}