{
 "type": "FeatureCollection",
 "features": [
  {
   "type": "Feature",
   "geometry": {
    "type": "LineString",
    "coordinates": [
     [
      -81.5591389,
      28.406133
     ],
     [
      -81.5590741,
      28.4061424
     ],
     [
      -81.5590025,
      28.4061633
     ],
     [
      -81.5589399,
      28.4062018
     ],
     [
      -81.5588895,
      28.406253
     ],
     [
      -81.5588684,
      28.4063238
     ],
     [
      -81.558863,
      28.4064017
     ],
     [
      -81.5588545,
      28.4065054
     ],
     [
      -81.5588389,
      28.4065928
     ],
     [
      -81.5588174,
      28.406673
     ],
     [
      -81.5587981,
      28.4067366
     ],
     [
      -81.5587579,
      28.4068286
     ],
     [
      -81.5587123,
      28.4069442
     ],
     [
      -81.5586613,
      28.4070456
     ],
     [
      -81.5586291,
      28.4071188
     ],
     [
      -81.5586077,
      28.4071848
     ],
     [
      -81.5586023,
      28.4072438
     ],
     [
      -81.5585846,
      28.4073408
     ],
     [
      -81.5585678,
      28.4074413
     ],
     [
      -81.5585421,
      28.4075923
     ],
     [
      -81.5585421,
      28.4082491
     ],
     [
      -81.558585,
      28.4083925
     ],
     [
      -81.5586847,
      28.408488
     ],
     [
      -81.5587824,
      28.4085133
     ],
     [
      -81.5588299,
      28.4085112
     ],
     [
      -81.5589167,
      28.4085054
     ]
    ]
   },
   "properties": {
    "source": "OpenStreetMap",
    "streets": [
     "Sunny Sage Way"
    ],
    "length_ft": 1016.9
   }
  }
 ]
}