{
 "type": "FeatureCollection",
 "features": [
  {
   "type": "Feature",
   "geometry": {
    "type": "LineString",
    "coordinates": [
     [
      -81.55620353315832,
      28.40830548323431
     ],
     [
      -81.55666482487715,
      28.408271214033405
     ]
    ]
   },
   "properties": {
    "theoretical_left": [
     1400,
     1410
    ],
    "theoretical_right": [
     1401,
     1411
    ],
    "from": "Big Pine Drive",
    "to": "Big Bear Path",
    "length_ft": 148.7
   }
  },
  {
   "type": "Feature",
   "geometry": {
    "type": "LineString",
    "coordinates": [
     [
      -81.55666482487715,
      28.408271214033405
     ],
     [
      -81.55667970383679,
      28.408365636749068
     ],
     [
      -81.55671652135787,
      28.408455241250454
     ],
     [
      -81.5567426873937,
      28.408496993277737
     ],
     [
      -81.55680566591148,
      28.408559542869057
     ],
     [
      -81.55688405903693,
      28.408606540801138
     ],
     [
      -81.55692757167756,
      28.408623270676046
     ],
     [
      -81.5570744936488,
      28.408636595564392
     ],
     [
      -81.55728449420376,
      28.408645480998384
     ],
     [
      -81.55734650335184,
      28.408652759797334
     ],
     [
      -81.55750685912652,
      28.408681871271405
     ],
     [
      -81.55762805795231,
      28.40868623775188
     ],
     [
      -81.55769586419147,
      28.40868080184815
     ],
     [
      -81.55776281493355,
      28.408669863210413
     ],
     [
      -81.55787004561023,
      28.408643133444233
     ],
     [
      -81.55790978079852,
      28.40862786369699
     ],
     [
      -81.55798047614849,
      28.408583866204502
     ],
     [
      -81.55801014104733,
      28.408555945497767
     ],
     [
      -81.55802897159445,
      28.408523307627295
     ],
     [
      -81.55805059196798,
      28.40845274816675
     ],
     [
      -81.5580529681246,
      28.408416169757906
     ],
     [
      -81.55804989537518,
      28.408381265947483
     ],
     [
      -81.55802342250789,
      28.40827141260276
     ],
     [
      -81.55801202691896,
      28.408194762297406
     ],
     [
      -81.55800754188513,
      28.40811755423647
     ]
    ]
   },
   "properties": {
    "theoretical_left": [
     1400,
     1450
    ],
    "theoretical_right": [
     1401,
     1451
    ],
    "from": "Little Bear Path",
    "to": "Little Bear Path",
    "length_ft": 688.9
   }
  },
  {
   "type": "Feature",
   "geometry": {
    "type": "LineString",
    "coordinates": [
     [
      -81.55715421331924,
      28.40824405833236
     ],
     [
      -81.55745666842908,
      28.408291251048304
     ],
     [
      -81.55747544174955,
      28.408295549413594
     ],
     [
      -81.5574946720013,
      28.408296603416606
     ],
     [
      -81.55751380263827,
      28.408294382553247
     ],
     [
      -81.55753227999735,
      28.408288951097923
     ],
     [
      -81.55754956932202,
      28.408280466243326
     ],
     [
      -81.55756517023892,
      28.40826917355113
     ],
     [
      -81.55757863123917,
      28.408255399845114
     ],
     [
      -81.55758956274559,
      28.408239543752522
     ],
     [
      -81.55759764838756,
      28.408222064167315
     ],
     [
      -81.55760265415708,
      28.40820346696923
     ],
     [
      -81.5576044351813,
      28.40818429038304
     ],
     [
      -81.5576029399153,
      28.408165089401695
     ],
     [
      -81.55759821163382,
      28.408146419724158
     ],
     [
      -81.55759038717886,
      28.408128821672847
     ],
     [
      -81.5575796929994,
      28.40811280455605
     ],
     [
      -81.55756643859752,
      28.408098831927955
     ],
     [
      -81.55755100757119,
      28.408087308172842
     ],
     [
      -81.55753384651248,
      28.408078566801727
     ],
     [
      -81.55751545208258,
      28.40807286080017
     ]
    ]
   },
   "properties": {
    "theoretical_left": [
     1422,
     1450
    ],
    "theoretical_right": [
     1423,
     1451
    ],
    "from": "Little Bear Path",
    "to": "End of Street",
    "length_ft": 224.2
   }
  },
  {
   "type": "Feature",
   "geometry": {
    "type": "LineString",
    "coordinates": [
     [
      -81.55800754188513,
      28.40811755423647
     ],
     [
      -81.55800877653489,
      28.408060043193128
     ],
     [
      -81.55801358447675,
      28.408002720177148
     ],
     [
      -81.55802047244784,
      28.407954225410634
     ],
     [
      -81.55802989779612,
      28.40790615931724
     ],
     [
      -81.5580328829542,
      28.40788204937636
     ],
     [
      -81.55803349827585,
      28.407857763129286
     ],
     [
      -81.55803100301732,
      28.40782812347367
     ],
     [
      -81.55802502592908,
      28.40779898569894
     ],
     [
      -81.55801565061422,
      28.40777075736262
     ],
     [
      -81.55800556817175,
      28.407748481348165
     ],
     [
      -81.55799347991749,
      28.40772722692334
     ],
     [
      -81.55798617907563,
      28.407717110784382
     ],
     [
      -81.55795561013076,
      28.407683114306984
     ],
     [
      -81.55792079675362,
      28.407653479030085
     ],
     [
      -81.55788235577997,
      28.407628730042028
     ],
     [
      -81.5578409683206,
      28.40760930585417
     ],
     [
      -81.55779736769325,
      28.407595550631164
     ],
     [
      -81.5577523264293,
      28.40758770809293
     ],
     [
      -81.55770202862375,
      28.40758230240127
     ],
     [
      -81.55765144199688,
      28.407582592101555
     ],
     [
      -81.55760120940319,
      28.40758857351228
     ],
     [
      -81.5575519691981,
      28.40760017062172
     ],
     [
      -81.55750560924665,
      28.407616083522118
     ],
     [
      -81.55746054373982,
      28.40763535955885
     ],
     [
      -81.55741701627444,
      28.407657894537333
     ],
     [
      -81.55734120825932,
      28.407687662965632
     ],
     [
      -81.55726340893432,
      28.407711751957095
     ],
     [
      -81.5571840431431,
      28.407730029967457
     ],
     [
      -81.55710354428338,
      28.407742397184837
     ],
     [
      -81.55704867660508,
      28.407745777033448
     ],
     [
      -81.55699453485813,
      28.407755293163746
     ],
     [
      -81.55694180311286,
      28.407770825341284
     ],
     [
      -81.5568911476245,
      28.40779217732005
     ],
     [
      -81.55685087620034,
      28.407814411112962
     ],
     [
      -81.55681331834529,
      28.407840973053293
     ],
     [
      -81.55677893722658,
      28.407871535576533
     ],
     [
      -81.55674815683564,
      28.40790572178257
     ],
     [
      -81.55672135675931,
      28.407943110083675
     ],
     [
      -81.55670144549346,
      28.407981928104636
     ],
     [
      -81.55668662785833,
      28.408022961444107
     ],
     [
      -81.55667714404981,
      28.408065544946023
     ],
     [
      -81.55667314780176,
      28.408108988325967
     ],
     [
      -81.55666482487715,
      28.408271214033405
     ]
    ]
   },
   "properties": {
    "theoretical_left": [
     1452,
     1498
    ],
    "theoretical_right": [
     1453,
     1499
    ],
    "from": "Little Bear Path",
    "to": "Little Bear Path",
    "length_ft": 732.5
   }
  }
 ]
}