{
 "type": "FeatureCollection",
 "features": [
  {
   "type": "Feature",
   "geometry": {
    "type": "LineString",
    "coordinates": [
     [
      -81.55512670445736,
      28.403640420083725
     ],
     [
      -81.55531456114983,
      28.403251246627306
     ]
    ]
   },
   "properties": {
    "theoretical_left": [
     1700,
     1710
    ],
    "theoretical_right": [
     1701,
     1711
    ],
    "from": "Timber Trail",
    "to": null,
    "length_ft": 154.4
   }
  },
  {
   "type": "Feature",
   "geometry": {
    "type": "LineString",
    "coordinates": [
     [
      -81.55543473136552,
      28.401909499562667
     ],
     [
      -81.55553695102111,
      28.401902271952494
     ],
     [
      -81.55563935843227,
      28.401898554631583
     ],
     [
      -81.55574183308899,
      28.40189835197436
     ],
     [
      -81.55579150652713,
      28.401909052455338
     ],
     [
      -81.55583928250226,
      28.401926355835094
     ],
     [
      -81.55588428765884,
      28.401949945803963
     ],
     [
      -81.55592569929253,
      28.40197939113203
     ],
     [
      -81.5559627603894,
      28.4020141535521
     ],
     [
      -81.55598820398382,
      28.402044845393345
     ],
     [
      -81.55600922211251,
      28.402078721696007
     ],
     [
      -81.55602542167823,
      28.402115148879346
     ],
     [
      -81.55603649970422,
      28.402153445654093
     ],
     [
      -81.55604224900068,
      28.402192895764433
     ],
     [
      -81.55603286721528,
      28.402273807516405
     ],
     [
      -81.55601851710054,
      28.40235398733751
     ],
     [
      -81.55599925320433,
      28.402433130447175
     ],
     [
      -81.5559924313899,
      28.402456871846116
     ],
     [
      -81.55596839581973,
      28.40252883748808
     ],
     [
      -81.55593989474589,
      28.40259915427873
     ],
     [
      -81.55590704035265,
      28.402667545441183
     ],
     [
      -81.55570772722415,
      28.403008943292615
     ],
     [
      -81.55568448587401,
      28.40305512555494
     ],
     [
      -81.55565649553235,
      28.403098593962813
     ],
     [
      -81.55562406948944,
      28.403138861983017
     ],
     [
      -81.55559040960749,
      28.40317327143587
     ],
     [
      -81.55556181800775,
      28.4031949568293
     ],
     [
      -81.55553124252404,
      28.403213741814284
     ],
     [
      -81.55549897634626,
      28.403229446260646
     ],
     [
      -81.5554542759295,
      28.403243605092133
     ],
     [
      -81.55540815010683,
      28.403252031731412
     ],
     [
      -81.55536133085373,
      28.403254592455266
     ],
     [
      -81.55531456114983,
      28.403251246627306
     ]
    ]
   },
   "properties": {
    "theoretical_left": [
     1752,
     1798
    ],
    "theoretical_right": [
     1753,
     1799
    ],
    "from": "Hickory Hollow",
    "to": "Hickory Hollow",
    "length_ft": 742.0
   }
  }
 ]
}