{
 "type": "FeatureCollection",
 "features": [
  {
   "type": "Feature",
   "geometry": {
    "type": "LineString",
    "coordinates": [
     [
      -81.5595034,
      28.405652
     ],
     [
      -81.5595377,
      28.4057653
     ],
     [
      -81.5596053,
      28.4058704
     ],
     [
      -81.5597099,
      28.4059459
     ],
     [
      -81.5598547,
      28.4059695
     ],
     [
      -81.5600098,
      28.4059616
     ],
     [
      -81.5604032,
      28.4059188
     ],
     [
      -81.5605306,
      28.4058516
     ],
     [
      -81.5606098,
      28.4057312
     ],
     [
      -81.5606017,
      28.405572
     ],
     [
      -81.5605239,
      28.4054186
     ],
     [
      -81.5605022,
      28.4053984
     ],
     [
      -81.5604126,
      28.4053148
     ],
     [
      -81.560293,
      28.4052519
     ],
     [
      -81.5601471,
      28.4052141
     ],
     [
      -81.5599668,
      28.4052292
     ],
     [
      -81.5597694,
      28.4053123
     ],
     [
      -81.5596235,
      28.4054104
     ],
     [
      -81.5595205,
      28.4055161
     ],
     [
      -81.5595034,
      28.405652
     ]
    ]
   },
   "properties": {
    "source": "OpenStreetMap",
    "streets": [
     "Quail Trail"
    ],
    "length_ft": 1007.0
   }
  }
 ]
}