{"type": "FeatureCollection", "features": [{"type": "Feature", "geometry": {"type": "Point", "coordinates": [-81.557216, 28.4058871]}, "properties": {"kind": "amenity", "name": "Meadow Depot", "highway": null}}, {"type": "Feature", "geometry": {"type": "LineString", "coordinates": [[-81.5575867, 28.4036942], [-81.5576096, 28.4037316], [-81.5576856, 28.4038556], [-81.5576923, 28.403891], [-81.557691, 28.4039264], [-81.5577017, 28.4039618], [-81.5577299, 28.403996], [-81.5577996, 28.4040384], [-81.5578278, 28.4040738], [-81.5578399, 28.4041092], [-81.5578519, 28.4041363], [-81.5578868, 28.4041635], [-81.5579176, 28.4041871], [-81.5579351, 28.404226], [-81.5579485, 28.4042567], [-81.557986, 28.4042932], [-81.5580402, 28.4043589], [-81.5582512, 28.4046272], [-81.5582874, 28.4046861], [-81.5583424, 28.4048206], [-81.5584108, 28.4049433], [-81.5584953, 28.4051073], [-81.5585462, 28.4051851], [-81.5585881, 28.4052268], [-81.5587353, 28.4053231], [-81.5587863, 28.4053633], [-81.5588198, 28.4054034], [-81.5589526, 28.4056936], [-81.55895, 28.4057329], [-81.5590445, 28.4059217], [-81.5591389, 28.406133], [-81.5591904, 28.4062916], [-81.5591818, 28.4064501], [-81.5591475, 28.4065709], [-81.559096, 28.4066389], [-81.5590874, 28.4066917], [-81.5590874, 28.4067597], [-81.5590187, 28.4068352], [-81.5589415, 28.4069484], [-81.5589071, 28.4070466], [-81.5588791, 28.4071566], [-81.5588473, 28.4072214]]}, "properties": {"kind": "trail", "name": null, "highway": "footway"}}, {"type": "Feature", "geometry": {"type": "LineString", "coordinates": [[-81.5585037, 28.4056876], [-81.5585638, 28.4056801], [-81.5586153, 28.4057027], [-81.5586668, 28.4057103], [-81.5587097, 28.4057254], [-81.5587612, 28.405748], [-81.5588299, 28.4057329], [-81.5589071, 28.4057405], [-81.55895, 28.4057329]]}, "properties": {"kind": "trail", "name": null, "highway": "footway"}}, {"type": "Feature", "geometry": {"type": "LineString", "coordinates": [[-81.5585638, 28.4056801], [-81.5587863, 28.4053633]]}, "properties": {"kind": "trail", "name": null, "highway": "footway"}}, {"type": "Feature", "geometry": {"type": "LineString", "coordinates": [[-81.5587097, 28.4057254], [-81.558581, 28.4058009]]}, "properties": {"kind": "trail", "name": null, "highway": "footway"}}, {"type": "Feature", "geometry": {"type": "LineString", "coordinates": [[-81.5558243, 28.4062631], [-81.5558929, 28.4062485], [-81.5561075, 28.4062027], [-81.556202, 28.4061649], [-81.5562353, 28.4061454], [-81.556262, 28.4061045], [-81.5562792, 28.4060139], [-81.5562892, 28.4059736], [-81.5563135, 28.405946], [-81.5564165, 28.4059082], [-81.5567341, 28.4058554], [-81.5568629, 28.4058629], [-81.5569006, 28.4058762], [-81.5569487, 28.4058931], [-81.5570946, 28.4059535], [-81.5572608, 28.405991], [-81.5573069, 28.4060116], [-81.5573311, 28.4060351], [-81.5574122, 28.4061347], [-81.5574356, 28.4061657], [-81.5575639, 28.4062591]]}, "properties": {"kind": "road", "name": null, "highway": "service"}}, {"type": "Feature", "geometry": {"type": "LineString", "coordinates": [[-81.5579696, 28.4057065], [-81.5578784, 28.4057761]]}, "properties": {"kind": "trail", "name": null, "highway": "footway"}}, {"type": "Feature", "geometry": {"type": "LineString", "coordinates": [[-81.5578784, 28.4057761], [-81.5578211, 28.4058257], [-81.5578211, 28.405871], [-81.5577782, 28.4059087], [-81.5577295, 28.4059148], [-81.5576666, 28.4058785], [-81.5576151, 28.405803], [-81.5575628, 28.4057027], [-81.5575121, 28.4056143], [-81.5574403, 28.405522], [-81.5573473, 28.4054358], [-81.5573061, 28.4054063], [-81.5572595, 28.4053805], [-81.5571749, 28.4053647], [-81.5570894, 28.4053737], [-81.556967, 28.4054134], [-81.5568886, 28.4054477], [-81.5568226, 28.4054779], [-81.5567613, 28.4054947], [-81.5567513, 28.4055534], [-81.5567599, 28.4056516], [-81.556797, 28.4057284], [-81.55688, 28.4057799]]}, "properties": {"kind": "trail", "name": null, "highway": "footway"}}, {"type": "Feature", "geometry": {"type": "Polygon", "coordinates": [[[-81.5585192, 28.4058227], [-81.5583113, 28.4055309], [-81.5581662, 28.405611], [-81.5582309, 28.4057018], [-81.5582563, 28.4056878], [-81.5583053, 28.4057566], [-81.5582661, 28.4057782], [-81.5583081, 28.4058373], [-81.5583415, 28.4058189], [-81.5583935, 28.405892], [-81.5585192, 28.4058227]]]}, "properties": {"kind": "building", "name": "Meadow Trading Post", "highway": null}}, {"type": "Feature", "geometry": {"type": "Polygon", "coordinates": [[[-81.5577458, 28.4062711], [-81.5578249, 28.4062486], [-81.5578414, 28.4062934], [-81.5578744, 28.406284], [-81.5579107, 28.4063829], [-81.5578823, 28.406391], [-81.5578927, 28.4064192], [-81.5578089, 28.406443], [-81.5577458, 28.4062711]]]}, "properties": {"kind": "building", "name": "Bike Barn", "highway": null}}, {"type": "Feature", "geometry": {"type": "LineString", "coordinates": [[-81.5575863, 28.4035302], [-81.5574295, 28.4035854], [-81.5573048, 28.4036421]]}, "properties": {"kind": "road", "name": null, "highway": "service"}}, {"type": "Feature", "geometry": {"type": "LineString", "coordinates": [[-81.5570727, 28.4034934], [-81.5572323, 28.4035713], [-81.5573048, 28.4036421], [-81.5573061, 28.4037042], [-81.5572889, 28.403825], [-81.5572803, 28.4039533]]}, "properties": {"kind": "road", "name": null, "highway": "service"}}, {"type": "Feature", "geometry": {"type": "LineString", "coordinates": [[-81.5572803, 28.4039533], [-81.5571344, 28.4039609], [-81.5570314, 28.4039609], [-81.5568941, 28.403976], [-81.5567825, 28.4040213], [-81.5566709, 28.4040364], [-81.5566122, 28.4040364], [-81.5565594, 28.4040364], [-81.556422, 28.4040364], [-81.556351, 28.4040718], [-81.5563166, 28.4041397], [-81.5562909, 28.4042001], [-81.5562823, 28.4042832], [-81.5562995, 28.4043738], [-81.5563338, 28.4044417], [-81.5563963, 28.4044969], [-81.5565422, 28.4045573], [-81.5566881, 28.4045875], [-81.5568426, 28.4046328], [-81.556937, 28.4046555], [-81.55704, 28.4047159], [-81.5570915, 28.4047838], [-81.5571602, 28.4048291], [-81.5572632, 28.4048593], [-81.5573833, 28.4048291], [-81.5574949, 28.4047461], [-81.5575808, 28.4046479], [-81.5575893, 28.4045422], [-81.5575464, 28.4044139], [-81.5574778, 28.4043233], [-81.5574005, 28.4041949], [-81.5573404, 28.4040515], [-81.5572803, 28.4039533]]}, "properties": {"kind": "road", "name": "Tumbleweed Turn", "highway": "service"}}, {"type": "Feature", "geometry": {"type": "LineString", "coordinates": [[-81.5603702, 28.4023754], [-81.5603016, 28.4024962], [-81.5602587, 28.4026397], [-81.5602563, 28.4028789], [-81.5602305, 28.4031582], [-81.5601876, 28.4034451], [-81.5601104, 28.4036037], [-81.5600098, 28.4036891], [-81.5598896, 28.4037721], [-81.5597265, 28.4038627], [-81.559695, 28.4038904], [-81.5596235, 28.4039533], [-81.5596149, 28.4040892], [-81.5597265, 28.4042402], [-81.5598467, 28.4043459], [-81.5600012, 28.4044365], [-81.5601557, 28.4044818], [-81.5603188, 28.4044592], [-81.5604647, 28.4044214], [-81.5605803, 28.4044163], [-81.560808, 28.4044063], [-81.5610054, 28.4044139], [-81.5611341, 28.4043912], [-81.56122, 28.4043233], [-81.5612715, 28.4042402], [-81.5612629, 28.4041194], [-81.5611942, 28.4039911], [-81.5611084, 28.4038476], [-81.5609968, 28.4035909], [-81.5609367, 28.4034097], [-81.5608938, 28.4032134], [-81.5608595, 28.4030172], [-81.5607737, 28.4028284], [-81.5606277, 28.402617], [-81.560499, 28.4024736], [-81.5603702, 28.4023754]]}, "properties": {"kind": "road", "name": "Spanish Moss Lane", "highway": "service"}}, {"type": "Feature", "geometry": {"type": "LineString", "coordinates": [[-81.5575863, 28.4035302], [-81.5576965, 28.4034953]]}, "properties": {"kind": "road", "name": null, "highway": "service"}}, {"type": "Feature", "geometry": {"type": "LineString", "coordinates": [[-81.5578731, 28.4035165], [-81.5579481, 28.4035546], [-81.5580023, 28.4036014], [-81.558047, 28.4036909], [-81.5580957, 28.4037948], [-81.5582245, 28.4038552], [-81.5583704, 28.4038854], [-81.5585249, 28.4038627], [-81.5586451, 28.4037646], [-81.558688, 28.4036287], [-81.5587137, 28.4035154], [-81.5586708, 28.4034173], [-81.5585592, 28.4033342], [-81.5584648, 28.4032285], [-81.5584391, 28.4031078], [-81.5584452, 28.4029846], [-81.5584091, 28.4029245], [-81.558368, 28.4028562], [-81.5582392, 28.4027656], [-81.5580247, 28.402743], [-81.5578812, 28.4027907], [-81.5577867, 28.4028813], [-81.5577782, 28.4030474], [-81.5578086, 28.4032209], [-81.5578165, 28.4032785], [-81.557816, 28.4033258], [-81.5578159, 28.4033791], [-81.5578266, 28.4034333], [-81.5578421, 28.4034793], [-81.5578731, 28.4035165]]}, "properties": {"kind": "road", "name": "Possum Path", "highway": "service"}}, {"type": "Feature", "geometry": {"type": "LineString", "coordinates": [[-81.5590345, 28.4057219], [-81.5591944, 28.4056747], [-81.559366, 28.4056445], [-81.5595034, 28.405652]]}, "properties": {"kind": "road", "name": null, "highway": "service"}}, {"type": "Feature", "geometry": {"type": "LineString", "coordinates": [[-81.5595034, 28.405652], [-81.5595377, 28.4057653], [-81.5596053, 28.4058704], [-81.5597099, 28.4059459], [-81.5598547, 28.4059695], [-81.5600098, 28.4059616], [-81.5604032, 28.4059188], [-81.5605306, 28.4058516], [-81.5606098, 28.4057312], [-81.5606017, 28.405572], [-81.5605239, 28.4054186], [-81.5605022, 28.4053984], [-81.5604126, 28.4053148], [-81.560293, 28.4052519], [-81.5601471, 28.4052141], [-81.5599668, 28.4052292], [-81.5597694, 28.4053123], [-81.5596235, 28.4054104], [-81.5595205, 28.4055161], [-81.5595034, 28.405652]]}, "properties": {"kind": "road", "name": "Quail Trail", "highway": "service"}}, {"type": "Feature", "geometry": {"type": "LineString", "coordinates": [[-81.5588031, 28.4052879], [-81.558894, 28.4052443], [-81.5590055, 28.4051915], [-81.5591171, 28.4051009], [-81.5591686, 28.4049348], [-81.5591944, 28.4047989], [-81.5591772, 28.4046253], [-81.5590656, 28.4044894], [-81.5589111, 28.4043912], [-81.5587062, 28.4043593], [-81.5585211, 28.40441], [-81.5584059, 28.4044941], [-81.5582985, 28.4045941]]}, "properties": {"kind": "road", "name": "Racoon Lane", "highway": "service"}}, {"type": "Feature", "geometry": {"type": "LineString", "coordinates": [[-81.5587196, 28.4051508], [-81.5585881, 28.4052268], [-81.5582548, 28.4054234], [-81.5582002, 28.4054588]]}, "properties": {"kind": "road", "name": null, "highway": "service"}}, {"type": "Feature", "geometry": {"type": "LineString", "coordinates": [[-81.5594347, 28.402164], [-81.5591171, 28.4021942], [-81.5588596, 28.4022622], [-81.5587309, 28.4023452], [-81.5587147, 28.4023986], [-81.5586966, 28.4024585], [-81.5587223, 28.4026019], [-81.5588253, 28.402685], [-81.558954, 28.4028133], [-81.5589775, 28.4028918], [-81.558997, 28.4029568], [-81.5590485, 28.4032436], [-81.5590914, 28.4033644], [-81.5591515, 28.4034097], [-81.5592544, 28.4034248], [-81.5593746, 28.4034173], [-81.559469, 28.4033644], [-81.5595377, 28.4032587], [-81.559572, 28.4027152], [-81.5595806, 28.4022697], [-81.5595034, 28.4021867], [-81.5594347, 28.402164]]}, "properties": {"kind": "road", "name": "Bobcat Bend", "highway": "service"}}, {"type": "Feature", "geometry": {"type": "LineString", "coordinates": [[-81.5600331, 28.4084959], [-81.5602906, 28.4081033], [-81.5604022, 28.40799], [-81.5605738, 28.4078692], [-81.5609086, 28.4076428], [-81.5612777, 28.4072955], [-81.5615437, 28.4069935], [-81.5616896, 28.4067444], [-81.5617841, 28.4064726], [-81.5618356, 28.4061781], [-81.5618098, 28.4059441], [-81.5617669, 28.4058309], [-81.5616982, 28.405778], [-81.5615094, 28.4057629], [-81.5612433, 28.405778], [-81.5612004, 28.4057554], [-81.5607884, 28.4051665], [-81.5607198, 28.4050968], [-81.5606339, 28.4050457], [-81.5605418, 28.4050029], [-81.5602958, 28.4049171], [-81.5599818, 28.4048133], [-81.5598618, 28.4047562], [-81.5597676, 28.4046918], [-81.5596632, 28.4046084], [-81.5593012, 28.4042267], [-81.5592604, 28.4041887], [-81.5592122, 28.4041353], [-81.5591905, 28.4040762], [-81.5591919, 28.4040202], [-81.5592021, 28.4039639], [-81.5592177, 28.4039023], [-81.5592369, 28.4038475], [-81.5592673, 28.4037959], [-81.5593176, 28.4037508], [-81.559361, 28.4037282], [-81.5594427, 28.4037025], [-81.559527, 28.4036627], [-81.5596267, 28.4036063], [-81.5597119, 28.4035509]]}, "properties": {"kind": "water", "name": null, "highway": null}}, {"type": "Feature", "geometry": {"type": "Polygon", "coordinates": [[[-81.5568168, 28.4075972], [-81.5567323, 28.4076609], [-81.5566103, 28.4077788], [-81.5565365, 28.4078567], [-81.5564976, 28.4079086], [-81.5564534, 28.4079699], [-81.5564024, 28.4079959], [-81.5563541, 28.4079959], [-81.5563058, 28.4079782], [-81.5562736, 28.407951], [-81.5562629, 28.4079145], [-81.5562616, 28.4077989], [-81.5562697, 28.4076918], [-81.5562848, 28.4075615], [-81.5562984, 28.4073996], [-81.5562892, 28.4072429], [-81.5562714, 28.4071113], [-81.5562402, 28.4069754], [-81.5561771, 28.40682], [-81.5560993, 28.4066569], [-81.555974, 28.4064132], [-81.5559651, 28.4063886], [-81.5559656, 28.4063599], [-81.5559875, 28.4063446], [-81.5560252, 28.4063363], [-81.556067, 28.4063363], [-81.556132, 28.4063277], [-81.5562093, 28.4062976], [-81.5561831, 28.4062451], [-81.5563294, 28.406186], [-81.5563337, 28.4061387], [-81.5563355, 28.4060996], [-81.5563439, 28.4060533], [-81.5563675, 28.4060133], [-81.5563878, 28.4059866], [-81.5564149, 28.4059568], [-81.5564416, 28.4059444], [-81.5564776, 28.4059448], [-81.5565194, 28.4059506], [-81.5565643, 28.4059515], [-81.5566024, 28.4059434], [-81.5566342, 28.4059267], [-81.5566499, 28.4059099], [-81.556658, 28.4058864], [-81.5567583, 28.4058707], [-81.5568141, 28.4058741], [-81.5568541, 28.4058835], [-81.5569116, 28.4058994], [-81.5569673, 28.4059198], [-81.5570265, 28.4059536], [-81.5570884, 28.4059743], [-81.5571493, 28.4059893], [-81.5572067, 28.406001], [-81.5572483, 28.4060163], [-81.5572865, 28.4060405], [-81.5573033, 28.4060677], [-81.5573492, 28.406243], [-81.557351, 28.4063407], [-81.557383, 28.4064121], [-81.5574375, 28.4064687], [-81.557467, 28.4065462], [-81.5574743, 28.4066295], [-81.5574704, 28.4066644], [-81.5574922, 28.4066991], [-81.5574882, 28.4067465], [-81.5575649, 28.4067484], [-81.5575956, 28.406767], [-81.5575407, 28.4069219], [-81.5574538, 28.4069755], [-81.5574847, 28.4070475], [-81.5573184, 28.4072657], [-81.5572282, 28.4072996], [-81.5570603, 28.4073817], [-81.5571172, 28.4074717], [-81.5571293, 28.40757], [-81.5570756, 28.4075559], [-81.5569938, 28.4075464], [-81.5569107, 28.4075606], [-81.5568168, 28.4075972]]]}, "properties": {"kind": "wood", "name": null, "highway": null}}, {"type": "Feature", "geometry": {"type": "LineString", "coordinates": [[-81.5579696, 28.4057065], [-81.5580353, 28.405657], [-81.5580608, 28.4056192], [-81.5580621, 28.4055933], [-81.5580339, 28.4055378], [-81.5580219, 28.4055013], [-81.5580366, 28.4054671], [-81.5580701, 28.4054376], [-81.5581224, 28.4054104], [-81.55816, 28.4054022], [-81.5582087, 28.4054013]]}, "properties": {"kind": "trail", "name": null, "highway": "footway"}}, {"type": "Feature", "geometry": {"type": "LineString", "coordinates": [[-81.5580402, 28.4043589], [-81.5580154, 28.4045241], [-81.5579835, 28.4047312], [-81.5579527, 28.4048523], [-81.55794, 28.4049175], [-81.5579314, 28.4049886], [-81.5579286, 28.4050598], [-81.5579394, 28.4051196], [-81.5579606, 28.4051845], [-81.5579932, 28.4052369], [-81.5580691, 28.4053053], [-81.5581604, 28.4053781], [-81.5582087, 28.4054013], [-81.5582548, 28.4054234], [-81.5583492, 28.4054838], [-81.5584436, 28.4055744], [-81.5585037, 28.4056876], [-81.558581, 28.4058009]]}, "properties": {"kind": "trail", "name": null, "highway": "footway"}}, {"type": "Feature", "geometry": {"type": "Polygon", "coordinates": [[[-81.5575649, 28.4036185], [-81.5575073, 28.4036397], [-81.5575408, 28.4037117], [-81.5575867, 28.4036942], [-81.5575998, 28.4036893], [-81.5575649, 28.4036185]]]}, "properties": {"kind": "building", "name": null, "highway": null}}, {"type": "Feature", "geometry": {"type": "LineString", "coordinates": [[-81.5591389, 28.406133], [-81.5592256, 28.4061349]]}, "properties": {"kind": "road", "name": null, "highway": "service"}}, {"type": "Feature", "geometry": {"type": "LineString", "coordinates": [[-81.5591389, 28.406133], [-81.5590741, 28.4061424], [-81.5590025, 28.4061633], [-81.5589399, 28.4062018], [-81.5588895, 28.406253], [-81.5588684, 28.4063238], [-81.558863, 28.4064017], [-81.5588545, 28.4065054], [-81.5588389, 28.4065928], [-81.5588174, 28.406673], [-81.5587981, 28.4067366], [-81.5587579, 28.4068286], [-81.5587123, 28.4069442], [-81.5586613, 28.4070456], [-81.5586291, 28.4071188], [-81.5586077, 28.4071848], [-81.5586023, 28.4072438], [-81.5585846, 28.4073408], [-81.5585678, 28.4074413], [-81.5585421, 28.4075923], [-81.5585421, 28.4082491], [-81.558585, 28.4083925], [-81.5586847, 28.408488], [-81.5587824, 28.4085133], [-81.5588299, 28.4085112], [-81.5589167, 28.4085054]]}, "properties": {"kind": "road", "name": "Sunny Sage Way", "highway": "service"}}, {"type": "Feature", "geometry": {"type": "LineString", "coordinates": [[-81.5575988, 28.4028961], [-81.5576025, 28.403015], [-81.5576025, 28.4031056], [-81.5576368, 28.4032339], [-81.5577209, 28.4034354], [-81.5577313, 28.4034604], [-81.5577477, 28.4034951], [-81.5577594, 28.4035197], [-81.5578144, 28.4036359], [-81.5579029, 28.4038228], [-81.5580231, 28.4041097], [-81.5580541, 28.4042002], [-81.5580545, 28.4042404], [-81.5580549, 28.4042859], [-81.5580402, 28.4043589]]}, "properties": {"kind": "trail", "name": null, "highway": "footway"}}, {"type": "Feature", "geometry": {"type": "LineString", "coordinates": [[-81.5570245, 28.4023338], [-81.5571396, 28.4025856], [-81.5575863, 28.4035302], [-81.5576789, 28.4036992], [-81.5578266, 28.4039681], [-81.5580549, 28.4042859], [-81.5582985, 28.4045941], [-81.5586271, 28.4050211], [-81.5587196, 28.4051508], [-81.5588031, 28.4052879], [-81.5589252, 28.4054856], [-81.5590345, 28.4057219], [-81.5592256, 28.4061349], [-81.55926, 28.4064821], [-81.5591484, 28.4068219], [-81.5588995, 28.4072597], [-81.5588737, 28.4080298], [-81.5588909, 28.4083016], [-81.5589167, 28.4085054], [-81.5590025, 28.40883], [-81.5592943, 28.4094126], [-81.5593201, 28.4094642], [-81.5599037, 28.4102569], [-81.5600668, 28.4105589], [-81.5602985, 28.410891]]}, "properties": {"kind": "road", "name": "Fort Wilderness Trail", "highway": "unclassified"}}, {"type": "Feature", "geometry": {"type": "LineString", "coordinates": [[-81.5577295, 28.4059148], [-81.557722, 28.4059457], [-81.5577127, 28.405987], [-81.5577131, 28.4060619], [-81.5577542, 28.4060802], [-81.5577945, 28.4061167], [-81.557836, 28.4061521], [-81.5578629, 28.4061946], [-81.5578745, 28.4062161], [-81.5578897, 28.4062441], [-81.5579178, 28.4063137], [-81.5579473, 28.4063904], [-81.5579299, 28.406427], [-81.5579299, 28.4064553], [-81.5579299, 28.4064942], [-81.5579192, 28.4065272], [-81.5578816, 28.4065508], [-81.5578199, 28.4065673], [-81.5577867, 28.4065957]]}, "properties": {"kind": "trail", "name": null, "highway": "footway"}}, {"type": "Feature", "geometry": {"type": "LineString", "coordinates": [[-81.5578199, 28.4065673], [-81.5577006, 28.4062642], [-81.5578745, 28.4062161]]}, "properties": {"kind": "trail", "name": null, "highway": "footway"}}, {"type": "Feature", "geometry": {"type": "LineString", "coordinates": [[-81.5577131, 28.4060619], [-81.5576067, 28.4062689]]}, "properties": {"kind": "trail", "name": null, "highway": "footway"}}, {"type": "Feature", "geometry": {"type": "LineString", "coordinates": [[-81.5577131, 28.4060619], [-81.5576724, 28.4060507], [-81.5575732, 28.4060436], [-81.5574431, 28.4060389], [-81.5574418, 28.4061556], [-81.557498, 28.4061951], [-81.5576067, 28.4062689], [-81.5576393, 28.4063616], [-81.5576979, 28.4065898]]}, "properties": {"kind": "trail", "name": null, "highway": "footway"}}, {"type": "Feature", "geometry": {"type": "Polygon", "coordinates": [[[-81.5564118, 28.4090811], [-81.5563588, 28.4090935], [-81.5562991, 28.4091112], [-81.5562626, 28.4091241], [-81.5562385, 28.4091394], [-81.5561956, 28.4091665], [-81.5561406, 28.4092196], [-81.556103, 28.409281], [-81.5560735, 28.4093411], [-81.5560574, 28.4093954], [-81.5560443, 28.4094261], [-81.5559994, 28.4094733], [-81.5559605, 28.4095305], [-81.5559129, 28.4096007], [-81.5558961, 28.409632], [-81.5558908, 28.4096562], [-81.5558908, 28.4096856], [-81.5558975, 28.4097069], [-81.5559095, 28.4097399], [-81.5559297, 28.409793], [-81.5559598, 28.4098496], [-81.5559692, 28.4098862], [-81.5559692, 28.4099216], [-81.5559753, 28.4099682], [-81.555988, 28.4100035], [-81.5560121, 28.4100372], [-81.556045, 28.4100761], [-81.5560792, 28.4101274], [-81.5561151, 28.4101739], [-81.5561594, 28.4102293], [-81.5561822, 28.4102612], [-81.5561956, 28.4102895], [-81.5561875, 28.4103119], [-81.5561634, 28.410332], [-81.5559488, 28.4104393], [-81.5557919, 28.410516], [-81.5556859, 28.4105584], [-81.5556363, 28.4105927], [-81.5556149, 28.4106245], [-81.55558, 28.4106528], [-81.5555371, 28.4106752], [-81.5554888, 28.4106941], [-81.5554392, 28.4106988], [-81.5553949, 28.4106976], [-81.555268, 28.410635], [-81.5555632, 28.4108317], [-81.5555498, 28.410808], [-81.5555443, 28.4107814], [-81.5555431, 28.4107585], [-81.5555533, 28.4107336], [-81.5555816, 28.4107101], [-81.5556286, 28.4106865], [-81.5556997, 28.4106488], [-81.5557613, 28.4106205], [-81.5558364, 28.4105933], [-81.5558928, 28.4105768], [-81.5559384, 28.410558], [-81.5559893, 28.4105367], [-81.5560403, 28.410506], [-81.5560832, 28.4104872], [-81.5561194, 28.4104648], [-81.5561677, 28.41044], [-81.556212, 28.4104176], [-81.5562468, 28.4103916], [-81.5562871, 28.4103704], [-81.5563219, 28.4103574], [-81.5563622, 28.4103527], [-81.5564104, 28.4103568], [-81.5564592, 28.4103673], [-81.5565734, 28.4104303], [-81.5566853, 28.4104599], [-81.5567946, 28.4105241], [-81.5568235, 28.4105483], [-81.5568532, 28.4105687], [-81.5568852, 28.4105823], [-81.5569152, 28.4105865], [-81.5569419, 28.4105871], [-81.556985, 28.4105778], [-81.5570171, 28.4105754], [-81.5570521, 28.4105691], [-81.5570845, 28.4105566], [-81.557107, 28.41054], [-81.5571179, 28.410519], [-81.5571206, 28.4104936], [-81.5571245, 28.4104718], [-81.5571282, 28.4104382], [-81.5571241, 28.4104097], [-81.5571095, 28.4103877], [-81.5570866, 28.4103738], [-81.5570622, 28.4103646], [-81.5570296, 28.4103606], [-81.5569749, 28.4103646], [-81.556948, 28.4103613], [-81.5569201, 28.4103472], [-81.5568602, 28.4103356], [-81.5567648, 28.4103219], [-81.5566835, 28.4103182], [-81.5566247, 28.410316], [-81.5565474, 28.4103027], [-81.5564916, 28.4102964], [-81.5564049, 28.4102648], [-81.5563596, 28.4102349], [-81.5563233, 28.41021], [-81.5562582, 28.410171], [-81.5562113, 28.4101392], [-81.5561657, 28.4101056], [-81.5561221, 28.4100755], [-81.5560906, 28.4100401], [-81.5560671, 28.4100065], [-81.5560504, 28.409954], [-81.5560443, 28.4099098], [-81.556047, 28.4098585], [-81.5560322, 28.4098018], [-81.5560108, 28.4097464], [-81.5560007, 28.4097122], [-81.555996, 28.4096815], [-81.555998, 28.4096449], [-81.5560088, 28.4096184], [-81.5560329, 28.4095877], [-81.5560644, 28.4095476], [-81.5561067, 28.409504], [-81.5561308, 28.4094733], [-81.5561553, 28.4094319], [-81.5561704, 28.4094114], [-81.5561871, 28.4093801], [-81.5562053, 28.4093418], [-81.5562361, 28.409297], [-81.5562643, 28.4092575], [-81.5562991, 28.4092262], [-81.5563367, 28.4091997], [-81.5563736, 28.409179], [-81.5564098, 28.4091619], [-81.5564493, 28.4091513], [-81.5565592, 28.4091087], [-81.5566262, 28.4090798], [-81.5566913, 28.4090598], [-81.5567476, 28.4090545], [-81.5567986, 28.4090545], [-81.5568535, 28.4090427], [-81.5569112, 28.4090208], [-81.5569803, 28.4089837], [-81.5570245, 28.4089577], [-81.5570755, 28.4089341], [-81.55716, 28.4089247], [-81.5572324, 28.4089282], [-81.5573249, 28.4089412], [-81.5574081, 28.4089589], [-81.5575073, 28.4089778], [-81.5575999, 28.4089955], [-81.557679, 28.4090061], [-81.557746, 28.4090085], [-81.5578171, 28.4090085], [-81.5578708, 28.4090049], [-81.5578929, 28.4089984], [-81.557915, 28.4089919], [-81.5579593, 28.4089719], [-81.5579982, 28.4089448], [-81.5580706, 28.408887], [-81.5581269, 28.4088292], [-81.5582168, 28.4087313], [-81.5582476, 28.4086782], [-81.5582597, 28.4086251], [-81.558265, 28.4085767], [-81.558265, 28.4085154], [-81.5582597, 28.408434], [-81.558255, 28.4083768], [-81.5582503, 28.4083261], [-81.558249, 28.4082865], [-81.558251, 28.4082311], [-81.558259, 28.4081745], [-81.5582832, 28.4080783], [-81.5582905, 28.4080158], [-81.5582972, 28.4079433], [-81.5582999, 28.4078819], [-81.5582992, 28.40783], [-81.5582959, 28.4077734], [-81.5582972, 28.4077015], [-81.5582986, 28.4076124], [-81.5582999, 28.4075611], [-81.5583026, 28.407518], [-81.558308, 28.407472], [-81.558322, 28.4073906], [-81.5583415, 28.4072974], [-81.5583495, 28.4072444], [-81.5583569, 28.4071948], [-81.5583589, 28.407163], [-81.5583589, 28.4071388], [-81.5583549, 28.4071164], [-81.5583482, 28.4070875], [-81.5583475, 28.4070621], [-81.5583502, 28.4070291], [-81.5583596, 28.4069996], [-81.558371, 28.4069724], [-81.5583817, 28.4069412], [-81.558403, 28.4068786], [-81.5584272, 28.4068342], [-81.5584582, 28.4067881], [-81.5584825, 28.4067454], [-81.5584962, 28.4067068], [-81.5585149, 28.4066678], [-81.5585285, 28.4066328], [-81.5585402, 28.4065689], [-81.5585503, 28.4064868], [-81.5585524, 28.4064278], [-81.5585503, 28.4063677], [-81.558537, 28.4063151], [-81.5585167, 28.4062606], [-81.558474, 28.4061997], [-81.5583859, 28.4061163], [-81.5583101, 28.4060449], [-81.5582226, 28.4059576], [-81.5581548, 28.4058983], [-81.558092, 28.4058507], [-81.5580437, 28.4058138], [-81.5579958, 28.4058403], [-81.5579551, 28.4058617], [-81.5579357, 28.405946], [-81.5579331, 28.4059909], [-81.5579271, 28.4060297], [-81.55791, 28.4060743], [-81.5579055, 28.4061123], [-81.5579082, 28.4061531], [-81.5579151, 28.4061766], [-81.5579824, 28.4062859], [-81.5580195, 28.4063003], [-81.5580446, 28.4063174], [-81.5580494, 28.4063318], [-81.5580476, 28.4063605], [-81.5581044, 28.4064632], [-81.5580881, 28.4065551], [-81.5580901, 28.4066206], [-81.5581101, 28.4066787], [-81.5581263, 28.4067308], [-81.5581472, 28.4067705], [-81.5581671, 28.4068017], [-81.558208, 28.406831], [-81.5582291, 28.4068538], [-81.5582489, 28.4068841], [-81.5582537, 28.4069102], [-81.5582406, 28.4070027], [-81.5582411, 28.4070412], [-81.5582429, 28.4070739], [-81.5582402, 28.407101], [-81.5582295, 28.4071488], [-81.5582268, 28.4071824], [-81.5582322, 28.4072267], [-81.5582322, 28.4072756], [-81.5582349, 28.4073216], [-81.5582349, 28.4073523], [-81.5582342, 28.407475], [-81.5582315, 28.4075735], [-81.5582268, 28.4076537], [-81.5582268, 28.4076961], [-81.5582268, 28.4077333], [-81.5582315, 28.4077823], [-81.5582376, 28.4078259], [-81.5582342, 28.407876], [-81.5582275, 28.4079462], [-81.5582161, 28.4080312], [-81.5582, 28.4081361], [-81.558192, 28.4082087], [-81.5581846, 28.4082801], [-81.5581772, 28.4083408], [-81.5581799, 28.4083809], [-81.5581832, 28.4084305], [-81.5581953, 28.408493], [-81.5582047, 28.4085455], [-81.5581973, 28.4085879], [-81.5581846, 28.408628], [-81.5581705, 28.4086823], [-81.558141, 28.4087236], [-81.5581128, 28.4087548], [-81.558078, 28.4087879], [-81.5580364, 28.4088132], [-81.5579874, 28.4088415], [-81.5579667, 28.408871], [-81.5579425, 28.4089058], [-81.557915, 28.4089271], [-81.5578761, 28.4089483], [-81.5578372, 28.4089589], [-81.5577983, 28.4089642], [-81.5577574, 28.4089648], [-81.5577165, 28.4089601], [-81.5576676, 28.4089501], [-81.5576092, 28.4089341], [-81.557569, 28.4089188], [-81.5575254, 28.40891], [-81.5574852, 28.408907], [-81.5574383, 28.40891], [-81.5573746, 28.4089123], [-81.5573377, 28.4089035], [-81.5573102, 28.4088899], [-81.557274, 28.4088716], [-81.5572445, 28.4088598], [-81.5571995, 28.4088492], [-81.557166, 28.4088575], [-81.5571285, 28.4088716], [-81.5570896, 28.4088817], [-81.5570353, 28.4088952], [-81.5569796, 28.4089235], [-81.5569293, 28.4089448], [-81.5568797, 28.4089695], [-81.5568348, 28.4089843], [-81.5567851, 28.4089919], [-81.5567362, 28.408999], [-81.5566899, 28.4090032], [-81.5566369, 28.409012], [-81.5565893, 28.4090238], [-81.5565444, 28.4090332], [-81.5565203, 28.4090403], [-81.5564118, 28.4090811]]]}, "properties": {"kind": "water", "name": null, "highway": null}}, {"type": "Feature", "geometry": {"type": "Polygon", "coordinates": [[[-81.5607884, 28.4051665], [-81.5608614, 28.4051169], [-81.5609607, 28.4050532], [-81.5610076, 28.4049907], [-81.561013, 28.4049152], [-81.5610478, 28.4048173], [-81.5611082, 28.4047583], [-81.5612141, 28.4046899], [-81.5613456, 28.4046155], [-81.5614998, 28.4045164], [-81.561587, 28.4045164], [-81.5616728, 28.4044681], [-81.561768, 28.4043938], [-81.5618364, 28.4043619], [-81.5617734, 28.4042782], [-81.5616956, 28.4041743], [-81.5616178, 28.4040635], [-81.5614998, 28.4039195], [-81.5613898, 28.4037143], [-81.5613147, 28.4035338], [-81.5612664, 28.4033533], [-81.5612115, 28.4031634], [-81.5611726, 28.4030372], [-81.5611082, 28.4028814], [-81.5609325, 28.4029369], [-81.5609808, 28.4030655], [-81.5611001, 28.4031009], [-81.5611457, 28.4031681], [-81.5611887, 28.4033215], [-81.5612101, 28.4034512], [-81.5612289, 28.4035633], [-81.5612611, 28.403686], [-81.5613456, 28.4038299], [-81.5614327, 28.4039573], [-81.5614877, 28.4040587], [-81.5614998, 28.4041519], [-81.5614944, 28.4042581], [-81.5614676, 28.4043725], [-81.5614207, 28.4044374], [-81.5613429, 28.4045141], [-81.5612678, 28.4045707], [-81.5611726, 28.4046108], [-81.5610773, 28.4046297], [-81.5609338, 28.4046285], [-81.5607689, 28.4046155], [-81.5606334, 28.4046049], [-81.5604886, 28.4046191], [-81.5603438, 28.4046403], [-81.5602378, 28.4046733], [-81.560038, 28.4046816], [-81.5599066, 28.4046438], [-81.5598087, 28.404566], [-81.559696, 28.4044398], [-81.559578, 28.4043041], [-81.55946, 28.4041614], [-81.5593996, 28.4040682], [-81.559405, 28.4040198], [-81.5594318, 28.4039538], [-81.5594546, 28.4038783], [-81.5595284, 28.403824], [-81.5597939, 28.403647], [-81.5599173, 28.4035538], [-81.5599884, 28.4034783], [-81.5600098, 28.4034217], [-81.5600326, 28.40322], [-81.5600876, 28.4028555], [-81.5601077, 28.4027009], [-81.5601359, 28.4024591], [-81.5601547, 28.4023258], [-81.5602445, 28.402301], [-81.560325, 28.4022668], [-81.5603827, 28.4022397], [-81.5604189, 28.4022173], [-81.5604336, 28.4021949], [-81.5604309, 28.4021725], [-81.5604108, 28.40215], [-81.56038, 28.40213], [-81.5602579, 28.4020769], [-81.5601681, 28.4020498], [-81.5600713, 28.4020284], [-81.5600245, 28.4024259], [-81.5599436, 28.4030686], [-81.5599239, 28.4032143], [-81.5598918, 28.4033276], [-81.5598609, 28.4033854], [-81.5598294, 28.4034392], [-81.5597874, 28.4034937], [-81.5597119, 28.4035509], [-81.5596267, 28.4036063], [-81.559527, 28.4036627], [-81.5594427, 28.4037025], [-81.559361, 28.4037282], [-81.5593176, 28.4037508], [-81.5592673, 28.4037959], [-81.5592369, 28.4038475], [-81.5592177, 28.4039023], [-81.5592021, 28.4039639], [-81.5591919, 28.4040202], [-81.5591905, 28.4040762], [-81.5592122, 28.4041353], [-81.5592604, 28.4041887], [-81.5593012, 28.4042267], [-81.5596632, 28.4046084], [-81.5597676, 28.4046918], [-81.5598618, 28.4047562], [-81.5599818, 28.4048133], [-81.5602958, 28.4049171], [-81.5605418, 28.4050029], [-81.5606339, 28.4050457], [-81.5607198, 28.4050968], [-81.5607884, 28.4051665]]]}, "properties": {"kind": "wood", "name": null, "highway": null}}, {"type": "Feature", "geometry": {"type": "Polygon", "coordinates": [[[-81.5589678, 28.4054944], [-81.5589249, 28.4054142], [-81.559012, 28.4053858], [-81.5591059, 28.4053351], [-81.5591904, 28.4052596], [-81.5592601, 28.4051818], [-81.5593299, 28.4050508], [-81.5593996, 28.4049352], [-81.5594278, 28.4048503], [-81.5594332, 28.4047724], [-81.5594291, 28.4046663], [-81.5593808, 28.4045778], [-81.5593165, 28.4045188], [-81.5592306, 28.4044339], [-81.5591435, 28.4043537], [-81.5590322, 28.4042699], [-81.55889, 28.4041979], [-81.5587197, 28.4041602], [-81.5585306, 28.4041578], [-81.5584005, 28.4041932], [-81.5583214, 28.4042699], [-81.5583227, 28.4043454], [-81.558367, 28.4044834], [-81.5583026, 28.4045436], [-81.5580545, 28.4042404], [-81.5580541, 28.4042002], [-81.5580231, 28.4041097], [-81.5579029, 28.4038228], [-81.5578144, 28.4036359], [-81.5577594, 28.4035197], [-81.5577916, 28.4035114], [-81.5578265, 28.4035149], [-81.55786, 28.4035279], [-81.5579204, 28.4035527], [-81.557974, 28.4036058], [-81.5580049, 28.4036683], [-81.5580317, 28.4037249], [-81.5580786, 28.4037933], [-81.558143, 28.4038488], [-81.5581953, 28.4038794], [-81.5582771, 28.4039113], [-81.558371, 28.4039231], [-81.5583066, 28.4040694], [-81.558375, 28.4040694], [-81.558489, 28.4040694], [-81.5586178, 28.4040481], [-81.5586996, 28.4039915], [-81.5587894, 28.4039361], [-81.5588323, 28.4038959], [-81.5588927, 28.4038063], [-81.5589195, 28.4037567], [-81.5589745, 28.4036388], [-81.5589973, 28.4035869], [-81.5590322, 28.4035527], [-81.5590737, 28.4035362], [-81.5591368, 28.4035362], [-81.5591918, 28.4035479], [-81.559236, 28.4035798], [-81.5592722, 28.4036152], [-81.5593125, 28.4036293], [-81.5593648, 28.4036293], [-81.5593956, 28.4036376], [-81.559405, 28.4036506], [-81.5592628, 28.4037202], [-81.5591542, 28.4037744], [-81.5590871, 28.4038358], [-81.559059, 28.4038936], [-81.5590442, 28.4039714], [-81.5590469, 28.4040446], [-81.5590764, 28.4041342], [-81.559122, 28.4042215], [-81.5592092, 28.4042864], [-81.5593125, 28.4043725], [-81.5594466, 28.4045011], [-81.5595659, 28.4046273], [-81.5596477, 28.4046969], [-81.5597429, 28.4047736], [-81.5598569, 28.4048338], [-81.559979, 28.404901], [-81.5601171, 28.4049517], [-81.5602325, 28.4049871], [-81.5602325, 28.4050237], [-81.5601077, 28.4050414], [-81.5599508, 28.4050638], [-81.5597885, 28.4051004], [-81.5596437, 28.4051499], [-81.5594908, 28.4052608], [-81.5594305, 28.4053233], [-81.5593822, 28.4053988], [-81.5589678, 28.4054944]]]}, "properties": {"kind": "wood", "name": null, "highway": null}}, {"type": "Feature", "geometry": {"type": "LineString", "coordinates": [[-81.5597119, 28.4035509], [-81.5597874, 28.4034937], [-81.5598294, 28.4034392], [-81.5598609, 28.4033854], [-81.5598918, 28.4033276], [-81.5599239, 28.4032143], [-81.5599436, 28.4030686], [-81.5600245, 28.4024259], [-81.5600713, 28.4020284], [-81.5600787, 28.4019753]]}, "properties": {"kind": "water", "name": null, "highway": null}}, {"type": "Feature", "geometry": {"type": "Polygon", "coordinates": [[[-81.5577209, 28.4034354], [-81.5576931, 28.4034605], [-81.5576663, 28.4034699], [-81.5576368, 28.4034734], [-81.5576113, 28.4034687], [-81.5575885, 28.4034581], [-81.5575724, 28.4034369], [-81.5571178, 28.4024613], [-81.5571996, 28.4023221], [-81.5577387, 28.4021439], [-81.5578098, 28.4021239], [-81.5579439, 28.402085], [-81.5581625, 28.4020366], [-81.5583074, 28.4020047], [-81.558471, 28.4019741], [-81.5586212, 28.4019493], [-81.5587768, 28.4019269], [-81.5589779, 28.4019057], [-81.5592917, 28.4018809], [-81.5593856, 28.4019222], [-81.559395, 28.4020661], [-81.5593776, 28.4021038], [-81.5593534, 28.4021298], [-81.5593145, 28.4021475], [-81.559281, 28.4021569], [-81.5593561, 28.4020059], [-81.559277, 28.401967], [-81.5591053, 28.4019599], [-81.5589323, 28.4019835], [-81.5587526, 28.4020319], [-81.5585863, 28.4021475], [-81.5585152, 28.402289], [-81.558467, 28.4024471], [-81.5584965, 28.4025509], [-81.5585461, 28.4026111], [-81.5586292, 28.4027114], [-81.5587043, 28.4028223], [-81.5587674, 28.4029591], [-81.5587861, 28.4030936], [-81.558821, 28.4032446], [-81.5588492, 28.4033283], [-81.5588814, 28.4034298], [-81.5588639, 28.4034475], [-81.5588395, 28.4034446], [-81.5588241, 28.4034242], [-81.5588022, 28.4033625], [-81.5587848, 28.4032481], [-81.5587405, 28.4030889], [-81.5587003, 28.4029827], [-81.5586252, 28.4028223], [-81.5585635, 28.4027137], [-81.5584281, 28.4026276], [-81.5582899, 28.4025521], [-81.5581116, 28.4025096], [-81.5579788, 28.4025132], [-81.5578273, 28.4025615], [-81.5576703, 28.4026559], [-81.5575943, 28.4027817], [-81.5577629, 28.4028871], [-81.5577495, 28.4029921], [-81.5577579, 28.4031096], [-81.5577737, 28.4031879], [-81.5577926, 28.4032532], [-81.5577941, 28.4033038], [-81.5577789, 28.4033492], [-81.5577589, 28.4033952], [-81.5577368, 28.4034219], [-81.5577209, 28.4034354]]]}, "properties": {"kind": "wood", "name": null, "highway": null}}, {"type": "Feature", "geometry": {"type": "LineString", "coordinates": [[-81.557816, 28.4033258], [-81.5577951, 28.4033808], [-81.5577649, 28.403428], [-81.5577313, 28.4034604], [-81.5576965, 28.4034953], [-81.5577477, 28.4034951], [-81.5577884, 28.4034964], [-81.5578319, 28.4035012], [-81.5578731, 28.4035165]]}, "properties": {"kind": "road", "name": null, "highway": "service"}}, {"type": "Feature", "geometry": {"type": "Polygon", "coordinates": [[[-81.5591598, 28.4034841], [-81.5591377, 28.4034515], [-81.5590196, 28.4035133], [-81.5590416, 28.403546], [-81.5591598, 28.4034841]]]}, "properties": {"kind": "building", "name": null, "highway": null}}, {"type": "Feature", "geometry": {"type": "Polygon", "coordinates": [[[-81.5589846, 28.4032986], [-81.5588463, 28.403286], [-81.5588508, 28.4032484], [-81.558989, 28.403261], [-81.5589846, 28.4032986]]]}, "properties": {"kind": "building", "name": null, "highway": null}}, {"type": "Feature", "geometry": {"type": "Polygon", "coordinates": [[[-81.5590431, 28.4034161], [-81.5589215, 28.4034535], [-81.5589064, 28.4034154], [-81.559028, 28.403378], [-81.5590431, 28.4034161]]]}, "properties": {"kind": "building", "name": null, "highway": null}}, {"type": "Feature", "geometry": {"type": "Polygon", "coordinates": [[[-81.559274, 28.4033421], [-81.559237, 28.4033595], [-81.559173, 28.4032547], [-81.55921, 28.4032372], [-81.559274, 28.4033421]]]}, "properties": {"kind": "building", "name": null, "highway": null}}, {"type": "Feature", "geometry": {"type": "Polygon", "coordinates": [[[-81.5594633, 28.4032992], [-81.5593429, 28.4033332], [-81.5593293, 28.4032959], [-81.5594497, 28.4032619], [-81.5594633, 28.4032992]]]}, "properties": {"kind": "building", "name": null, "highway": null}}, {"type": "Feature", "geometry": {"type": "Polygon", "coordinates": [[[-81.5594832, 28.4035888], [-81.5594423, 28.4035909], [-81.5594346, 28.4034729], [-81.5594755, 28.4034709], [-81.5594832, 28.4035888]]]}, "properties": {"kind": "building", "name": null, "highway": null}}, {"type": "Feature", "geometry": {"type": "Polygon", "coordinates": [[[-81.5593742, 28.4031745], [-81.5593575, 28.4031367], [-81.5594757, 28.4030963], [-81.5594924, 28.4031341], [-81.5593742, 28.4031745]]]}, "properties": {"kind": "building", "name": null, "highway": null}}, {"type": "Feature", "geometry": {"type": "Polygon", "coordinates": [[[-81.5589494, 28.4031627], [-81.5588185, 28.40312], [-81.5588331, 28.4030854], [-81.558964, 28.403128], [-81.5589494, 28.4031627]]]}, "properties": {"kind": "building", "name": null, "highway": null}}, {"type": "Feature", "geometry": {"type": "Polygon", "coordinates": [[[-81.5596629, 28.403097], [-81.5596339, 28.4031342], [-81.5597441, 28.4032005], [-81.5597731, 28.4031632], [-81.5596629, 28.403097]]]}, "properties": {"kind": "building", "name": null, "highway": null}}, {"type": "Feature", "geometry": {"type": "Polygon", "coordinates": [[[-81.5593682, 28.4036027], [-81.5592397, 28.4035742], [-81.5592497, 28.4035394], [-81.5593782, 28.4035679], [-81.5593682, 28.4036027]]]}, "properties": {"kind": "building", "name": null, "highway": null}}, {"type": "Feature", "geometry": {"type": "Polygon", "coordinates": [[[-81.5596642, 28.4034809], [-81.559629, 28.4034999], [-81.5595548, 28.403394], [-81.55959, 28.403375], [-81.5596642, 28.4034809]]]}, "properties": {"kind": "building", "name": null, "highway": null}}, {"type": "Feature", "geometry": {"type": "Polygon", "coordinates": [[[-81.5597169, 28.4033723], [-81.5597453, 28.4033374], [-81.5596388, 28.4032704], [-81.5596104, 28.4033053], [-81.5597169, 28.4033723]]]}, "properties": {"kind": "building", "name": null, "highway": null}}, {"type": "Feature", "geometry": {"type": "LineString", "coordinates": [[-81.5591536, 28.4055387], [-81.5593374, 28.4055162], [-81.5593288, 28.4054617], [-81.5591449, 28.4054842], [-81.5591536, 28.4055387]]}, "properties": {"kind": "comfort", "name": "Comfort Station", "highway": null}}, {"type": "Feature", "geometry": {"type": "Polygon", "coordinates": [[[-81.5580437, 28.4058138], [-81.5578487, 28.4056098], [-81.5573958, 28.4051994], [-81.55697, 28.4049125], [-81.5564944, 28.4047571], [-81.5561999, 28.404773], [-81.556064, 28.4048248], [-81.5559734, 28.4048966], [-81.5559236, 28.4049882], [-81.5559146, 28.4051277], [-81.5558557, 28.4057094], [-81.5558466, 28.4058289], [-81.5555794, 28.4059524], [-81.5551083, 28.4062273], [-81.5546734, 28.4063947], [-81.554542, 28.4064266], [-81.5544589, 28.4064313], [-81.5544884, 28.4065046], [-81.5545161, 28.406613], [-81.5545219, 28.4065773], [-81.554538, 28.406536], [-81.5545715, 28.4065053], [-81.5546265, 28.40649], [-81.5547069, 28.4064723], [-81.5547981, 28.4064499], [-81.55487, 28.4064236], [-81.5549014, 28.4064121], [-81.5550288, 28.4063602], [-81.5551415, 28.4063083], [-81.5552648, 28.4062387], [-81.5553627, 28.4061868], [-81.5554781, 28.4061314], [-81.5556926, 28.4060082], [-81.5558602, 28.4059205], [-81.5559327, 28.4059205], [-81.5560006, 28.4059763], [-81.5561003, 28.4061118], [-81.5561505, 28.406097], [-81.5561909, 28.406048], [-81.556055, 28.4058329], [-81.5560051, 28.4057253], [-81.5560323, 28.4054823], [-81.5560414, 28.40504], [-81.5560867, 28.4049484], [-81.5562045, 28.4048846], [-81.5563539, 28.4048766], [-81.5566484, 28.4049165], [-81.5569654, 28.4050679], [-81.5572871, 28.4052791], [-81.5576766, 28.4055779], [-81.5578487, 28.4057293], [-81.5579551, 28.4058617], [-81.5579958, 28.4058403], [-81.5580437, 28.4058138]]]}, "properties": {"kind": "water", "name": null, "highway": null}}, {"type": "Feature", "geometry": {"type": "LineString", "coordinates": [[-81.5612004, 28.4057554], [-81.5609289, 28.4060202], [-81.56063, 28.4061835], [-81.5601136, 28.4062512], [-81.5598328, 28.4063309]]}, "properties": {"kind": "water", "name": null, "highway": null}}, {"type": "Feature", "geometry": {"type": "Polygon", "coordinates": [[[-81.5574243, 28.4057438], [-81.5574808, 28.4057636], [-81.5575295, 28.4057804], [-81.5575803, 28.4057976], [-81.5575543, 28.4058568], [-81.557506, 28.4058404], [-81.5574673, 28.4059285], [-81.5573358, 28.4059803], [-81.5571133, 28.4059104], [-81.5571189, 28.4058968], [-81.557033, 28.4058698], [-81.5570714, 28.4057752], [-81.5570937, 28.4057821], [-81.5570849, 28.4058037], [-81.5571451, 28.4058225], [-81.557149, 28.4058128], [-81.5573267, 28.4058684], [-81.5573764, 28.4058495], [-81.5574243, 28.4057438]]]}, "properties": {"kind": "building", "name": null, "highway": null}}, {"type": "Feature", "geometry": {"type": "LineString", "coordinates": [[-81.5577006, 28.4062642], [-81.5576067, 28.4062689]]}, "properties": {"kind": "trail", "name": null, "highway": "footway"}}, {"type": "Feature", "geometry": {"type": "LineString", "coordinates": [[-81.5578144, 28.4036359], [-81.5577024, 28.4036882]]}, "properties": {"kind": "trail", "name": null, "highway": "footway"}}, {"type": "Feature", "geometry": {"type": "LineString", "coordinates": [[-81.5605803, 28.4044163], [-81.5603339, 28.4040817], [-81.560144, 28.4039694], [-81.559695, 28.4038904]]}, "properties": {"kind": "trail", "name": null, "highway": "footway"}}, {"type": "Feature", "geometry": {"type": "Polygon", "coordinates": [[[-81.557159, 28.4042066], [-81.5568509, 28.4042954], [-81.5566649, 28.4043], [-81.5566596, 28.4043795], [-81.5569253, 28.4044122], [-81.5571378, 28.4045197], [-81.5572334, 28.4045851], [-81.557329, 28.4044916], [-81.557159, 28.4042066]]]}, "properties": {"kind": "wood", "name": null, "highway": null}}, {"type": "Feature", "geometry": {"type": "Polygon", "coordinates": [[[-81.5584978, 28.4035664], [-81.5582959, 28.4032673], [-81.5581684, 28.4029776], [-81.5579931, 28.4030336], [-81.558094, 28.4033841], [-81.558365, 28.4036692], [-81.5584978, 28.4035664]]]}, "properties": {"kind": "wood", "name": null, "highway": null}}, {"type": "Feature", "geometry": {"type": "LineString", "coordinates": [[-81.5572077, 28.4054936], [-81.5572232, 28.4054558], [-81.5571767, 28.4054409], [-81.5571814, 28.4054294], [-81.557156, 28.4054213], [-81.557152, 28.405431]]}, "properties": {"kind": "road", "name": null, "highway": "steps"}}, {"type": "Feature", "geometry": {"type": "Polygon", "coordinates": [[[-81.5641441, 28.4050852], [-81.5642071, 28.4051401], [-81.5642896, 28.4052009], [-81.5643513, 28.4052457], [-81.5644016, 28.4052858], [-81.5644452, 28.4053336], [-81.564476, 28.4053778], [-81.5645008, 28.4054273], [-81.5645243, 28.4054751], [-81.5645431, 28.4055258], [-81.5645498, 28.4055683], [-81.5645538, 28.4056173], [-81.5645518, 28.4056686], [-81.5645431, 28.405714], [-81.5645236, 28.4057612], [-81.5645042, 28.405796], [-81.5644807, 28.4058284], [-81.5644378, 28.4058762], [-81.5643821, 28.4059753], [-81.5643547, 28.4060431], [-81.5643091, 28.4061646], [-81.564291, 28.4062153], [-81.5642822, 28.4062708], [-81.5642782, 28.4063274], [-81.5642775, 28.4063769], [-81.5642822, 28.40642], [-81.5642956, 28.406479], [-81.5643121, 28.4065311], [-81.5643319, 28.4065781], [-81.564354, 28.4066194], [-81.5644043, 28.4066949], [-81.5644619, 28.4067939], [-81.5644968, 28.4068553], [-81.5645337, 28.4069278], [-81.5645639, 28.4069904], [-81.5645853, 28.4070493], [-81.5646088, 28.4071337], [-81.5646256, 28.407182], [-81.5646423, 28.4072682], [-81.5646658, 28.407382], [-81.5646866, 28.407464], [-81.5647094, 28.4075666], [-81.5647255, 28.4076586], [-81.5647483, 28.4076875], [-81.5647784, 28.4077076], [-81.5647939, 28.4077223], [-81.5648221, 28.4078465], [-81.5648267, 28.4078645], [-81.5648482, 28.4079364], [-81.5648529, 28.4079647], [-81.5648549, 28.408009], [-81.5648522, 28.4080455], [-81.5648442, 28.4080727], [-81.5648368, 28.4080962], [-81.5648267, 28.4081187], [-81.5648073, 28.4081423], [-81.5645102, 28.4084778], [-81.564413, 28.4085982], [-81.5642994, 28.4087343], [-81.5642389, 28.4088069], [-81.5641363, 28.4087661], [-81.5640503, 28.4086985], [-81.5638991, 28.4086789], [-81.5636412, 28.4086681], [-81.5634803, 28.4086698], [-81.56344, 28.4086481], [-81.5633047, 28.4085992], [-81.5631946, 28.4086136], [-81.5628443, 28.4086789], [-81.5625883, 28.4087371], [-81.5625533, 28.408688], [-81.5624052, 28.4087007], [-81.5622815, 28.4087643], [-81.5622196, 28.4088841], [-81.5621968, 28.4089417], [-81.562104, 28.4089454], [-81.5619926, 28.4089327], [-81.5617063, 28.4090052], [-81.5615742, 28.4090779], [-81.5613554, 28.4092194], [-81.5611347, 28.4094008], [-81.5609845, 28.4095062], [-81.56097, 28.4096093], [-81.5609577, 28.409758], [-81.5609412, 28.409827], [-81.5611384, 28.4099475], [-81.5611899, 28.4099747], [-81.5612477, 28.4100147], [-81.5612704, 28.4100855], [-81.5613928, 28.4102891], [-81.5612728, 28.4102897], [-81.5611682, 28.4103109], [-81.5608245, 28.4103694], [-81.5608204, 28.4104378], [-81.5607789, 28.4105145], [-81.5607346, 28.4105711], [-81.5606877, 28.4106106], [-81.5605576, 28.4106825], [-81.56047, 28.4107272], [-81.5604748, 28.410784], [-81.5604292, 28.4108005], [-81.5603743, 28.4108064], [-81.5603327, 28.4107981], [-81.5602938, 28.4107816], [-81.5601852, 28.410653], [-81.5601677, 28.4106271], [-81.560157, 28.4105999], [-81.5601583, 28.4105704], [-81.560212, 28.4105079], [-81.5602536, 28.4105362], [-81.5603059, 28.4105646], [-81.5603501, 28.4105775], [-81.560393, 28.4105893], [-81.5604534, 28.4105716], [-81.5605231, 28.4104973], [-81.5605781, 28.41039], [-81.5606076, 28.4102484], [-81.5605982, 28.4100727], [-81.5605352, 28.4099158], [-81.5604467, 28.4097447], [-81.5603783, 28.4096398], [-81.5602629, 28.4095395], [-81.5601208, 28.4094251], [-81.5600283, 28.4093236], [-81.5599411, 28.4092304], [-81.5598794, 28.4091278], [-81.5598392, 28.4089391], [-81.5598003, 28.4087916], [-81.5597426, 28.4086454], [-81.5596554, 28.4085156], [-81.5595106, 28.4083788], [-81.5593698, 28.4083198], [-81.5591887, 28.408295], [-81.559072, 28.4082879], [-81.559001, 28.408308], [-81.5590573, 28.4084625], [-81.5590036, 28.4084625], [-81.5589715, 28.4084554], [-81.5589446, 28.4084377], [-81.5589259, 28.4084059], [-81.5589138, 28.4082938], [-81.5589098, 28.4081759], [-81.5589111, 28.4080732], [-81.5589205, 28.4079765], [-81.5591378, 28.4079482], [-81.5591686, 28.4080025], [-81.5592209, 28.4080803], [-81.5593148, 28.4081393], [-81.5593926, 28.4081617], [-81.5595294, 28.408203], [-81.5596353, 28.4082313], [-81.5597292, 28.408236], [-81.5598097, 28.4082077], [-81.5598941, 28.4081428], [-81.5599599, 28.4080673], [-81.5599692, 28.4080178], [-81.5600417, 28.4079411], [-81.5601221, 28.4078314], [-81.5601637, 28.4077477], [-81.5601597, 28.407691], [-81.5601731, 28.4076167], [-81.5603032, 28.4074988], [-81.5603796, 28.4074079], [-81.5604453, 28.4073466], [-81.5605406, 28.40729], [-81.5606224, 28.4072452], [-81.5606988, 28.407218], [-81.560731, 28.4071531], [-81.5608557, 28.4071142], [-81.5609858, 28.4070824], [-81.5611052, 28.4070706], [-81.5612299, 28.4070446], [-81.5612956, 28.4070187], [-81.5613814, 28.406942], [-81.5614485, 28.4068559], [-81.5614994, 28.4067733], [-81.5615182, 28.4067013], [-81.5615316, 28.4065987], [-81.5614968, 28.4064749], [-81.5614606, 28.4063899], [-81.5613747, 28.4062838], [-81.5612607, 28.4062047], [-81.5611467, 28.4061835], [-81.5610314, 28.4061823], [-81.5609053, 28.406187], [-81.5607739, 28.4062389], [-81.5605955, 28.4063085], [-81.5604869, 28.4063498], [-81.5603662, 28.4064053], [-81.5602844, 28.4064265], [-81.5601074, 28.4064489], [-81.5599317, 28.4064784], [-81.5597721, 28.4065209], [-81.5596568, 28.4065987], [-81.5595468, 28.4066966], [-81.5594248, 28.4068146], [-81.5592638, 28.4069727], [-81.5591887, 28.4070564], [-81.5591927, 28.4071166], [-81.5592169, 28.4071697], [-81.5592585, 28.4072133], [-81.5592933, 28.4072369], [-81.5592974, 28.4072558], [-81.5592866, 28.4072687], [-81.5592598, 28.4072735], [-81.5592182, 28.4072746], [-81.5591767, 28.4072711], [-81.5591163, 28.4072617], [-81.5590667, 28.4072499], [-81.5590466, 28.4072393], [-81.5590264, 28.4072204], [-81.5590117, 28.4071956], [-81.5590036, 28.4071744], [-81.5591901, 28.4067898], [-81.5592263, 28.4067214], [-81.5592558, 28.4066494], [-81.5592746, 28.4065905], [-81.559288, 28.4065445], [-81.5592987, 28.4064855], [-81.5593027, 28.4064159], [-81.5592974, 28.4063451], [-81.559288, 28.4062826], [-81.5594502, 28.4062684], [-81.5594408, 28.4061351], [-81.5593497, 28.4060431], [-81.5592759, 28.4060526], [-81.5592518, 28.406029], [-81.5592169, 28.4059936], [-81.5591807, 28.4059865], [-81.5591015, 28.4058107], [-81.5591002, 28.4057812], [-81.559115, 28.4057506], [-81.5591391, 28.4057305], [-81.5592491, 28.4056975], [-81.5593054, 28.4056798], [-81.5593389, 28.4056715], [-81.5593738, 28.4056692], [-81.5593993, 28.4056751], [-81.5593885, 28.4057305], [-81.5593832, 28.4058001], [-81.5593832, 28.4058461], [-81.559418, 28.4059334], [-81.5594489, 28.4060101], [-81.5594945, 28.4060879], [-81.5595441, 28.4061398], [-81.5596058, 28.4061811], [-81.559642, 28.4061965], [-81.5597171, 28.4061953], [-81.5597922, 28.4061764], [-81.5598982, 28.4061599], [-81.5599719, 28.4061363], [-81.5600658, 28.4061375], [-81.5601905, 28.4061375], [-81.5603273, 28.4061257], [-81.5604266, 28.4061033], [-81.5605137, 28.4060761], [-81.5606438, 28.4060242], [-81.5606988, 28.4059747], [-81.560735, 28.4059299], [-81.5607632, 28.4058685], [-81.5607806, 28.4058178], [-81.5608182, 28.4057576], [-81.560845, 28.4056774], [-81.5608396, 28.4055996], [-81.5608061, 28.4054934], [-81.5607739, 28.4054132], [-81.5607444, 28.4053601], [-81.5607699, 28.405333], [-81.5608503, 28.4053365], [-81.5608986, 28.4053023], [-81.5609268, 28.4052858], [-81.5609818, 28.4052787], [-81.561018, 28.4052775], [-81.5610435, 28.4052917], [-81.5610596, 28.4053247], [-81.5610569, 28.4053648], [-81.5610971, 28.4053955], [-81.5611306, 28.405425], [-81.5611601, 28.4054462], [-81.5612057, 28.4054486], [-81.5612379, 28.4054403], [-81.5612607, 28.4054144], [-81.5612929, 28.4054014], [-81.5613479, 28.4054049], [-81.5613868, 28.405412], [-81.5614123, 28.4054309], [-81.5614351, 28.4054474], [-81.5614538, 28.4054663], [-81.561482, 28.4054533], [-81.5614753, 28.4054155], [-81.5614968, 28.4053672], [-81.5615343, 28.4053672], [-81.5615799, 28.4053766], [-81.561647, 28.4053778], [-81.5616832, 28.4053731], [-81.5617288, 28.4053365], [-81.5617543, 28.40532], [-81.5617891, 28.4053377], [-81.5618106, 28.4054002], [-81.5618495, 28.4054155], [-81.5619004, 28.4054179], [-81.5619474, 28.4053872], [-81.562005, 28.4053495], [-81.5620171, 28.4053117], [-81.5620426, 28.4052775], [-81.5622451, 28.4052917], [-81.5623434, 28.4053846], [-81.5624078, 28.4054287], [-81.5626223, 28.4055261], [-81.5631408, 28.4055922], [-81.5636309, 28.4055639], [-81.5638132, 28.4054853], [-81.5639991, 28.4054065], [-81.5640241, 28.4053279], [-81.5639884, 28.4051611], [-81.5640493, 28.4051203], [-81.5641441, 28.4050852]]]}, "properties": {"kind": "wood", "name": null, "highway": null}}, {"type": "Feature", "geometry": {"type": "LineString", "coordinates": [[-81.5577024, 28.4036882], [-81.5576789, 28.4036992], [-81.5576384, 28.4037181]]}, "properties": {"kind": "trail", "name": null, "highway": "footway"}}, {"type": "Feature", "geometry": {"type": "LineString", "coordinates": [[-81.5576384, 28.4037181], [-81.5576096, 28.4037316]]}, "properties": {"kind": "trail", "name": null, "highway": "footway"}}]}