{"type": "FeatureCollection", "features": [{"type": "Feature", "geometry": {"type": "LineString", "coordinates": [[-81.5570245, 28.4023338], [-81.5565658, 28.4025155], [-81.5563417, 28.4026469], [-81.5561443, 28.402896], [-81.5560242, 28.4031225], [-81.5559641, 28.4033867], [-81.5559757, 28.4037042], [-81.5559668, 28.4038658], [-81.5559641, 28.4039152], [-81.5559525, 28.4040693], [-81.5558954, 28.4042701], [-81.5557842, 28.4046143], [-81.555737, 28.4048008], [-81.5557236, 28.4049993], [-81.5557237, 28.4053119], [-81.5557223, 28.4053948], [-81.5557182, 28.4055614], [-81.5557348, 28.4058163]]}, "properties": {"kind": "road", "name": "Big Pine Trail", "highway": "unclassified"}}, {"type": "Feature", "geometry": {"type": "LineString", "coordinates": [[-81.5565897, 28.4008482], [-81.5565912, 28.4009721], [-81.5565844, 28.401117], [-81.5565699, 28.4012577], [-81.5565754, 28.4013714], [-81.556594, 28.4014859], [-81.5566302, 28.4015847], [-81.5566919, 28.4017029], [-81.5568693, 28.4019131]]}, "properties": {"kind": "road", "name": "Fort Wilderness Trail", "highway": "unclassified"}}, {"type": "Feature", "geometry": {"type": "LineString", "coordinates": [[-81.5568693, 28.4019131], [-81.5567879, 28.4016658], [-81.5567674, 28.401453], [-81.5567375, 28.401265], [-81.5567071, 28.4011389], [-81.5566637, 28.4010232], [-81.5565897, 28.4008482]]}, "properties": {"kind": "road", "name": "Fort Wilderness Trail", "highway": "unclassified"}}, {"type": "Feature", "geometry": {"type": "LineString", "coordinates": [[-81.5568693, 28.4019131], [-81.5570245, 28.4023338]]}, "properties": {"kind": "road", "name": "Fort Wilderness Trail", "highway": "unclassified"}}, {"type": "Feature", "geometry": {"type": "LineString", "coordinates": [[-81.5575867, 28.4036942], [-81.5576096, 28.4037316], [-81.5576856, 28.4038556], [-81.5576923, 28.403891], [-81.557691, 28.4039264], [-81.5577017, 28.4039618], [-81.5577299, 28.403996], [-81.5577996, 28.4040384], [-81.5578278, 28.4040738], [-81.5578399, 28.4041092], [-81.5578519, 28.4041363], [-81.5578868, 28.4041635], [-81.5579176, 28.4041871], [-81.5579351, 28.404226], [-81.5579485, 28.4042567], [-81.557986, 28.4042932], [-81.5580402, 28.4043589], [-81.5582512, 28.4046272], [-81.5582874, 28.4046861], [-81.5583424, 28.4048206], [-81.5584108, 28.4049433], [-81.5584953, 28.4051073], [-81.5585462, 28.4051851], [-81.5585881, 28.4052268], [-81.5587353, 28.4053231], [-81.5587863, 28.4053633], [-81.5588198, 28.4054034], [-81.5589526, 28.4056936], [-81.55895, 28.4057329], [-81.5590445, 28.4059217], [-81.5591389, 28.406133], [-81.5591904, 28.4062916], [-81.5591818, 28.4064501], [-81.5591475, 28.4065709], [-81.559096, 28.4066389], [-81.5590874, 28.4066917], [-81.5590874, 28.4067597], [-81.5590187, 28.4068352], [-81.5589415, 28.4069484], [-81.5589071, 28.4070466], [-81.5588791, 28.4071566], [-81.5588473, 28.4072214]]}, "properties": {"kind": "trail", "name": null, "highway": "footway"}}, {"type": "Feature", "geometry": {"type": "LineString", "coordinates": [[-81.5565925, 28.4025823], [-81.5566475, 28.4025611], [-81.5566962, 28.4025466], [-81.5567551, 28.4025341], [-81.556808, 28.4025301], [-81.5568749, 28.4025368], [-81.5569357, 28.4025453], [-81.5569951, 28.4025559], [-81.5571396, 28.4025856], [-81.5572005, 28.4025997], [-81.557273, 28.4026182], [-81.5573282, 28.4026386], [-81.5573826, 28.4026614], [-81.5574234, 28.4026885], [-81.5574618, 28.4027198], [-81.5574939, 28.4027552], [-81.5575202, 28.4027891], [-81.557551, 28.4028262], [-81.5575747, 28.4028533], [-81.5575988, 28.4028961]]}, "properties": {"kind": "trail", "name": null, "highway": "footway"}}, {"type": "Feature", "geometry": {"type": "LineString", "coordinates": [[-81.5575863, 28.4035302], [-81.5574295, 28.4035854], [-81.5573048, 28.4036421]]}, "properties": {"kind": "road", "name": null, "highway": "service"}}, {"type": "Feature", "geometry": {"type": "LineString", "coordinates": [[-81.5570727, 28.4034934], [-81.5572323, 28.4035713], [-81.5573048, 28.4036421], [-81.5573061, 28.4037042], [-81.5572889, 28.403825], [-81.5572803, 28.4039533]]}, "properties": {"kind": "road", "name": null, "highway": "service"}}, {"type": "Feature", "geometry": {"type": "LineString", "coordinates": [[-81.5572803, 28.4039533], [-81.5571344, 28.4039609], [-81.5570314, 28.4039609], [-81.5568941, 28.403976], [-81.5567825, 28.4040213], [-81.5566709, 28.4040364], [-81.5566122, 28.4040364], [-81.5565594, 28.4040364], [-81.556422, 28.4040364], [-81.556351, 28.4040718], [-81.5563166, 28.4041397], [-81.5562909, 28.4042001], [-81.5562823, 28.4042832], [-81.5562995, 28.4043738], [-81.5563338, 28.4044417], [-81.5563963, 28.4044969], [-81.5565422, 28.4045573], [-81.5566881, 28.4045875], [-81.5568426, 28.4046328], [-81.556937, 28.4046555], [-81.55704, 28.4047159], [-81.5570915, 28.4047838], [-81.5571602, 28.4048291], [-81.5572632, 28.4048593], [-81.5573833, 28.4048291], [-81.5574949, 28.4047461], [-81.5575808, 28.4046479], [-81.5575893, 28.4045422], [-81.5575464, 28.4044139], [-81.5574778, 28.4043233], [-81.5574005, 28.4041949], [-81.5573404, 28.4040515], [-81.5572803, 28.4039533]]}, "properties": {"kind": "road", "name": "Tumbleweed Turn", "highway": "service"}}, {"type": "Feature", "geometry": {"type": "LineString", "coordinates": [[-81.5570727, 28.4034934], [-81.5570915, 28.4033795], [-81.5570829, 28.4032663], [-81.5570229, 28.4031455], [-81.5569885, 28.4030021], [-81.5569199, 28.402919], [-81.5567911, 28.4028662], [-81.5566771, 28.4028638], [-81.5565484, 28.4029091], [-81.556454, 28.4030072], [-81.5564025, 28.4031356], [-81.5563596, 28.4032488], [-81.5563362, 28.4033493], [-81.5563791, 28.4034475], [-81.5564564, 28.4035532], [-81.5565937, 28.4036287], [-81.5567139, 28.4036287], [-81.556834, 28.4035834], [-81.5569199, 28.4035381], [-81.5570229, 28.4035003], [-81.5570727, 28.4034934]]}, "properties": {"kind": "road", "name": "Dogwood Drive", "highway": "service"}}, {"type": "Feature", "geometry": {"type": "LineString", "coordinates": [[-81.5590227, 28.4014694], [-81.5587051, 28.4014921], [-81.5583961, 28.4015298], [-81.5581644, 28.4015676], [-81.5579069, 28.4016204], [-81.5577267, 28.4016204], [-81.5575808, 28.4015902], [-81.5574606, 28.4014921], [-81.5573748, 28.4013864], [-81.5573576, 28.4012731], [-81.5574177, 28.401175], [-81.5574949, 28.4010844], [-81.5576065, 28.4010013], [-81.5577438, 28.400956], [-81.5579069, 28.4009711], [-81.55807, 28.4009636], [-81.5583275, 28.4009636], [-81.5586107, 28.400956], [-81.5587652, 28.4009711], [-81.5589197, 28.4010466], [-81.558997, 28.4011674], [-81.5590141, 28.4013109], [-81.5590227, 28.4014694]]}, "properties": {"kind": "road", "name": "Arrowhead Way", "highway": "service"}}, {"type": "Feature", "geometry": {"type": "LineString", "coordinates": [[-81.5594197, 28.4018348], [-81.5594063, 28.4014609], [-81.5593996, 28.4011223], [-81.5593794, 28.4009147], [-81.5593271, 28.4007578], [-81.5592544, 28.4005785], [-81.5592115, 28.4004351], [-81.559203, 28.4002916], [-81.5592051, 28.4000948], [-81.5591836, 28.3998789], [-81.5591171, 28.3996121], [-81.5591, 28.3994234], [-81.5591085, 28.3992497], [-81.5591343, 28.399076], [-81.55916, 28.3989326], [-81.5591662, 28.398895], [-81.559189, 28.3987452], [-81.5591772, 28.3986532], [-81.5591085, 28.3984947], [-81.5590227, 28.3983814], [-81.558851, 28.3982682], [-81.5586536, 28.3982153], [-81.5578125, 28.3981096], [-81.5576237, 28.3980568], [-81.5574434, 28.3979813], [-81.5573061, 28.3978907], [-81.5572055, 28.3978427], [-81.5570981, 28.3978158], [-81.5569199, 28.3978152], [-81.5567334, 28.3978663], [-81.5565511, 28.3979819], [-81.5564317, 28.3980633], [-81.5562504, 28.3982229], [-81.556113, 28.3982984], [-81.55595, 28.3983437], [-81.5557697, 28.3984041], [-81.555538, 28.3985173], [-81.5551282, 28.3987543]]}, "properties": {"kind": "road", "name": "Peacock Pass", "highway": "unclassified"}}, {"type": "Feature", "geometry": {"type": "LineString", "coordinates": [[-81.5603702, 28.4023754], [-81.5603016, 28.4024962], [-81.5602587, 28.4026397], [-81.5602563, 28.4028789], [-81.5602305, 28.4031582], [-81.5601876, 28.4034451], [-81.5601104, 28.4036037], [-81.5600098, 28.4036891], [-81.5598896, 28.4037721], [-81.5597265, 28.4038627], [-81.559695, 28.4038904], [-81.5596235, 28.4039533], [-81.5596149, 28.4040892], [-81.5597265, 28.4042402], [-81.5598467, 28.4043459], [-81.5600012, 28.4044365], [-81.5601557, 28.4044818], [-81.5603188, 28.4044592], [-81.5604647, 28.4044214], [-81.5605803, 28.4044163], [-81.560808, 28.4044063], [-81.5610054, 28.4044139], [-81.5611341, 28.4043912], [-81.56122, 28.4043233], [-81.5612715, 28.4042402], [-81.5612629, 28.4041194], [-81.5611942, 28.4039911], [-81.5611084, 28.4038476], [-81.5609968, 28.4035909], [-81.5609367, 28.4034097], [-81.5608938, 28.4032134], [-81.5608595, 28.4030172], [-81.5607737, 28.4028284], [-81.5606277, 28.402617], [-81.560499, 28.4024736], [-81.5603702, 28.4023754]]}, "properties": {"kind": "road", "name": "Spanish Moss Lane", "highway": "service"}}, {"type": "Feature", "geometry": {"type": "LineString", "coordinates": [[-81.5575863, 28.4035302], [-81.5576965, 28.4034953]]}, "properties": {"kind": "road", "name": null, "highway": "service"}}, {"type": "Feature", "geometry": {"type": "LineString", "coordinates": [[-81.5578731, 28.4035165], [-81.5579481, 28.4035546], [-81.5580023, 28.4036014], [-81.558047, 28.4036909], [-81.5580957, 28.4037948], [-81.5582245, 28.4038552], [-81.5583704, 28.4038854], [-81.5585249, 28.4038627], [-81.5586451, 28.4037646], [-81.558688, 28.4036287], [-81.5587137, 28.4035154], [-81.5586708, 28.4034173], [-81.5585592, 28.4033342], [-81.5584648, 28.4032285], [-81.5584391, 28.4031078], [-81.5584452, 28.4029846], [-81.5584091, 28.4029245], [-81.558368, 28.4028562], [-81.5582392, 28.4027656], [-81.5580247, 28.402743], [-81.5578812, 28.4027907], [-81.5577867, 28.4028813], [-81.5577782, 28.4030474], [-81.5578086, 28.4032209], [-81.5578165, 28.4032785], [-81.557816, 28.4033258], [-81.5578159, 28.4033791], [-81.5578266, 28.4034333], [-81.5578421, 28.4034793], [-81.5578731, 28.4035165]]}, "properties": {"kind": "road", "name": "Possum Path", "highway": "service"}}, {"type": "Feature", "geometry": {"type": "LineString", "coordinates": [[-81.5588031, 28.4052879], [-81.558894, 28.4052443], [-81.5590055, 28.4051915], [-81.5591171, 28.4051009], [-81.5591686, 28.4049348], [-81.5591944, 28.4047989], [-81.5591772, 28.4046253], [-81.5590656, 28.4044894], [-81.5589111, 28.4043912], [-81.5587062, 28.4043593], [-81.5585211, 28.40441], [-81.5584059, 28.4044941], [-81.5582985, 28.4045941]]}, "properties": {"kind": "road", "name": "Racoon Lane", "highway": "service"}}, {"type": "Feature", "geometry": {"type": "LineString", "coordinates": [[-81.5594197, 28.4018348], [-81.5594143, 28.4019469], [-81.5594304, 28.4020519], [-81.5594347, 28.402164]]}, "properties": {"kind": "road", "name": null, "highway": "service"}}, {"type": "Feature", "geometry": {"type": "LineString", "coordinates": [[-81.5594347, 28.402164], [-81.5591171, 28.4021942], [-81.5588596, 28.4022622], [-81.5587309, 28.4023452], [-81.5587147, 28.4023986], [-81.5586966, 28.4024585], [-81.5587223, 28.4026019], [-81.5588253, 28.402685], [-81.558954, 28.4028133], [-81.5589775, 28.4028918], [-81.558997, 28.4029568], [-81.5590485, 28.4032436], [-81.5590914, 28.4033644], [-81.5591515, 28.4034097], [-81.5592544, 28.4034248], [-81.5593746, 28.4034173], [-81.559469, 28.4033644], [-81.5595377, 28.4032587], [-81.559572, 28.4027152], [-81.5595806, 28.4022697], [-81.5595034, 28.4021867], [-81.5594347, 28.402164]]}, "properties": {"kind": "road", "name": "Bobcat Bend", "highway": "service"}}, {"type": "Feature", "geometry": {"type": "LineString", "coordinates": [[-81.5600331, 28.4084959], [-81.5602906, 28.4081033], [-81.5604022, 28.40799], [-81.5605738, 28.4078692], [-81.5609086, 28.4076428], [-81.5612777, 28.4072955], [-81.5615437, 28.4069935], [-81.5616896, 28.4067444], [-81.5617841, 28.4064726], [-81.5618356, 28.4061781], [-81.5618098, 28.4059441], [-81.5617669, 28.4058309], [-81.5616982, 28.405778], [-81.5615094, 28.4057629], [-81.5612433, 28.405778], [-81.5612004, 28.4057554], [-81.5607884, 28.4051665], [-81.5607198, 28.4050968], [-81.5606339, 28.4050457], [-81.5605418, 28.4050029], [-81.5602958, 28.4049171], [-81.5599818, 28.4048133], [-81.5598618, 28.4047562], [-81.5597676, 28.4046918], [-81.5596632, 28.4046084], [-81.5593012, 28.4042267], [-81.5592604, 28.4041887], [-81.5592122, 28.4041353], [-81.5591905, 28.4040762], [-81.5591919, 28.4040202], [-81.5592021, 28.4039639], [-81.5592177, 28.4039023], [-81.5592369, 28.4038475], [-81.5592673, 28.4037959], [-81.5593176, 28.4037508], [-81.559361, 28.4037282], [-81.5594427, 28.4037025], [-81.559527, 28.4036627], [-81.5596267, 28.4036063], [-81.5597119, 28.4035509]]}, "properties": {"kind": "water", "name": null, "highway": null}}, {"type": "Feature", "geometry": {"type": "LineString", "coordinates": [[-81.5566573, 28.4039566], [-81.5566422, 28.403865], [-81.5568313, 28.403845], [-81.5568434, 28.4039346], [-81.5566573, 28.4039566]]}, "properties": {"kind": "comfort", "name": "Comfort Station", "highway": null}}, {"type": "Feature", "geometry": {"type": "LineString", "coordinates": [[-81.5580402, 28.4043589], [-81.5580154, 28.4045241], [-81.5579835, 28.4047312], [-81.5579527, 28.4048523], [-81.55794, 28.4049175], [-81.5579314, 28.4049886], [-81.5579286, 28.4050598], [-81.5579394, 28.4051196], [-81.5579606, 28.4051845], [-81.5579932, 28.4052369], [-81.5580691, 28.4053053], [-81.5581604, 28.4053781], [-81.5582087, 28.4054013], [-81.5582548, 28.4054234], [-81.5583492, 28.4054838], [-81.5584436, 28.4055744], [-81.5585037, 28.4056876], [-81.558581, 28.4058009]]}, "properties": {"kind": "trail", "name": null, "highway": "footway"}}, {"type": "Feature", "geometry": {"type": "Polygon", "coordinates": [[[-81.5575649, 28.4036185], [-81.5575073, 28.4036397], [-81.5575408, 28.4037117], [-81.5575867, 28.4036942], [-81.5575998, 28.4036893], [-81.5575649, 28.4036185]]]}, "properties": {"kind": "building", "name": null, "highway": null}}, {"type": "Feature", "geometry": {"type": "LineString", "coordinates": [[-81.5536543, 28.3970051], [-81.5536886, 28.3970731], [-81.5537144, 28.3971788], [-81.5537401, 28.3972241], [-81.5537916, 28.3972467], [-81.5538345, 28.3973071], [-81.5539375, 28.3974657], [-81.553989, 28.397579], [-81.5540663, 28.3976771], [-81.5541349, 28.3977979], [-81.5542036, 28.3978961], [-81.5542637, 28.3979565], [-81.5543324, 28.3980546], [-81.5544096, 28.3981377], [-81.554504, 28.3982585], [-81.5545984, 28.3983415], [-81.5546843, 28.3984246], [-81.5547958, 28.3985152], [-81.5548903, 28.3986058], [-81.5549565, 28.3987027], [-81.5550195, 28.3987995], [-81.5550182, 28.3988596], [-81.5549699, 28.3989469], [-81.5549431, 28.3990212], [-81.5549457, 28.3991109], [-81.5552336, 28.3996681], [-81.5554551, 28.4000619], [-81.5554922, 28.4001218], [-81.5555469, 28.4001992], [-81.5555913, 28.4002457], [-81.5556505, 28.4003067], [-81.5558172, 28.4004782], [-81.5558609, 28.4005211], [-81.5559179, 28.4005856], [-81.5559446, 28.400632], [-81.5559642, 28.4006657], [-81.5559916, 28.4007021], [-81.5560261, 28.4007328], [-81.5560681, 28.4007604], [-81.5561012, 28.4008012], [-81.5561126, 28.4008455], [-81.5561218, 28.4008986], [-81.5561683, 28.4011246], [-81.5562071, 28.4012756], [-81.5562317, 28.401397], [-81.5562429, 28.4014663], [-81.5562643, 28.4015362], [-81.5562831, 28.4015865], [-81.5563072, 28.4016356], [-81.5565456, 28.402241], [-81.5565687, 28.4023294], [-81.5565673, 28.4023984], [-81.5565587, 28.4024528], [-81.556554, 28.4024832], [-81.5565658, 28.4025155], [-81.5565925, 28.4025823]]}, "properties": {"kind": "trail", "name": null, "highway": "footway"}}, {"type": "Feature", "geometry": {"type": "LineString", "coordinates": [[-81.5591836, 28.4019091], [-81.5592426, 28.4018997], [-81.5593124, 28.401915], [-81.5594143, 28.4019469], [-81.5595015, 28.4019705]]}, "properties": {"kind": "trail", "name": null, "highway": "footway"}}, {"type": "Feature", "geometry": {"type": "LineString", "coordinates": [[-81.5590281, 28.3994129], [-81.5590509, 28.399499], [-81.5590401, 28.3995262], [-81.559012, 28.3995462], [-81.5590053, 28.3995899], [-81.5590322, 28.399628], [-81.5590643, 28.3996724], [-81.5590857, 28.3997456], [-81.5591072, 28.399788], [-81.5591112, 28.3998553], [-81.5591233, 28.3999202], [-81.5591287, 28.4000452], [-81.5591501, 28.4001101], [-81.5591461, 28.4001443], [-81.5591541, 28.4002009], [-81.5591407, 28.4002387], [-81.5591447, 28.4002859], [-81.5591447, 28.4003272], [-81.5591541, 28.4003626], [-81.5591367, 28.4004156], [-81.5591394, 28.4004487], [-81.5591568, 28.4004746], [-81.5591836, 28.4005584], [-81.5592051, 28.4006103], [-81.5592145, 28.4006504], [-81.5592346, 28.4006882], [-81.5592614, 28.4007141], [-81.5592722, 28.4007861], [-81.559303, 28.4008439], [-81.5593084, 28.4009111], [-81.5593285, 28.4009512], [-81.5593298, 28.4009961], [-81.5593473, 28.4010539], [-81.5593459, 28.4010975], [-81.5593379, 28.4011423], [-81.5593459, 28.4011801], [-81.5593405, 28.4012119], [-81.5593432, 28.4012414], [-81.5593312, 28.4013193], [-81.5593338, 28.40137], [-81.5593124, 28.4014573], [-81.5592735, 28.4016001], [-81.5592453, 28.4016567], [-81.5592225, 28.4017263], [-81.559181, 28.4017593], [-81.5591702, 28.40181], [-81.5591757, 28.4018511], [-81.5591836, 28.4019091]]}, "properties": {"kind": "trail", "name": null, "highway": "footway"}}, {"type": "Feature", "geometry": {"type": "LineString", "coordinates": [[-81.5635504, 28.4044915], [-81.5634271, 28.4044738], [-81.5633131, 28.4044691], [-81.5631816, 28.4044915], [-81.5630631, 28.4045399], [-81.5629303, 28.4046331], [-81.5628244, 28.4046897], [-81.5627171, 28.4047286], [-81.5626245, 28.4047463], [-81.5625333, 28.4047522], [-81.5624046, 28.4047321], [-81.5623, 28.404692], [-81.5621525, 28.404613], [-81.5619461, 28.4043554], [-81.5616117, 28.4039379], [-81.5614315, 28.4036132], [-81.5611654, 28.4027677], [-81.5609508, 28.4024355], [-81.5608404, 28.4022998], [-81.5607019, 28.4021863], [-81.5605505, 28.4020961], [-81.5604101, 28.4020202], [-81.5600839, 28.401907], [-81.5597664, 28.4018466], [-81.5594197, 28.4018348]]}, "properties": {"kind": "road", "name": "Frontier Way", "highway": "unclassified"}}, {"type": "Feature", "geometry": {"type": "LineString", "coordinates": [[-81.5575988, 28.4028961], [-81.5576025, 28.403015], [-81.5576025, 28.4031056], [-81.5576368, 28.4032339], [-81.5577209, 28.4034354], [-81.5577313, 28.4034604], [-81.5577477, 28.4034951], [-81.5577594, 28.4035197], [-81.5578144, 28.4036359], [-81.5579029, 28.4038228], [-81.5580231, 28.4041097], [-81.5580541, 28.4042002], [-81.5580545, 28.4042404], [-81.5580549, 28.4042859], [-81.5580402, 28.4043589]]}, "properties": {"kind": "trail", "name": null, "highway": "footway"}}, {"type": "Feature", "geometry": {"type": "Polygon", "coordinates": [[[-81.5569306, 28.402314], [-81.556554, 28.4024832], [-81.5565587, 28.4024528], [-81.5564674, 28.4025014], [-81.5563602, 28.4025745], [-81.5562904, 28.4026241], [-81.556226, 28.4026194], [-81.5561885, 28.4025863], [-81.5562046, 28.4025368], [-81.5562475, 28.4024825], [-81.5562985, 28.4023905], [-81.5563387, 28.4022914], [-81.5563387, 28.4021876], [-81.5562985, 28.4020555], [-81.5562439, 28.4019468], [-81.5561831, 28.4018573], [-81.5560919, 28.401803], [-81.5560142, 28.4017629], [-81.5558881, 28.4017393], [-81.5557379, 28.4017323], [-81.5556252, 28.4017393], [-81.5555553, 28.4017502], [-81.555467, 28.4017629], [-81.5553597, 28.40177], [-81.5552551, 28.40177], [-81.5551854, 28.4017535], [-81.5551263, 28.4017134], [-81.5551022, 28.4016355], [-81.5550861, 28.4015152], [-81.5550539, 28.4013854], [-81.5549681, 28.4012415], [-81.554901, 28.4011636], [-81.554783, 28.4010905], [-81.5546435, 28.4010669], [-81.5544933, 28.4010669], [-81.5543619, 28.4010976], [-81.5542063, 28.4011778], [-81.5540669, 28.4012769], [-81.5539542, 28.4014137], [-81.5539006, 28.4016048], [-81.5538362, 28.4018809], [-81.5538174, 28.4020437], [-81.5538416, 28.4021735], [-81.5538711, 28.4023386], [-81.5538952, 28.4025651], [-81.5538952, 28.4027067], [-81.5538872, 28.402919], [-81.553855, 28.4030747], [-81.5538174, 28.4031644], [-81.5536672, 28.4031927], [-81.5534607, 28.4032871], [-81.5533159, 28.4033838], [-81.5531576, 28.4035065], [-81.5530315, 28.4036127], [-81.5529296, 28.4036976], [-81.5528894, 28.4037778], [-81.5528572, 28.4038627], [-81.5528062, 28.4038793], [-81.5527124, 28.4038816], [-81.5526533, 28.4038675], [-81.5525434, 28.4037707], [-81.5524039, 28.4036528], [-81.5521384, 28.4034947], [-81.5519426, 28.403405], [-81.5517789, 28.4033201], [-81.551618, 28.4032399], [-81.5514464, 28.403188], [-81.5512693, 28.4031408], [-81.5511218, 28.4031148], [-81.5509585, 28.4030726], [-81.5509374, 28.4030277], [-81.5509906, 28.4029735], [-81.5510684, 28.4028721], [-81.5510874, 28.402853], [-81.5510387, 28.4027774], [-81.5509853, 28.4027352], [-81.5509233, 28.4026784], [-81.5508697, 28.4026453], [-81.5508429, 28.4026288], [-81.5508351, 28.402596], [-81.5508378, 28.4025441], [-81.5508619, 28.4025016], [-81.5509075, 28.4024261], [-81.5509421, 28.4023622], [-81.5509662, 28.4023056], [-81.5510121, 28.402235], [-81.5510523, 28.4021996], [-81.5511379, 28.4021357], [-81.5512294, 28.4020911], [-81.5513179, 28.4020604], [-81.5514168, 28.4020177], [-81.551452, 28.4019991], [-81.5514816, 28.4019018], [-81.5515507, 28.4014626], [-81.5514771, 28.4013876], [-81.5512964, 28.4012913], [-81.5512079, 28.4012134], [-81.5511486, 28.4011518], [-81.5511113, 28.4010955], [-81.5510523, 28.40102], [-81.5510092, 28.4009725], [-81.5509823, 28.4009253], [-81.5509638, 28.4008642], [-81.5509799, 28.40081], [-81.5510011, 28.400772], [-81.5510711, 28.4007463], [-81.5511248, 28.4007439], [-81.5511811, 28.4007604], [-81.5512401, 28.4007793], [-81.5512613, 28.4007083], [-81.5513018, 28.4006472], [-81.5513632, 28.4005856], [-81.5514329, 28.4005266], [-81.5515137, 28.4004631], [-81.5515754, 28.4004018], [-81.5515966, 28.4003402], [-81.5515995, 28.4002697], [-81.5515831, 28.4002057], [-81.5515456, 28.4001161], [-81.5515003, 28.4000196], [-81.5514761, 28.3999346], [-81.5516102, 28.3998214], [-81.5518138, 28.3998565], [-81.5519696, 28.39997], [-81.5521333, 28.4001423], [-81.5522379, 28.4002107], [-81.5523073, 28.4002435], [-81.5523908, 28.4002319], [-81.5524873, 28.4001989], [-81.5525836, 28.4001491], [-81.5526724, 28.4000786], [-81.5532544, 28.399727], [-81.5533644, 28.3996916], [-81.5534985, 28.3996822], [-81.5536674, 28.3997317], [-81.5537879, 28.3998164], [-81.5540053, 28.3999724], [-81.5541581, 28.4000665], [-81.5544103, 28.3996751], [-81.5542843, 28.399576], [-81.55415, 28.3995333], [-81.5539381, 28.3994932], [-81.5537988, 28.3994982], [-81.5537155, 28.3995215], [-81.5536484, 28.3995545], [-81.5535894, 28.3995781], [-81.5535331, 28.399597], [-81.5534717, 28.3995902], [-81.5534205, 28.3995663], [-81.5533912, 28.3995147], [-81.5533859, 28.3994675], [-81.5533939, 28.3994226], [-81.5534205, 28.3993894], [-81.5534824, 28.3993755], [-81.5535441, 28.3993707], [-81.5535869, 28.3993471], [-81.5536164, 28.3992764], [-81.5536539, 28.399241], [-81.5537478, 28.3991796], [-81.553831, 28.3991395], [-81.5539569, 28.399085], [-81.5540427, 28.3990355], [-81.5541151, 28.3989836], [-81.5541715, 28.3989175], [-81.5542332, 28.3988562], [-81.5543056, 28.3988444], [-81.5543968, 28.3988514], [-81.5544907, 28.3988703], [-81.5545899, 28.3989246], [-81.554665, 28.3989954], [-81.5547052, 28.3990779], [-81.5547052, 28.3991629], [-81.5547106, 28.3992573], [-81.5547186, 28.3993257], [-81.5547428, 28.3993705], [-81.5548125, 28.3994366], [-81.5548662, 28.399505], [-81.5548796, 28.3995734], [-81.5548796, 28.3996112], [-81.5549493, 28.3996395], [-81.5550191, 28.3997008], [-81.5550325, 28.3997527], [-81.5550325, 28.3998117], [-81.5550298, 28.3999061], [-81.5550378, 28.4000264], [-81.5550915, 28.4000878], [-81.5552444, 28.4001845], [-81.5553838, 28.4002175], [-81.5555367, 28.40026], [-81.5556505, 28.4003067], [-81.5558172, 28.4004782], [-81.5558609, 28.4005211], [-81.5559179, 28.4005856], [-81.5559446, 28.400632], [-81.5559642, 28.4006657], [-81.5559916, 28.4007021], [-81.5560261, 28.4007328], [-81.5560681, 28.4007604], [-81.5561012, 28.4008012], [-81.5561126, 28.4008455], [-81.5561218, 28.4008986], [-81.5563887, 28.401141], [-81.5564365, 28.4013466], [-81.5565428, 28.401627], [-81.5567446, 28.4019308], [-81.5569306, 28.402314]]]}, "properties": {"kind": "wood", "name": null, "highway": null}}, {"type": "Feature", "geometry": {"type": "Polygon", "coordinates": [[[-81.5550477, 28.3948844], [-81.5551363, 28.3947218], [-81.5552812, 28.3944056], [-81.5554635, 28.3942216], [-81.5554528, 28.3939668], [-81.5555118, 28.39366], [-81.5557392, 28.3935817], [-81.5560413, 28.3934769], [-81.5563765, 28.3933448], [-81.5567011, 28.3932504], [-81.5570525, 28.3931419], [-81.5574092, 28.3930357], [-81.5576989, 28.3929389], [-81.5579215, 28.3928516], [-81.5581924, 28.392762], [-81.5585314, 28.3926261], [-81.5587744, 28.3925001], [-81.5590963, 28.3923278], [-81.5593565, 28.3921815], [-81.5595963, 28.3919913], [-81.5599169, 28.391719], [-81.5601234, 28.3915893], [-81.5603112, 28.3914666], [-81.5605163, 28.391359], [-81.5607564, 28.3912683], [-81.5609844, 28.391207], [-81.5611841, 28.3911867], [-81.5613665, 28.3912127], [-81.5616013, 28.3912589], [-81.561747, 28.391315], [-81.561946, 28.391354], [-81.561952, 28.391513], [-81.561927, 28.392278], [-81.561977, 28.392559], [-81.562245, 28.393131], [-81.562661, 28.393698], [-81.562836, 28.394023], [-81.562941, 28.394479], [-81.562991, 28.395118], [-81.562997, 28.395552], [-81.563072, 28.396785], [-81.563141, 28.397044], [-81.56339, 28.397792], [-81.563738, 28.398535], [-81.563956, 28.398914], [-81.564205, 28.399261], [-81.56474, 28.399894], [-81.565026, 28.400169], [-81.565534, 28.4006924], [-81.5654664, 28.4007724], [-81.5654637, 28.4008125], [-81.5654864, 28.4008417], [-81.5655253, 28.4008667], [-81.5656071, 28.4008724], [-81.5656701, 28.4008903], [-81.5656822, 28.4009621], [-81.5656661, 28.4010376], [-81.5656057, 28.4011216], [-81.5655092, 28.4012395], [-81.5653603, 28.4013915], [-81.5651565, 28.4015378], [-81.5649513, 28.4016548], [-81.5648118, 28.4017916], [-81.5646737, 28.4019483], [-81.5645651, 28.4020464], [-81.5644792, 28.4022635], [-81.5644417, 28.4025561], [-81.5643666, 28.4034384], [-81.5643625, 28.4035621], [-81.5643022, 28.4036505], [-81.5642056, 28.403726], [-81.5640997, 28.4037886], [-81.5639106, 28.4038487], [-81.5636692, 28.4040044], [-81.5634136, 28.4042208], [-81.5632312, 28.4043624], [-81.5627377, 28.4046502], [-81.562507, 28.404688], [-81.5622334, 28.4045842], [-81.5616594, 28.4038858], [-81.5614234, 28.4034187], [-81.5613044, 28.4028756], [-81.5613935, 28.4027685], [-81.5614558, 28.4026798], [-81.5614449, 28.4025646], [-81.5614202, 28.4025022], [-81.5613376, 28.4024372], [-81.5609889, 28.4023994], [-81.5607582, 28.4021446], [-81.5600662, 28.4018143], [-81.5595671, 28.4017397], [-81.5595423, 28.4016083], [-81.5597812, 28.4015777], [-81.5599803, 28.4014682], [-81.5602341, 28.4009165], [-81.5605278, 28.4002685], [-81.5604581, 28.3999752], [-81.5604631, 28.3997737], [-81.5606522, 28.3996687], [-81.5607667, 28.3993447], [-81.560717, 28.3990119], [-81.5603436, 28.3986616], [-81.5597414, 28.3987317], [-81.5597364, 28.3984471], [-81.5597812, 28.3983989], [-81.5595472, 28.3981318], [-81.5594079, 28.3981406], [-81.5592237, 28.3982281], [-81.5587508, 28.3978822], [-81.5589236, 28.3976193], [-81.558827, 28.396751], [-81.5588968, 28.3960667], [-81.5587734, 28.39576], [-81.5584247, 28.3955571], [-81.5573304, 28.3955665], [-81.5569388, 28.3957694], [-81.5569241, 28.3963848], [-81.5570535, 28.3971948], [-81.5570286, 28.3976852], [-81.5567748, 28.3977246], [-81.5568644, 28.3973743], [-81.5568494, 28.3967263], [-81.5566437, 28.39576], [-81.5563809, 28.3955052], [-81.5559463, 28.3954816], [-81.5552919, 28.3956373], [-81.5550177, 28.3959557], [-81.5549878, 28.3963541], [-81.554948, 28.3973875], [-81.5551521, 28.397856], [-81.5554557, 28.3981099], [-81.5558689, 28.3981099], [-81.5562173, 28.3979654], [-81.5562621, 28.3980399], [-81.556068, 28.3981493], [-81.5553164, 28.3985084], [-81.5550526, 28.3985434], [-81.5543955, 28.3978516], [-81.5540371, 28.3973393], [-81.5538231, 28.3968445], [-81.5538729, 28.3961877], [-81.5541267, 28.3957499], [-81.554724, 28.395728], [-81.5549081, 28.3955884], [-81.5549027, 28.3951503], [-81.5550477, 28.3948844]]]}, "properties": {"kind": "wood", "name": null, "highway": null}}, {"type": "Feature", "geometry": {"type": "LineString", "coordinates": [[-81.5570245, 28.4023338], [-81.5571396, 28.4025856], [-81.5575863, 28.4035302], [-81.5576789, 28.4036992], [-81.5578266, 28.4039681], [-81.5580549, 28.4042859], [-81.5582985, 28.4045941], [-81.5586271, 28.4050211], [-81.5587196, 28.4051508], [-81.5588031, 28.4052879], [-81.5589252, 28.4054856], [-81.5590345, 28.4057219], [-81.5592256, 28.4061349], [-81.55926, 28.4064821], [-81.5591484, 28.4068219], [-81.5588995, 28.4072597], [-81.5588737, 28.4080298], [-81.5588909, 28.4083016], [-81.5589167, 28.4085054], [-81.5590025, 28.40883], [-81.5592943, 28.4094126], [-81.5593201, 28.4094642], [-81.5599037, 28.4102569], [-81.5600668, 28.4105589], [-81.5602985, 28.410891]]}, "properties": {"kind": "road", "name": "Fort Wilderness Trail", "highway": "unclassified"}}, {"type": "Feature", "geometry": {"type": "LineString", "coordinates": [[-81.5594197, 28.4018348], [-81.5591757, 28.4018511], [-81.5586506, 28.4018994], [-81.5578352, 28.4020731], [-81.5570245, 28.4023338]]}, "properties": {"kind": "road", "name": "Frontier Way", "highway": "unclassified"}}, {"type": "Feature", "geometry": {"type": "Polygon", "coordinates": [[[-81.5607884, 28.4051665], [-81.5608614, 28.4051169], [-81.5609607, 28.4050532], [-81.5610076, 28.4049907], [-81.561013, 28.4049152], [-81.5610478, 28.4048173], [-81.5611082, 28.4047583], [-81.5612141, 28.4046899], [-81.5613456, 28.4046155], [-81.5614998, 28.4045164], [-81.561587, 28.4045164], [-81.5616728, 28.4044681], [-81.561768, 28.4043938], [-81.5618364, 28.4043619], [-81.5617734, 28.4042782], [-81.5616956, 28.4041743], [-81.5616178, 28.4040635], [-81.5614998, 28.4039195], [-81.5613898, 28.4037143], [-81.5613147, 28.4035338], [-81.5612664, 28.4033533], [-81.5612115, 28.4031634], [-81.5611726, 28.4030372], [-81.5611082, 28.4028814], [-81.5609325, 28.4029369], [-81.5609808, 28.4030655], [-81.5611001, 28.4031009], [-81.5611457, 28.4031681], [-81.5611887, 28.4033215], [-81.5612101, 28.4034512], [-81.5612289, 28.4035633], [-81.5612611, 28.403686], [-81.5613456, 28.4038299], [-81.5614327, 28.4039573], [-81.5614877, 28.4040587], [-81.5614998, 28.4041519], [-81.5614944, 28.4042581], [-81.5614676, 28.4043725], [-81.5614207, 28.4044374], [-81.5613429, 28.4045141], [-81.5612678, 28.4045707], [-81.5611726, 28.4046108], [-81.5610773, 28.4046297], [-81.5609338, 28.4046285], [-81.5607689, 28.4046155], [-81.5606334, 28.4046049], [-81.5604886, 28.4046191], [-81.5603438, 28.4046403], [-81.5602378, 28.4046733], [-81.560038, 28.4046816], [-81.5599066, 28.4046438], [-81.5598087, 28.404566], [-81.559696, 28.4044398], [-81.559578, 28.4043041], [-81.55946, 28.4041614], [-81.5593996, 28.4040682], [-81.559405, 28.4040198], [-81.5594318, 28.4039538], [-81.5594546, 28.4038783], [-81.5595284, 28.403824], [-81.5597939, 28.403647], [-81.5599173, 28.4035538], [-81.5599884, 28.4034783], [-81.5600098, 28.4034217], [-81.5600326, 28.40322], [-81.5600876, 28.4028555], [-81.5601077, 28.4027009], [-81.5601359, 28.4024591], [-81.5601547, 28.4023258], [-81.5602445, 28.402301], [-81.560325, 28.4022668], [-81.5603827, 28.4022397], [-81.5604189, 28.4022173], [-81.5604336, 28.4021949], [-81.5604309, 28.4021725], [-81.5604108, 28.40215], [-81.56038, 28.40213], [-81.5602579, 28.4020769], [-81.5601681, 28.4020498], [-81.5600713, 28.4020284], [-81.5600245, 28.4024259], [-81.5599436, 28.4030686], [-81.5599239, 28.4032143], [-81.5598918, 28.4033276], [-81.5598609, 28.4033854], [-81.5598294, 28.4034392], [-81.5597874, 28.4034937], [-81.5597119, 28.4035509], [-81.5596267, 28.4036063], [-81.559527, 28.4036627], [-81.5594427, 28.4037025], [-81.559361, 28.4037282], [-81.5593176, 28.4037508], [-81.5592673, 28.4037959], [-81.5592369, 28.4038475], [-81.5592177, 28.4039023], [-81.5592021, 28.4039639], [-81.5591919, 28.4040202], [-81.5591905, 28.4040762], [-81.5592122, 28.4041353], [-81.5592604, 28.4041887], [-81.5593012, 28.4042267], [-81.5596632, 28.4046084], [-81.5597676, 28.4046918], [-81.5598618, 28.4047562], [-81.5599818, 28.4048133], [-81.5602958, 28.4049171], [-81.5605418, 28.4050029], [-81.5606339, 28.4050457], [-81.5607198, 28.4050968], [-81.5607884, 28.4051665]]]}, "properties": {"kind": "wood", "name": null, "highway": null}}, {"type": "Feature", "geometry": {"type": "Polygon", "coordinates": [[[-81.5589678, 28.4054944], [-81.5589249, 28.4054142], [-81.559012, 28.4053858], [-81.5591059, 28.4053351], [-81.5591904, 28.4052596], [-81.5592601, 28.4051818], [-81.5593299, 28.4050508], [-81.5593996, 28.4049352], [-81.5594278, 28.4048503], [-81.5594332, 28.4047724], [-81.5594291, 28.4046663], [-81.5593808, 28.4045778], [-81.5593165, 28.4045188], [-81.5592306, 28.4044339], [-81.5591435, 28.4043537], [-81.5590322, 28.4042699], [-81.55889, 28.4041979], [-81.5587197, 28.4041602], [-81.5585306, 28.4041578], [-81.5584005, 28.4041932], [-81.5583214, 28.4042699], [-81.5583227, 28.4043454], [-81.558367, 28.4044834], [-81.5583026, 28.4045436], [-81.5580545, 28.4042404], [-81.5580541, 28.4042002], [-81.5580231, 28.4041097], [-81.5579029, 28.4038228], [-81.5578144, 28.4036359], [-81.5577594, 28.4035197], [-81.5577916, 28.4035114], [-81.5578265, 28.4035149], [-81.55786, 28.4035279], [-81.5579204, 28.4035527], [-81.557974, 28.4036058], [-81.5580049, 28.4036683], [-81.5580317, 28.4037249], [-81.5580786, 28.4037933], [-81.558143, 28.4038488], [-81.5581953, 28.4038794], [-81.5582771, 28.4039113], [-81.558371, 28.4039231], [-81.5583066, 28.4040694], [-81.558375, 28.4040694], [-81.558489, 28.4040694], [-81.5586178, 28.4040481], [-81.5586996, 28.4039915], [-81.5587894, 28.4039361], [-81.5588323, 28.4038959], [-81.5588927, 28.4038063], [-81.5589195, 28.4037567], [-81.5589745, 28.4036388], [-81.5589973, 28.4035869], [-81.5590322, 28.4035527], [-81.5590737, 28.4035362], [-81.5591368, 28.4035362], [-81.5591918, 28.4035479], [-81.559236, 28.4035798], [-81.5592722, 28.4036152], [-81.5593125, 28.4036293], [-81.5593648, 28.4036293], [-81.5593956, 28.4036376], [-81.559405, 28.4036506], [-81.5592628, 28.4037202], [-81.5591542, 28.4037744], [-81.5590871, 28.4038358], [-81.559059, 28.4038936], [-81.5590442, 28.4039714], [-81.5590469, 28.4040446], [-81.5590764, 28.4041342], [-81.559122, 28.4042215], [-81.5592092, 28.4042864], [-81.5593125, 28.4043725], [-81.5594466, 28.4045011], [-81.5595659, 28.4046273], [-81.5596477, 28.4046969], [-81.5597429, 28.4047736], [-81.5598569, 28.4048338], [-81.559979, 28.404901], [-81.5601171, 28.4049517], [-81.5602325, 28.4049871], [-81.5602325, 28.4050237], [-81.5601077, 28.4050414], [-81.5599508, 28.4050638], [-81.5597885, 28.4051004], [-81.5596437, 28.4051499], [-81.5594908, 28.4052608], [-81.5594305, 28.4053233], [-81.5593822, 28.4053988], [-81.5589678, 28.4054944]]]}, "properties": {"kind": "wood", "name": null, "highway": null}}, {"type": "Feature", "geometry": {"type": "Polygon", "coordinates": [[[-81.5599642, 28.4019365], [-81.5598811, 28.4019224], [-81.5597711, 28.4019082], [-81.5596799, 28.4019023], [-81.5596088, 28.4019035], [-81.5595539, 28.4019117], [-81.5595203, 28.401933], [-81.5595015, 28.4019705], [-81.5595002, 28.4020179], [-81.559515, 28.4021005], [-81.5595284, 28.4021182], [-81.5595565, 28.4021323], [-81.5597168, 28.4020669], [-81.5597711, 28.4021123], [-81.5598328, 28.402209], [-81.5598636, 28.4023742], [-81.5598757, 28.4023907], [-81.5598945, 28.4023931], [-81.5599119, 28.4023919], [-81.5599307, 28.4022055], [-81.5599414, 28.4021076], [-81.5599642, 28.4019365]]]}, "properties": {"kind": "wood", "name": null, "highway": null}}, {"type": "Feature", "geometry": {"type": "LineString", "coordinates": [[-81.5597119, 28.4035509], [-81.5597874, 28.4034937], [-81.5598294, 28.4034392], [-81.5598609, 28.4033854], [-81.5598918, 28.4033276], [-81.5599239, 28.4032143], [-81.5599436, 28.4030686], [-81.5600245, 28.4024259], [-81.5600713, 28.4020284], [-81.5600787, 28.4019753]]}, "properties": {"kind": "water", "name": null, "highway": null}}, {"type": "Feature", "geometry": {"type": "Polygon", "coordinates": [[[-81.5577209, 28.4034354], [-81.5576931, 28.4034605], [-81.5576663, 28.4034699], [-81.5576368, 28.4034734], [-81.5576113, 28.4034687], [-81.5575885, 28.4034581], [-81.5575724, 28.4034369], [-81.5571178, 28.4024613], [-81.5571996, 28.4023221], [-81.5577387, 28.4021439], [-81.5578098, 28.4021239], [-81.5579439, 28.402085], [-81.5581625, 28.4020366], [-81.5583074, 28.4020047], [-81.558471, 28.4019741], [-81.5586212, 28.4019493], [-81.5587768, 28.4019269], [-81.5589779, 28.4019057], [-81.5592917, 28.4018809], [-81.5593856, 28.4019222], [-81.559395, 28.4020661], [-81.5593776, 28.4021038], [-81.5593534, 28.4021298], [-81.5593145, 28.4021475], [-81.559281, 28.4021569], [-81.5593561, 28.4020059], [-81.559277, 28.401967], [-81.5591053, 28.4019599], [-81.5589323, 28.4019835], [-81.5587526, 28.4020319], [-81.5585863, 28.4021475], [-81.5585152, 28.402289], [-81.558467, 28.4024471], [-81.5584965, 28.4025509], [-81.5585461, 28.4026111], [-81.5586292, 28.4027114], [-81.5587043, 28.4028223], [-81.5587674, 28.4029591], [-81.5587861, 28.4030936], [-81.558821, 28.4032446], [-81.5588492, 28.4033283], [-81.5588814, 28.4034298], [-81.5588639, 28.4034475], [-81.5588395, 28.4034446], [-81.5588241, 28.4034242], [-81.5588022, 28.4033625], [-81.5587848, 28.4032481], [-81.5587405, 28.4030889], [-81.5587003, 28.4029827], [-81.5586252, 28.4028223], [-81.5585635, 28.4027137], [-81.5584281, 28.4026276], [-81.5582899, 28.4025521], [-81.5581116, 28.4025096], [-81.5579788, 28.4025132], [-81.5578273, 28.4025615], [-81.5576703, 28.4026559], [-81.5575943, 28.4027817], [-81.5577629, 28.4028871], [-81.5577495, 28.4029921], [-81.5577579, 28.4031096], [-81.5577737, 28.4031879], [-81.5577926, 28.4032532], [-81.5577941, 28.4033038], [-81.5577789, 28.4033492], [-81.5577589, 28.4033952], [-81.5577368, 28.4034219], [-81.5577209, 28.4034354]]]}, "properties": {"kind": "wood", "name": null, "highway": null}}, {"type": "Feature", "geometry": {"type": "LineString", "coordinates": [[-81.557816, 28.4033258], [-81.5577951, 28.4033808], [-81.5577649, 28.403428], [-81.5577313, 28.4034604], [-81.5576965, 28.4034953], [-81.5577477, 28.4034951], [-81.5577884, 28.4034964], [-81.5578319, 28.4035012], [-81.5578731, 28.4035165]]}, "properties": {"kind": "road", "name": null, "highway": "service"}}, {"type": "Feature", "geometry": {"type": "Polygon", "coordinates": [[[-81.5591598, 28.4034841], [-81.5591377, 28.4034515], [-81.5590196, 28.4035133], [-81.5590416, 28.403546], [-81.5591598, 28.4034841]]]}, "properties": {"kind": "building", "name": null, "highway": null}}, {"type": "Feature", "geometry": {"type": "Polygon", "coordinates": [[[-81.5588709, 28.4028636], [-81.5587423, 28.4028423], [-81.5587506, 28.4028034], [-81.5588792, 28.4028247], [-81.5588709, 28.4028636]]]}, "properties": {"kind": "building", "name": null, "highway": null}}, {"type": "Feature", "geometry": {"type": "Polygon", "coordinates": [[[-81.5590824, 28.4028833], [-81.5591826, 28.4028021], [-81.5591495, 28.4027705], [-81.5590493, 28.4028517], [-81.5590824, 28.4028833]]]}, "properties": {"kind": "building", "name": null, "highway": null}}, {"type": "Feature", "geometry": {"type": "Polygon", "coordinates": [[[-81.5589846, 28.4032986], [-81.5588463, 28.403286], [-81.5588508, 28.4032484], [-81.558989, 28.403261], [-81.5589846, 28.4032986]]]}, "properties": {"kind": "building", "name": null, "highway": null}}, {"type": "Feature", "geometry": {"type": "Polygon", "coordinates": [[[-81.5590431, 28.4034161], [-81.5589215, 28.4034535], [-81.5589064, 28.4034154], [-81.559028, 28.403378], [-81.5590431, 28.4034161]]]}, "properties": {"kind": "building", "name": null, "highway": null}}, {"type": "Feature", "geometry": {"type": "Polygon", "coordinates": [[[-81.559274, 28.4033421], [-81.559237, 28.4033595], [-81.559173, 28.4032547], [-81.55921, 28.4032372], [-81.559274, 28.4033421]]]}, "properties": {"kind": "building", "name": null, "highway": null}}, {"type": "Feature", "geometry": {"type": "Polygon", "coordinates": [[[-81.5594633, 28.4032992], [-81.5593429, 28.4033332], [-81.5593293, 28.4032959], [-81.5594497, 28.4032619], [-81.5594633, 28.4032992]]]}, "properties": {"kind": "building", "name": null, "highway": null}}, {"type": "Feature", "geometry": {"type": "Polygon", "coordinates": [[[-81.5591805, 28.4031568], [-81.5591508, 28.4031194], [-81.5592396, 28.4030648], [-81.5592693, 28.4031022], [-81.5591805, 28.4031568]]]}, "properties": {"kind": "building", "name": null, "highway": null}}, {"type": "Feature", "geometry": {"type": "Polygon", "coordinates": [[[-81.5594832, 28.4035888], [-81.5594423, 28.4035909], [-81.5594346, 28.4034729], [-81.5594755, 28.4034709], [-81.5594832, 28.4035888]]]}, "properties": {"kind": "building", "name": null, "highway": null}}, {"type": "Feature", "geometry": {"type": "Polygon", "coordinates": [[[-81.5590259, 28.4027506], [-81.5590922, 28.4026746], [-81.5590572, 28.4026509], [-81.5589909, 28.4027269], [-81.5590259, 28.4027506]]]}, "properties": {"kind": "building", "name": null, "highway": null}}, {"type": "Feature", "geometry": {"type": "Polygon", "coordinates": [[[-81.5591282, 28.4030185], [-81.5590958, 28.4029909], [-81.5591764, 28.4029174], [-81.5592088, 28.4029449], [-81.5591282, 28.4030185]]]}, "properties": {"kind": "building", "name": null, "highway": null}}, {"type": "Feature", "geometry": {"type": "Polygon", "coordinates": [[[-81.5593742, 28.4031745], [-81.5593575, 28.4031367], [-81.5594757, 28.4030963], [-81.5594924, 28.4031341], [-81.5593742, 28.4031745]]]}, "properties": {"kind": "building", "name": null, "highway": null}}, {"type": "Feature", "geometry": {"type": "LineString", "coordinates": [[-81.5589199, 28.4030105], [-81.5588109, 28.4029752], [-81.5588398, 28.4029062], [-81.5589488, 28.4029414], [-81.5589199, 28.4030105]]}, "properties": {"kind": "comfort", "name": "Comfort Station", "highway": null}}, {"type": "Feature", "geometry": {"type": "Polygon", "coordinates": [[[-81.5589494, 28.4031627], [-81.5588185, 28.40312], [-81.5588331, 28.4030854], [-81.558964, 28.403128], [-81.5589494, 28.4031627]]]}, "properties": {"kind": "building", "name": null, "highway": null}}, {"type": "Feature", "geometry": {"type": "Polygon", "coordinates": [[[-81.5594669, 28.4028636], [-81.5593643, 28.4028976], [-81.5593463, 28.4028555], [-81.5594489, 28.4028215], [-81.5594669, 28.4028636]]]}, "properties": {"kind": "building", "name": null, "highway": null}}, {"type": "Feature", "geometry": {"type": "Polygon", "coordinates": [[[-81.5597251, 28.402148], [-81.5596177, 28.4021894], [-81.5595998, 28.4021536], [-81.5597072, 28.4021121], [-81.5597251, 28.402148]]]}, "properties": {"kind": "building", "name": null, "highway": null}}, {"type": "Feature", "geometry": {"type": "Polygon", "coordinates": [[[-81.5596629, 28.403097], [-81.5596339, 28.4031342], [-81.5597441, 28.4032005], [-81.5597731, 28.4031632], [-81.5596629, 28.403097]]]}, "properties": {"kind": "building", "name": null, "highway": null}}, {"type": "Feature", "geometry": {"type": "Polygon", "coordinates": [[[-81.5597606, 28.403071], [-81.5597937, 28.40303], [-81.5596835, 28.4029612], [-81.5596504, 28.4030022], [-81.5597606, 28.403071]]]}, "properties": {"kind": "building", "name": null, "highway": null}}, {"type": "Feature", "geometry": {"type": "Polygon", "coordinates": [[[-81.5586426, 28.4023551], [-81.5586749, 28.4023256], [-81.5585836, 28.4022484], [-81.5585514, 28.4022778], [-81.5586426, 28.4023551]]]}, "properties": {"kind": "building", "name": null, "highway": null}}, {"type": "Feature", "geometry": {"type": "Polygon", "coordinates": [[[-81.5591807, 28.4023429], [-81.559129, 28.4022411], [-81.5591633, 28.4022276], [-81.559215, 28.4023294], [-81.5591807, 28.4023429]]]}, "properties": {"kind": "building", "name": null, "highway": null}}, {"type": "Feature", "geometry": {"type": "Polygon", "coordinates": [[[-81.5593682, 28.4036027], [-81.5592397, 28.4035742], [-81.5592497, 28.4035394], [-81.5593782, 28.4035679], [-81.5593682, 28.4036027]]]}, "properties": {"kind": "building", "name": null, "highway": null}}, {"type": "Feature", "geometry": {"type": "Polygon", "coordinates": [[[-81.5598065, 28.4022771], [-81.5596932, 28.4022928], [-81.559686, 28.4022524], [-81.5597992, 28.4022366], [-81.5598065, 28.4022771]]]}, "properties": {"kind": "building", "name": null, "highway": null}}, {"type": "Feature", "geometry": {"type": "Polygon", "coordinates": [[[-81.5595413, 28.4026861], [-81.559425, 28.4027338], [-81.5594031, 28.4026925], [-81.5595194, 28.4026448], [-81.5595413, 28.4026861]]]}, "properties": {"kind": "building", "name": null, "highway": null}}, {"type": "Feature", "geometry": {"type": "Polygon", "coordinates": [[[-81.5595327, 28.4024202], [-81.5594908, 28.4024189], [-81.5594953, 28.4023083], [-81.5595372, 28.4023096], [-81.5595327, 28.4024202]]]}, "properties": {"kind": "building", "name": null, "highway": null}}, {"type": "Feature", "geometry": {"type": "Polygon", "coordinates": [[[-81.559273, 28.4021209], [-81.5592347, 28.4021036], [-81.5592895, 28.4020094], [-81.5593278, 28.4020266], [-81.559273, 28.4021209]]]}, "properties": {"kind": "building", "name": null, "highway": null}}, {"type": "Feature", "geometry": {"type": "Polygon", "coordinates": [[[-81.5598509, 28.4023738], [-81.5597267, 28.4023479], [-81.5597179, 28.4023808], [-81.5598421, 28.4024066], [-81.5598509, 28.4023738]]]}, "properties": {"kind": "building", "name": null, "highway": null}}, {"type": "Feature", "geometry": {"type": "Polygon", "coordinates": [[[-81.559508, 28.4029737], [-81.5594929, 28.402938], [-81.5593807, 28.4029747], [-81.5593958, 28.4030105], [-81.559508, 28.4029737]]]}, "properties": {"kind": "building", "name": null, "highway": null}}, {"type": "Feature", "geometry": {"type": "Polygon", "coordinates": [[[-81.5588498, 28.402161], [-81.5588052, 28.4021626], [-81.5588003, 28.4020579], [-81.5588449, 28.4020563], [-81.5588498, 28.402161]]]}, "properties": {"kind": "building", "name": null, "highway": null}}, {"type": "Feature", "geometry": {"type": "Polygon", "coordinates": [[[-81.5591113, 28.4021226], [-81.5591747, 28.4020157], [-81.5591336, 28.4019968], [-81.5590702, 28.4021037], [-81.5591113, 28.4021226]]]}, "properties": {"kind": "building", "name": null, "highway": null}}, {"type": "Feature", "geometry": {"type": "Polygon", "coordinates": [[[-81.5586343, 28.4024614], [-81.5585274, 28.4024285], [-81.5585412, 28.4023937], [-81.5586482, 28.4024267], [-81.5586343, 28.4024614]]]}, "properties": {"kind": "building", "name": null, "highway": null}}, {"type": "Feature", "geometry": {"type": "Polygon", "coordinates": [[[-81.558779, 28.4027157], [-81.5587795, 28.4026794], [-81.5586367, 28.4026778], [-81.5586362, 28.4027141], [-81.558779, 28.4027157]]]}, "properties": {"kind": "building", "name": null, "highway": null}}, {"type": "Feature", "geometry": {"type": "Polygon", "coordinates": [[[-81.5595507, 28.4025304], [-81.5594436, 28.4025698], [-81.5594257, 28.4025322], [-81.5595329, 28.4024928], [-81.5595507, 28.4025304]]]}, "properties": {"kind": "building", "name": null, "highway": null}}, {"type": "Feature", "geometry": {"type": "Polygon", "coordinates": [[[-81.5591581, 28.4023635], [-81.5591161, 28.4023807], [-81.5590599, 28.4022744], [-81.5591019, 28.4022572], [-81.5591581, 28.4023635]]]}, "properties": {"kind": "building", "name": null, "highway": null}}, {"type": "Feature", "geometry": {"type": "Polygon", "coordinates": [[[-81.5586811, 28.4025916], [-81.5586818, 28.4025513], [-81.5585547, 28.4025497], [-81.558554, 28.40259], [-81.5586811, 28.4025916]]]}, "properties": {"kind": "building", "name": null, "highway": null}}, {"type": "Feature", "geometry": {"type": "Polygon", "coordinates": [[[-81.5597995, 28.402711], [-81.5597033, 28.4026642], [-81.5597206, 28.4026367], [-81.5598167, 28.4026835], [-81.5597995, 28.402711]]]}, "properties": {"kind": "building", "name": null, "highway": null}}, {"type": "Feature", "geometry": {"type": "Polygon", "coordinates": [[[-81.5589488, 28.4026318], [-81.5589049, 28.4026136], [-81.5589539, 28.4025226], [-81.5589977, 28.4025408], [-81.5589488, 28.4026318]]]}, "properties": {"kind": "building", "name": null, "highway": null}}, {"type": "Feature", "geometry": {"type": "Polygon", "coordinates": [[[-81.5598496, 28.4025262], [-81.5597489, 28.4024746], [-81.5597263, 28.4025088], [-81.5598269, 28.4025604], [-81.5598496, 28.4025262]]]}, "properties": {"kind": "building", "name": null, "highway": null}}, {"type": "Feature", "geometry": {"type": "Polygon", "coordinates": [[[-81.5588462, 28.4025263], [-81.5588018, 28.4025058], [-81.5588667, 28.4023972], [-81.558911, 28.4024177], [-81.5588462, 28.4025263]]]}, "properties": {"kind": "building", "name": null, "highway": null}}, {"type": "Feature", "geometry": {"type": "Polygon", "coordinates": [[[-81.5587335, 28.4022323], [-81.5586984, 28.4022508], [-81.558636, 28.4021593], [-81.558671, 28.4021408], [-81.5587335, 28.4022323]]]}, "properties": {"kind": "building", "name": null, "highway": null}}, {"type": "Feature", "geometry": {"type": "Polygon", "coordinates": [[[-81.5596642, 28.4034809], [-81.559629, 28.4034999], [-81.5595548, 28.403394], [-81.55959, 28.403375], [-81.5596642, 28.4034809]]]}, "properties": {"kind": "building", "name": null, "highway": null}}, {"type": "Feature", "geometry": {"type": "Polygon", "coordinates": [[[-81.5597862, 28.4028771], [-81.5598097, 28.4028434], [-81.5597187, 28.4027944], [-81.5596952, 28.4028282], [-81.5597862, 28.4028771]]]}, "properties": {"kind": "building", "name": null, "highway": null}}, {"type": "Feature", "geometry": {"type": "Polygon", "coordinates": [[[-81.5593474, 28.4023373], [-81.5592809, 28.4022475], [-81.5592446, 28.4022684], [-81.559311, 28.4023581], [-81.5593474, 28.4023373]]]}, "properties": {"kind": "building", "name": null, "highway": null}}, {"type": "Feature", "geometry": {"type": "Polygon", "coordinates": [[[-81.5589597, 28.4021269], [-81.5589224, 28.4021172], [-81.558955, 28.4020197], [-81.5589923, 28.4020294], [-81.5589597, 28.4021269]]]}, "properties": {"kind": "building", "name": null, "highway": null}}, {"type": "Feature", "geometry": {"type": "Polygon", "coordinates": [[[-81.5597169, 28.4033723], [-81.5597453, 28.4033374], [-81.5596388, 28.4032704], [-81.5596104, 28.4033053], [-81.5597169, 28.4033723]]]}, "properties": {"kind": "building", "name": null, "highway": null}}, {"type": "Feature", "geometry": {"type": "Polygon", "coordinates": [[[-81.5589942, 28.4023312], [-81.5588834, 28.4023304], [-81.5588837, 28.4022975], [-81.5589945, 28.4022983], [-81.5589942, 28.4023312]]]}, "properties": {"kind": "building", "name": null, "highway": null}}, {"type": "Feature", "geometry": {"type": "Polygon", "coordinates": [[[-81.5580437, 28.4058138], [-81.5578487, 28.4056098], [-81.5573958, 28.4051994], [-81.55697, 28.4049125], [-81.5564944, 28.4047571], [-81.5561999, 28.404773], [-81.556064, 28.4048248], [-81.5559734, 28.4048966], [-81.5559236, 28.4049882], [-81.5559146, 28.4051277], [-81.5558557, 28.4057094], [-81.5558466, 28.4058289], [-81.5555794, 28.4059524], [-81.5551083, 28.4062273], [-81.5546734, 28.4063947], [-81.554542, 28.4064266], [-81.5544589, 28.4064313], [-81.5544884, 28.4065046], [-81.5545161, 28.406613], [-81.5545219, 28.4065773], [-81.554538, 28.406536], [-81.5545715, 28.4065053], [-81.5546265, 28.40649], [-81.5547069, 28.4064723], [-81.5547981, 28.4064499], [-81.55487, 28.4064236], [-81.5549014, 28.4064121], [-81.5550288, 28.4063602], [-81.5551415, 28.4063083], [-81.5552648, 28.4062387], [-81.5553627, 28.4061868], [-81.5554781, 28.4061314], [-81.5556926, 28.4060082], [-81.5558602, 28.4059205], [-81.5559327, 28.4059205], [-81.5560006, 28.4059763], [-81.5561003, 28.4061118], [-81.5561505, 28.406097], [-81.5561909, 28.406048], [-81.556055, 28.4058329], [-81.5560051, 28.4057253], [-81.5560323, 28.4054823], [-81.5560414, 28.40504], [-81.5560867, 28.4049484], [-81.5562045, 28.4048846], [-81.5563539, 28.4048766], [-81.5566484, 28.4049165], [-81.5569654, 28.4050679], [-81.5572871, 28.4052791], [-81.5576766, 28.4055779], [-81.5578487, 28.4057293], [-81.5579551, 28.4058617], [-81.5579958, 28.4058403], [-81.5580437, 28.4058138]]]}, "properties": {"kind": "water", "name": null, "highway": null}}, {"type": "Feature", "geometry": {"type": "Polygon", "coordinates": [[[-81.5593481, 28.4017791], [-81.5588205, 28.4017878], [-81.5583626, 28.4018404], [-81.5575114, 28.4020899], [-81.5571979, 28.4021731], [-81.5570784, 28.4021556], [-81.5569888, 28.4020768], [-81.5568893, 28.4017353], [-81.5568992, 28.4014463], [-81.5568245, 28.4009209], [-81.5567797, 28.4003429], [-81.5566702, 28.3998526], [-81.5565856, 28.3997475], [-81.5563815, 28.399765], [-81.5562173, 28.3997168], [-81.5559535, 28.3993753], [-81.5558589, 28.3992352], [-81.5558888, 28.3991301], [-81.5559833, 28.3990469], [-81.5559684, 28.3988937], [-81.5557942, 28.3987579], [-81.5556051, 28.3987448], [-81.5555105, 28.3987098], [-81.5555055, 28.3986353], [-81.5556051, 28.3985522], [-81.5558938, 28.3984339], [-81.5561974, 28.3983376], [-81.5563567, 28.3982413], [-81.5565159, 28.3980968], [-81.5567648, 28.3979742], [-81.5570635, 28.3979435], [-81.557382, 28.3980486], [-81.5577006, 28.3981931], [-81.5583078, 28.3982675], [-81.5587508, 28.3983683], [-81.5589898, 28.3985259], [-81.5590943, 28.398666], [-81.5591192, 28.3988149], [-81.5590146, 28.3988149], [-81.5589599, 28.3986572], [-81.5588803, 28.3985565], [-81.5586712, 28.3984339], [-81.558278, 28.3983683], [-81.557616, 28.3982544], [-81.5572377, 28.398088], [-81.5569739, 28.3980749], [-81.5567001, 28.3981756], [-81.5564911, 28.3983157], [-81.5563666, 28.3984996], [-81.5563368, 28.3991564], [-81.5564015, 28.3993359], [-81.5565757, 28.399476], [-81.5568345, 28.3995767], [-81.5572277, 28.3995986], [-81.5581486, 28.399511], [-81.558716, 28.3993709], [-81.55893, 28.3993228], [-81.55893, 28.3994848], [-81.5581287, 28.399638], [-81.5573621, 28.3997212], [-81.5570137, 28.3997475], [-81.5568594, 28.3998394], [-81.5568046, 28.4000189], [-81.5568743, 28.4003079], [-81.5569938, 28.4005137], [-81.5571481, 28.4006363], [-81.557382, 28.400702], [-81.5576857, 28.4006976], [-81.5586563, 28.4006319], [-81.5588404, 28.4005531], [-81.5590196, 28.4003692], [-81.5590993, 28.4003736], [-81.5592088, 28.4007677], [-81.5592735, 28.4010698], [-81.5592785, 28.401315], [-81.5591689, 28.401315], [-81.559159, 28.4010917], [-81.5591142, 28.4009778], [-81.5589599, 28.4008377], [-81.5587707, 28.4007764], [-81.5581585, 28.4007677], [-81.5575961, 28.4008027], [-81.5573422, 28.4009209], [-81.5572028, 28.4011135], [-81.5571431, 28.4013587], [-81.5572078, 28.4015514], [-81.5573721, 28.4017397], [-81.5576608, 28.4018185], [-81.5579395, 28.4017878], [-81.5583775, 28.4016784], [-81.558945, 28.4016433], [-81.5593282, 28.4016477], [-81.5593481, 28.4017791]]]}, "properties": {"kind": "wood", "name": null, "highway": null}}, {"type": "Feature", "geometry": {"type": "LineString", "coordinates": [[-81.5591836, 28.4019091], [-81.5585371, 28.401992], [-81.5583233, 28.4020354], [-81.5579726, 28.4021066], [-81.5578985, 28.4021488], [-81.5578495, 28.4021766], [-81.5575022, 28.4025108], [-81.5574949, 28.4026063], [-81.5575202, 28.4027891]]}, "properties": {"kind": "trail", "name": null, "highway": "footway"}}, {"type": "Feature", "geometry": {"type": "LineString", "coordinates": [[-81.5578985, 28.4021488], [-81.5580558, 28.4022944], [-81.5581137, 28.4024185], [-81.5581028, 28.4024853], [-81.5580377, 28.402619], [-81.5580247, 28.402743]]}, "properties": {"kind": "trail", "name": null, "highway": "footway"}}, {"type": "Feature", "geometry": {"type": "LineString", "coordinates": [[-81.5580558, 28.4022944], [-81.5583453, 28.4022753], [-81.5585733, 28.4023517], [-81.5587147, 28.4023986]]}, "properties": {"kind": "trail", "name": null, "highway": "footway"}}, {"type": "Feature", "geometry": {"type": "LineString", "coordinates": [[-81.5583233, 28.4020354], [-81.5583453, 28.4022753]]}, "properties": {"kind": "trail", "name": null, "highway": "footway"}}, {"type": "Feature", "geometry": {"type": "LineString", "coordinates": [[-81.5565925, 28.4025823], [-81.556413, 28.4026922], [-81.5562465, 28.4028673], [-81.5561343, 28.4030328], [-81.556062, 28.4032747], [-81.5560656, 28.403523], [-81.5560511, 28.403889], [-81.5560077, 28.4041723], [-81.5558955, 28.4044715], [-81.5558195, 28.4047707], [-81.5557906, 28.4049585], [-81.5557773, 28.4053553], [-81.5557774, 28.4053591], [-81.5557786, 28.4053965], [-81.555787, 28.4058083]]}, "properties": {"kind": "trail", "name": null, "highway": "footway"}}, {"type": "Feature", "geometry": {"type": "LineString", "coordinates": [[-81.5566122, 28.4040364], [-81.5565934, 28.4038306], [-81.5565937, 28.4036287]]}, "properties": {"kind": "trail", "name": null, "highway": "footway"}}, {"type": "Feature", "geometry": {"type": "LineString", "coordinates": [[-81.5578144, 28.4036359], [-81.5577024, 28.4036882]]}, "properties": {"kind": "trail", "name": null, "highway": "footway"}}, {"type": "Feature", "geometry": {"type": "LineString", "coordinates": [[-81.5589775, 28.4028918], [-81.5588397, 28.4028763], [-81.5585902, 28.4028797], [-81.5584091, 28.4029245]]}, "properties": {"kind": "trail", "name": null, "highway": "footway"}}, {"type": "Feature", "geometry": {"type": "LineString", "coordinates": [[-81.5595015, 28.4019705], [-81.559589, 28.4019592], [-81.5600104, 28.401941], [-81.5601648, 28.4019827], [-81.5603844, 28.4020767], [-81.5605032, 28.4021586]]}, "properties": {"kind": "trail", "name": null, "highway": "footway"}}, {"type": "Feature", "geometry": {"type": "LineString", "coordinates": [[-81.5605803, 28.4044163], [-81.5603339, 28.4040817], [-81.560144, 28.4039694], [-81.559695, 28.4038904]]}, "properties": {"kind": "trail", "name": null, "highway": "footway"}}, {"type": "Feature", "geometry": {"type": "Polygon", "coordinates": [[[-81.557159, 28.4042066], [-81.5568509, 28.4042954], [-81.5566649, 28.4043], [-81.5566596, 28.4043795], [-81.5569253, 28.4044122], [-81.5571378, 28.4045197], [-81.5572334, 28.4045851], [-81.557329, 28.4044916], [-81.557159, 28.4042066]]]}, "properties": {"kind": "wood", "name": null, "highway": null}}, {"type": "Feature", "geometry": {"type": "Polygon", "coordinates": [[[-81.5568509, 28.4032907], [-81.5567287, 28.4030897], [-81.5565959, 28.4031832], [-81.5567234, 28.4033514], [-81.5568509, 28.4032907]]]}, "properties": {"kind": "wood", "name": null, "highway": null}}, {"type": "Feature", "geometry": {"type": "Polygon", "coordinates": [[[-81.5584978, 28.4035664], [-81.5582959, 28.4032673], [-81.5581684, 28.4029776], [-81.5579931, 28.4030336], [-81.558094, 28.4033841], [-81.558365, 28.4036692], [-81.5584978, 28.4035664]]]}, "properties": {"kind": "wood", "name": null, "highway": null}}, {"type": "Feature", "geometry": {"type": "Polygon", "coordinates": [[[-81.5593, 28.4024822], [-81.5593159, 28.4029869], [-81.5592628, 28.4029869], [-81.5592097, 28.4027299], [-81.5590769, 28.4024916], [-81.5593, 28.4024822]]]}, "properties": {"kind": "wood", "name": null, "highway": null}}, {"type": "Feature", "geometry": {"type": "LineString", "coordinates": [[-81.5577024, 28.4036882], [-81.5576789, 28.4036992], [-81.5576384, 28.4037181]]}, "properties": {"kind": "trail", "name": null, "highway": "footway"}}, {"type": "Feature", "geometry": {"type": "LineString", "coordinates": [[-81.5576384, 28.4037181], [-81.5576096, 28.4037316]]}, "properties": {"kind": "trail", "name": null, "highway": "footway"}}]}