{
 "type": "FeatureCollection",
 "features": [
  {
   "type": "Feature",
   "geometry": {
    "type": "LineString",
    "coordinates": [
     [
      -81.5543769,
      28.401384
     ],
     [
      -81.5542849,
      28.4014921
     ],
     [
      -81.5542417,
      28.4016036
     ],
     [
      -81.5542081,
      28.4017617
     ],
     [
      -81.5541561,
      28.4019073
     ],
     [
      -81.5541194,
      28.402056
     ],
     [
      -81.5541108,
      28.4021768
     ],
     [
      -81.554085,
      28.4022824
     ],
     [
      -81.554085,
      28.4024108
     ],
     [
      -81.5541022,
      28.402524
     ],
     [
      -81.5541465,
      28.4026311
     ],
     [
      -81.5542591,
      28.4027845
     ],
     [
      -81.5543254,
      28.4027807
     ],
     [
      -81.5544112,
      28.4027505
     ],
     [
      -81.5545233,
      28.4027007
     ],
     [
      -81.5546239,
      28.4026429
     ],
     [
      -81.554695,
      28.4025709
     ],
     [
      -81.5547151,
      28.4025285
     ],
     [
      -81.5547459,
      28.4024636
     ],
     [
      -81.5547459,
      28.4023277
     ],
     [
      -81.5547431,
      28.4022875
     ],
     [
      -81.5547374,
      28.402207
     ],
     [
      -81.5547374,
      28.4020862
     ],
     [
      -81.5547545,
      28.4019805
     ],
     [
      -81.5548146,
      28.4018521
     ],
     [
      -81.5548919,
      28.4017162
     ],
     [
      -81.5549176,
      28.401603
     ],
     [
      -81.554909,
      28.4015199
     ],
     [
      -81.5548575,
      28.4014293
     ],
     [
      -81.5547288,
      28.4013538
     ],
     [
      -81.5545228,
      28.4013312
     ],
     [
      -81.5543769,
      28.401384
     ]
    ]
   },
   "properties": {
    "source": "OpenStreetMap",
    "streets": [
     "Wagon Wheel Way"
    ],
    "length_ft": 1310.1
   }
  }
 ]
}