{
 "type": "FeatureCollection",
 "features": [
  {
   "type": "Feature",
   "geometry": {
    "type": "LineString",
    "coordinates": [
     [
      -81.5592789,
      28.4073284
     ],
     [
      -81.5592459,
      28.4074715
     ],
     [
      -81.5592373,
      28.4075772
     ],
     [
      -81.5592373,
      28.4077131
     ],
     [
      -81.5592716,
      28.4078565
     ],
     [
      -81.5593574,
      28.4079622
     ],
     [
      -81.5594776,
      28.4080377
     ],
     [
      -81.5596064,
      28.4080452
     ],
     [
      -81.5597609,
      28.4079848
     ],
     [
      -81.5598553,
      28.4079169
     ],
     [
      -81.5598982,
      28.4078414
     ],
     [
      -81.5599387,
      28.4077334
     ],
     [
      -81.5599559,
      28.4076352
     ],
     [
      -81.559984,
      28.407547
     ],
     [
      -81.5600613,
      28.4074564
     ],
     [
      -81.5601385,
      28.407396
     ],
     [
      -81.5602415,
      28.4073129
     ],
     [
      -81.5603188,
      28.4072223
     ],
     [
      -81.5604303,
      28.4071393
     ],
     [
      -81.5605848,
      28.4070412
     ],
     [
      -81.5607136,
      28.4069959
     ],
     [
      -81.5608938,
      28.4069657
     ],
     [
      -81.5610741,
      28.4069128
     ],
     [
      -81.5611856,
      28.4068373
     ],
     [
      -81.5612801,
      28.4067316
     ],
     [
      -81.5613058,
      28.4066108
     ],
     [
      -81.5612801,
      28.4064825
     ],
     [
      -81.5611771,
      28.4063919
     ],
     [
      -81.5610912,
      28.4063466
     ],
     [
      -81.5609539,
      28.4063466
     ],
     [
      -81.5608509,
      28.4063843
     ],
     [
      -81.5607479,
      28.4064296
     ],
     [
      -81.5606192,
      28.4064749
     ],
     [
      -81.5604818,
      28.4065429
     ],
     [
      -81.560396,
      28.4065957
     ],
     [
      -81.5602673,
      28.4066184
     ],
     [
      -81.5600698,
      28.4066712
     ],
     [
      -81.5599153,
      28.4067014
     ],
     [
      -81.5598123,
      28.4067694
     ],
     [
      -81.5597437,
      28.4068675
     ],
     [
      -81.5596407,
      28.4069355
     ],
     [
      -81.5595034,
      28.4070487
     ],
     [
      -81.5594004,
      28.4071846
     ],
     [
      -81.5593317,
      28.4072601
     ],
     [
      -81.5592789,
      28.4073284
     ]
    ]
   },
   "properties": {
    "source": "OpenStreetMap",
    "streets": [
     "Jack Rabbit Run"
    ],
    "length_ft": 1981.9
   }
  }
 ]
}