{
 "type": "FeatureCollection",
 "features": [
  {
   "type": "Feature",
   "geometry": {
    "type": "LineString",
    "coordinates": [
     [
      -81.5603702,
      28.4023754
     ],
     [
      -81.5603016,
      28.4024962
     ],
     [
      -81.5602587,
      28.4026397
     ],
     [
      -81.5602563,
      28.4028789
     ],
     [
      -81.5602305,
      28.4031582
     ],
     [
      -81.5601876,
      28.4034451
     ],
     [
      -81.5601104,
      28.4036037
     ],
     [
      -81.5600098,
      28.4036891
     ],
     [
      -81.5598896,
      28.4037721
     ],
     [
      -81.5597265,
      28.4038627
     ],
     [
      -81.559695,
      28.4038904
     ],
     [
      -81.5596235,
      28.4039533
     ],
     [
      -81.5596149,
      28.4040892
     ],
     [
      -81.5597265,
      28.4042402
     ],
     [
      -81.5598467,
      28.4043459
     ],
     [
      -81.5600012,
      28.4044365
     ],
     [
      -81.5601557,
      28.4044818
     ],
     [
      -81.5603188,
      28.4044592
     ],
     [
      -81.5604647,
      28.4044214
     ],
     [
      -81.5605803,
      28.4044163
     ],
     [
      -81.560808,
      28.4044063
     ],
     [
      -81.5610054,
      28.4044139
     ],
     [
      -81.5611341,
      28.4043912
     ],
     [
      -81.56122,
      28.4043233
     ],
     [
      -81.5612715,
      28.4042402
     ],
     [
      -81.5612629,
      28.4041194
     ],
     [
      -81.5611942,
      28.4039911
     ],
     [
      -81.5611084,
      28.4038476
     ],
     [
      -81.5609968,
      28.4035909
     ],
     [
      -81.5609367,
      28.4034097
     ],
     [
      -81.5608938,
      28.4032134
     ],
     [
      -81.5608595,
      28.4030172
     ],
     [
      -81.5607737,
      28.4028284
     ],
     [
      -81.5606277,
      28.402617
     ],
     [
      -81.560499,
      28.4024736
     ],
     [
      -81.5603702,
      28.4023754
     ]
    ]
   },
   "properties": {
    "source": "OpenStreetMap",
    "streets": [
     "Spanish Moss Lane"
    ],
    "length_ft": 2092.5
   }
  }
 ]
}