{
 "type": "FeatureCollection",
 "features": [
  {
   "type": "Feature",
   "geometry": {
    "type": "LineString",
    "coordinates": [
     [
      -81.5572803,
      28.4039533
     ],
     [
      -81.5571344,
      28.4039609
     ],
     [
      -81.5570314,
      28.4039609
     ],
     [
      -81.5568941,
      28.403976
     ],
     [
      -81.5567825,
      28.4040213
     ],
     [
      -81.5566709,
      28.4040364
     ],
     [
      -81.5566122,
      28.4040364
     ],
     [
      -81.5565594,
      28.4040364
     ],
     [
      -81.556422,
      28.4040364
     ],
     [
      -81.556351,
      28.4040718
     ],
     [
      -81.5563166,
      28.4041397
     ],
     [
      -81.5562909,
      28.4042001
     ],
     [
      -81.5562823,
      28.4042832
     ],
     [
      -81.5562995,
      28.4043738
     ],
     [
      -81.5563338,
      28.4044417
     ],
     [
      -81.5563963,
      28.4044969
     ],
     [
      -81.5565422,
      28.4045573
     ],
     [
      -81.5566881,
      28.4045875
     ],
     [
      -81.5568426,
      28.4046328
     ],
     [
      -81.556937,
      28.4046555
     ],
     [
      -81.55704,
      28.4047159
     ],
     [
      -81.5570915,
      28.4047838
     ],
     [
      -81.5571602,
      28.4048291
     ],
     [
      -81.5572632,
      28.4048593
     ],
     [
      -81.5573833,
      28.4048291
     ],
     [
      -81.5574949,
      28.4047461
     ],
     [
      -81.5575808,
      28.4046479
     ],
     [
      -81.5575893,
      28.4045422
     ],
     [
      -81.5575464,
      28.4044139
     ],
     [
      -81.5574778,
      28.4043233
     ],
     [
      -81.5574005,
      28.4041949
     ],
     [
      -81.5573404,
      28.4040515
     ],
     [
      -81.5572803,
      28.4039533
     ]
    ]
   },
   "properties": {
    "source": "OpenStreetMap",
    "streets": [
     "Tumbleweed Turn"
    ],
    "length_ft": 1201.7
   }
  }
 ]
}