{
 "type": "FeatureCollection",
 "features": [
  {
   "type": "Feature",
   "geometry": {
    "type": "LineString",
    "coordinates": [
     [
      -81.5552953,
      28.403347
     ],
     [
      -81.5554092,
      28.4033116
     ],
     [
      -81.5555294,
      28.4032361
     ],
     [
      -81.555641,
      28.4031379
     ],
     [
      -81.5557182,
      28.4030398
     ],
     [
      -81.5557268,
      28.4029492
     ],
     [
      -81.5557268,
      28.4028435
     ],
     [
      -81.5557526,
      28.4027529
     ],
     [
      -81.5558298,
      28.4026548
     ],
     [
      -81.5559414,
      28.402534
     ],
     [
      -81.5560272,
      28.4024283
     ],
     [
      -81.5560873,
      28.4022999
     ],
     [
      -81.5560701,
      28.4021414
     ],
     [
      -81.5559671,
      28.4019904
     ],
     [
      -81.5558384,
      28.4018847
     ],
     [
      -81.5556667,
      28.4018545
     ],
     [
      -81.55558,
      28.4018558
     ],
     [
      -81.5555036,
      28.4018696
     ],
     [
      -81.5553921,
      28.4019224
     ],
     [
      -81.5552867,
      28.4020031
     ],
     [
      -81.5552352,
      28.402139
     ],
     [
      -81.5552438,
      28.4022598
     ],
     [
      -81.5552523,
      28.4023957
     ],
     [
      -81.5552523,
      28.4025014
     ],
     [
      -81.5552421,
      28.4026016
     ],
     [
      -81.5552094,
      28.4027052
     ],
     [
      -81.5551517,
      28.4027831
     ],
     [
      -81.5551002,
      28.4028586
     ],
     [
      -81.5550316,
      28.4029417
     ],
     [
      -81.5550144,
      28.4030323
     ],
     [
      -81.5550316,
      28.403153
     ],
     [
      -81.5550917,
      28.4032587
     ],
     [
      -81.5551923,
      28.4033319
     ],
     [
      -81.5552953,
      28.403347
     ]
    ]
   },
   "properties": {
    "source": "OpenStreetMap",
    "streets": [
     "Hickory Hollow"
    ],
    "length_ft": 1419.9
   }
  }
 ]
}