{"type": "FeatureCollection", "features": [{"type": "Feature", "geometry": {"type": "LineString", "coordinates": [[-81.5576387, 28.4138216], [-81.557644, 28.4136838], [-81.5576307, 28.4135456], [-81.5575501, 28.4132812], [-81.5573576, 28.4128652], [-81.5573272, 28.4127978], [-81.5571259, 28.4123519], [-81.5569714, 28.4120197], [-81.5568856, 28.4118536], [-81.5567997, 28.4117253], [-81.5567311, 28.4116422], [-81.5565852, 28.4115063], [-81.5564307, 28.4113856], [-81.5562342, 28.4112712], [-81.5559243, 28.4111138], [-81.5554865, 28.4108797], [-81.5553835, 28.4108043], [-81.5551346, 28.4106155], [-81.55493, 28.410411], [-81.5547312, 28.4101626], [-81.5546111, 28.4099663], [-81.5545338, 28.40977], [-81.5544912, 28.4095924], [-81.5544504, 28.4093528], [-81.5544528, 28.40909], [-81.5544733, 28.4087917], [-81.554551, 28.4079581], [-81.5545681, 28.4077694], [-81.5545681, 28.4074901], [-81.5545424, 28.4072258], [-81.5545166, 28.407022], [-81.5544737, 28.40672], [-81.5544051, 28.4064935], [-81.5538987, 28.4054064], [-81.5538214, 28.4052705], [-81.5537442, 28.4051195], [-81.5536154, 28.4049307], [-81.5533837, 28.4046967], [-81.5531605, 28.4044853], [-81.5529717, 28.4042965], [-81.5524728, 28.4039554], [-81.5521026, 28.4037148], [-81.551821, 28.4035779], [-81.5514348, 28.4034128], [-81.5511505, 28.4033184], [-81.5509681, 28.4032783], [-81.5489119, 28.4028394], [-81.5486345, 28.4027663], [-81.5483019, 28.402613], [-81.5480766, 28.4024431], [-81.5478476, 28.4021826], [-81.5475901, 28.4019032], [-81.5474356, 28.4017447], [-81.5471781, 28.4013747], [-81.5470236, 28.4010425], [-81.5468589, 28.4006995], [-81.5467057, 28.4002752], [-81.5466658, 28.4001249], [-81.5466282, 28.3997642], [-81.5465553, 28.3993391], [-81.5464651, 28.3989685], [-81.5463971, 28.3967087], [-81.5463542, 28.3964445], [-81.5462554, 28.3961387], [-81.5461739, 28.3959386], [-81.5459679, 28.3954478], [-81.5458504, 28.395235], [-81.5456761, 28.394942], [-81.5454958, 28.3947003], [-81.545255, 28.3944328], [-81.5449094, 28.3941307], [-81.5443081, 28.393522], [-81.5440909, 28.393338], [-81.5438656, 28.3930454], [-81.5436912, 28.3928401], [-81.5435464, 28.392616], [-81.5433962, 28.3921676], [-81.5432743, 28.3916391]]}, "properties": {"kind": "water", "name": null, "highway": null}}, {"type": "Feature", "geometry": {"type": "LineString", "coordinates": [[-81.5555294, 28.405569], [-81.555484, 28.4055246], [-81.5554522, 28.4054935], [-81.5553749, 28.4054633], [-81.5552805, 28.4053802], [-81.5552032, 28.4052896], [-81.5550917, 28.4052594], [-81.5549286, 28.4052745], [-81.5547998, 28.4053274], [-81.5546625, 28.4053727], [-81.5545681, 28.4054708], [-81.5545595, 28.4055992], [-81.554611, 28.40572], [-81.5546968, 28.4058332], [-81.5548342, 28.405871], [-81.5550058, 28.4058559], [-81.5551603, 28.4058257], [-81.5552719, 28.4057426], [-81.5553921, 28.4056596], [-81.5555294, 28.405569]]}, "properties": {"kind": "road", "name": "Cottontail Curl", "highway": "service"}}, {"type": "Feature", "geometry": {"type": "LineString", "coordinates": [[-81.5559757, 28.4037042], [-81.5557783, 28.4037268], [-81.555538, 28.4037042], [-81.5552891, 28.4036664], [-81.5551064, 28.4036112], [-81.5547741, 28.4034777], [-81.5544938, 28.403307], [-81.5542248, 28.4030851], [-81.5540874, 28.4029719]]}, "properties": {"kind": "road", "name": null, "highway": "service"}}, {"type": "Feature", "geometry": {"type": "LineString", "coordinates": [[-81.5543769, 28.401384], [-81.5542849, 28.4014921], [-81.5542417, 28.4016036], [-81.5542081, 28.4017617], [-81.5541561, 28.4019073], [-81.5541194, 28.402056], [-81.5541108, 28.4021768], [-81.554085, 28.4022824], [-81.554085, 28.4024108], [-81.5541022, 28.402524], [-81.5541465, 28.4026311], [-81.5542591, 28.4027845], [-81.5543254, 28.4027807], [-81.5544112, 28.4027505], [-81.5545233, 28.4027007], [-81.5546239, 28.4026429], [-81.554695, 28.4025709], [-81.5547151, 28.4025285], [-81.5547459, 28.4024636], [-81.5547459, 28.4023277], [-81.5547431, 28.4022875], [-81.5547374, 28.402207], [-81.5547374, 28.4020862], [-81.5547545, 28.4019805], [-81.5548146, 28.4018521], [-81.5548919, 28.4017162], [-81.5549176, 28.401603], [-81.554909, 28.4015199], [-81.5548575, 28.4014293], [-81.5547288, 28.4013538], [-81.5545228, 28.4013312], [-81.5543769, 28.401384]]}, "properties": {"kind": "road", "name": "Wagon Wheel Way", "highway": "service"}}, {"type": "Feature", "geometry": {"type": "LineString", "coordinates": [[-81.5538527, 28.4032941], [-81.5537924, 28.4033507], [-81.553684, 28.4034475], [-81.5535886, 28.4035288], [-81.5534491, 28.4035984], [-81.5532978, 28.4036664], [-81.5531862, 28.4037646], [-81.5531691, 28.4038854], [-81.5531862, 28.4040213], [-81.5532635, 28.4041194], [-81.5533922, 28.4041723], [-81.5535124, 28.4041798], [-81.5536325, 28.4041572], [-81.5537098, 28.4040892], [-81.5538214, 28.4040364], [-81.5539587, 28.4040288], [-81.5540874, 28.4040062], [-81.5542323, 28.4039641], [-81.5543302, 28.403904], [-81.5543637, 28.4038084], [-81.5543543, 28.4037011], [-81.5543154, 28.4036126], [-81.55427, 28.4035649], [-81.5542256, 28.4035182], [-81.5540982, 28.4034309], [-81.5539882, 28.4033755], [-81.5538527, 28.4032941]]}, "properties": {"kind": "road", "name": "Conestoga Trail", "highway": "service"}}, {"type": "Feature", "geometry": {"type": "LineString", "coordinates": [[-81.5551923, 28.4033319], [-81.5551408, 28.4035206], [-81.5551064, 28.4036112], [-81.5550857, 28.4036815], [-81.5550745, 28.4037193], [-81.5550549, 28.4038151], [-81.5550209, 28.4039087]]}, "properties": {"kind": "road", "name": null, "highway": "service"}}, {"type": "Feature", "geometry": {"type": "LineString", "coordinates": [[-81.5550053, 28.4024015], [-81.5549012, 28.4023717], [-81.5548367, 28.4025458], [-81.5549452, 28.402577], [-81.5549705, 28.4025085], [-81.5549922, 28.4025147], [-81.5550101, 28.4024667], [-81.5549839, 28.4024591], [-81.5549908, 28.4024407], [-81.5550053, 28.4024015]]}, "properties": {"kind": "comfort", "name": "Comfort Station", "highway": null}}, {"type": "Feature", "geometry": {"type": "LineString", "coordinates": [[-81.5542591, 28.4027845], [-81.5541612, 28.4028883], [-81.5540874, 28.4029719], [-81.5539721, 28.4030853], [-81.553889, 28.4031914], [-81.5538527, 28.4032941]]}, "properties": {"kind": "road", "name": null, "highway": "service"}}, {"type": "Feature", "geometry": {"type": "LineString", "coordinates": [[-81.5552953, 28.403347], [-81.5554092, 28.4033116], [-81.5555294, 28.4032361], [-81.555641, 28.4031379], [-81.5557182, 28.4030398], [-81.5557268, 28.4029492], [-81.5557268, 28.4028435], [-81.5557526, 28.4027529], [-81.5558298, 28.4026548], [-81.5559414, 28.402534], [-81.5560272, 28.4024283], [-81.5560873, 28.4022999], [-81.5560701, 28.4021414], [-81.5559671, 28.4019904], [-81.5558384, 28.4018847], [-81.5556667, 28.4018545], [-81.55558, 28.4018558], [-81.5555036, 28.4018696], [-81.5553921, 28.4019224], [-81.5552867, 28.4020031], [-81.5552352, 28.402139], [-81.5552438, 28.4022598], [-81.5552523, 28.4023957], [-81.5552523, 28.4025014], [-81.5552421, 28.4026016], [-81.5552094, 28.4027052], [-81.5551517, 28.4027831], [-81.5551002, 28.4028586], [-81.5550316, 28.4029417], [-81.5550144, 28.4030323], [-81.5550316, 28.403153], [-81.5550917, 28.4032587], [-81.5551923, 28.4033319], [-81.5552953, 28.403347]]}, "properties": {"kind": "road", "name": "Hickory Hollow", "highway": "service"}}, {"type": "Feature", "geometry": {"type": "LineString", "coordinates": [[-81.5550209, 28.4039087], [-81.5549457, 28.4040515], [-81.5548428, 28.4041874], [-81.5547312, 28.4042931], [-81.554611, 28.4043535], [-81.5544908, 28.4043761], [-81.5543192, 28.4044214], [-81.5541475, 28.4044969], [-81.5540445, 28.4046102], [-81.5540188, 28.4047461], [-81.5540968, 28.4048819], [-81.5542505, 28.4049424], [-81.5544565, 28.4049424], [-81.5546539, 28.4049046], [-81.554817, 28.4048518], [-81.5550058, 28.4047914], [-81.5551088, 28.4047385], [-81.5552094, 28.4046984], [-81.5552835, 28.404655], [-81.5553124, 28.404638], [-81.5554068, 28.4045474], [-81.5554498, 28.4044417], [-81.5554841, 28.4042907], [-81.5554634, 28.4041706], [-81.555391, 28.4040585], [-81.5552622, 28.4039948], [-81.5551134, 28.4039547], [-81.5550209, 28.4039087]]}, "properties": {"kind": "road", "name": "Timber Trail", "highway": "service"}}, {"type": "Feature", "geometry": {"type": "LineString", "coordinates": [[-81.5553281, 28.4050693], [-81.5553581, 28.404898], [-81.555456, 28.4049113], [-81.5554467, 28.4049645], [-81.555485, 28.4049697], [-81.5554756, 28.4050231], [-81.5554439, 28.4050188], [-81.5554326, 28.4050834], [-81.5553281, 28.4050693]]}, "properties": {"kind": "comfort", "name": "Comfort Station", "highway": null}}, {"type": "Feature", "geometry": {"type": "LineString", "coordinates": [[-81.5555785, 28.4014067], [-81.5553124, 28.40115], [-81.5549691, 28.4009688], [-81.5544799, 28.4009008], [-81.5540164, 28.4009839], [-81.5532267, 28.4011953], [-81.552686, 28.4014218], [-81.5524714, 28.4016105], [-81.5523427, 28.401837], [-81.5522397, 28.4021919], [-81.5521281, 28.4023881], [-81.5519822, 28.4025316], [-81.5517247, 28.4026373], [-81.5514329, 28.402743], [-81.5511925, 28.4029091], [-81.5510896, 28.4030072], [-81.5510163, 28.4031079]]}, "properties": {"kind": "water", "name": null, "highway": null}}, {"type": "Feature", "geometry": {"type": "Polygon", "coordinates": [[[-81.5502613, 28.4050878], [-81.5501728, 28.405102], [-81.5500977, 28.4050925], [-81.5500467, 28.4050477], [-81.5500441, 28.4049816], [-81.550087, 28.4049179], [-81.5501889, 28.404892], [-81.5502855, 28.4048165], [-81.5506368, 28.4047009], [-81.5509158, 28.404682], [-81.5511599, 28.4046985], [-81.5512859, 28.4047528], [-81.5515461, 28.404951], [-81.5517204, 28.4051256], [-81.551935, 28.4052907], [-81.5520128, 28.4053992], [-81.5520584, 28.4055337], [-81.5520584, 28.4056965], [-81.5520289, 28.4058404], [-81.5516668, 28.4068171], [-81.5516024, 28.4068926], [-81.5515005, 28.4069375], [-81.5510633, 28.4069469], [-81.5510043, 28.4069186], [-81.5509748, 28.406862], [-81.5509909, 28.406803], [-81.5510553, 28.4067322], [-81.5510606, 28.4066614], [-81.5510311, 28.4065246], [-81.5509882, 28.4064232], [-81.5509372, 28.4063642], [-81.5508058, 28.4063595], [-81.5507146, 28.4063547], [-81.5506851, 28.4063193], [-81.5506395, 28.4061919], [-81.5505698, 28.4060881], [-81.5505376, 28.4060669], [-81.5505188, 28.4060292], [-81.5505161, 28.4059206], [-81.5505778, 28.4058994], [-81.5506368, 28.4059206], [-81.5507146, 28.4059419], [-81.5507978, 28.4059183], [-81.5508648, 28.4058286], [-81.5509238, 28.4056965], [-81.5509694, 28.405562], [-81.5509533, 28.4054228], [-81.5509077, 28.4052883], [-81.5508541, 28.4051609], [-81.5507522, 28.4050972], [-81.550602, 28.4050642], [-81.5504303, 28.4050524], [-81.5502613, 28.4050878]]]}, "properties": {"kind": "water", "name": null, "highway": null}}, {"type": "Feature", "geometry": {"type": "Polygon", "coordinates": [[[-81.5577247, 28.4138125], [-81.5576387, 28.4138216], [-81.5575073, 28.4138782], [-81.5575596, 28.413608], [-81.5574969, 28.4134454], [-81.5575622, 28.4133662], [-81.5575363, 28.413312], [-81.5575177, 28.4132733], [-81.5574961, 28.4132282], [-81.5574041, 28.4132169], [-81.557213, 28.4127675], [-81.5570077, 28.4123416], [-81.556888, 28.4120668], [-81.5568412, 28.4119483], [-81.5568027, 28.4118792], [-81.5567579, 28.4118109], [-81.5566973, 28.4117417], [-81.5566157, 28.4116634], [-81.5565354, 28.411587], [-81.5564456, 28.4115173], [-81.5563729, 28.4114717], [-81.5562668, 28.4113931], [-81.5561096, 28.4113033], [-81.5559457, 28.4112244], [-81.5557241, 28.411114], [-81.5555528, 28.4110168], [-81.5554667, 28.410958], [-81.5553401, 28.4108697], [-81.5551394, 28.4107257], [-81.5549732, 28.4105876], [-81.5547969, 28.4104139], [-81.5547165, 28.4103083], [-81.5546654, 28.410223], [-81.5544831, 28.4098985], [-81.5544363, 28.4097864], [-81.5544041, 28.4096663], [-81.5543721, 28.4095155], [-81.554356, 28.4093481], [-81.5543727, 28.4092393], [-81.5543592, 28.4090788], [-81.5543879, 28.4089], [-81.5544137, 28.4085228], [-81.5544329, 28.4083658], [-81.5544291, 28.4082507], [-81.5544316, 28.4081715], [-81.5544684, 28.4079955], [-81.5544805, 28.4078356], [-81.5544916, 28.4076734], [-81.5544932, 28.4075225], [-81.5544859, 28.4073725], [-81.5544781, 28.4072228], [-81.5544594, 28.4070717], [-81.5544448, 28.406943], [-81.5544051, 28.4068072], [-81.5543786, 28.4066694], [-81.5543273, 28.4065744], [-81.5543068, 28.4064844], [-81.5542315, 28.4063099], [-81.5541285, 28.406087], [-81.5540652, 28.4059422], [-81.5540083, 28.4058601], [-81.5539866, 28.4057863], [-81.5539322, 28.4056596], [-81.5538596, 28.4055088], [-81.5537522, 28.4053367], [-81.5536389, 28.4051773], [-81.5534859, 28.4049688], [-81.5533041, 28.4047596], [-81.5531155, 28.4045731], [-81.552916, 28.4043834], [-81.5528414, 28.4043398], [-81.5527002, 28.4042089], [-81.5525149, 28.4040743], [-81.5522179, 28.4038846], [-81.5520843, 28.4038126], [-81.5520147, 28.4037606], [-81.5517149, 28.4036282], [-81.5515144, 28.4035339], [-81.5511639, 28.4034289], [-81.5509794, 28.4033738], [-81.5508004, 28.4033325], [-81.5499457, 28.4032245], [-81.5488224, 28.4029688], [-81.5482806, 28.4027239], [-81.5480306, 28.4025526], [-81.5472484, 28.4017443], [-81.5470253, 28.4014668], [-81.546818, 28.401071], [-81.546787, 28.40085], [-81.546712, 28.400493], [-81.5466389, 28.4002594], [-81.5465859, 28.4001214], [-81.5466658, 28.4001249], [-81.5467576, 28.400129], [-81.5467503, 28.4002205], [-81.5468307, 28.4004293], [-81.546942, 28.400735], [-81.547204, 28.401181], [-81.547322, 28.401329], [-81.547428, 28.4015], [-81.547571, 28.401698], [-81.547925, 28.402116], [-81.548149, 28.402342], [-81.548541, 28.402562], [-81.5491683, 28.4028299], [-81.5495789, 28.4029033], [-81.550228, 28.40303], [-81.550551, 28.403085], [-81.550838, 28.403156], [-81.5509201, 28.4031815], [-81.550999, 28.403206], [-81.5515407, 28.4033478], [-81.5520423, 28.4035932], [-81.5524929, 28.4038551], [-81.5526076, 28.4039328], [-81.5529529, 28.4041665], [-81.5536797, 28.4049026], [-81.5539748, 28.4053556], [-81.554123, 28.405688], [-81.554341, 28.406139], [-81.5544589, 28.4064313], [-81.5544884, 28.4065046], [-81.5545161, 28.406613], [-81.554652, 28.407146], [-81.554664, 28.407548], [-81.554615, 28.408555], [-81.554534, 28.409259], [-81.554577, 28.409611], [-81.554764, 28.410068], [-81.555031, 28.410404], [-81.555268, 28.410635], [-81.555467, 28.410767], [-81.5555632, 28.4108317], [-81.5563598, 28.4112625], [-81.556718, 28.411532], [-81.5569455, 28.4117746], [-81.5570515, 28.4119751], [-81.5573937, 28.4127115], [-81.5574419, 28.4128248], [-81.5575998, 28.4131456], [-81.5575435, 28.4132138], [-81.5575623, 28.4132567], [-81.5575811, 28.4132962], [-81.5575902, 28.4133154], [-81.5576067, 28.4133502], [-81.5576693, 28.413359], [-81.5577073, 28.4133644], [-81.5577362, 28.4135567], [-81.5577547, 28.4136151], [-81.5578108, 28.4137923], [-81.5577247, 28.4138125]]]}, "properties": {"kind": "water", "name": null, "highway": null}}, {"type": "Feature", "geometry": {"type": "LineString", "coordinates": [[-81.5514258, 28.3999087], [-81.5515003, 28.4000196], [-81.5515456, 28.4001161], [-81.5515831, 28.4002057], [-81.5515995, 28.4002697], [-81.5515966, 28.4003402], [-81.5515754, 28.4004018], [-81.5515137, 28.4004631], [-81.5514329, 28.4005266], [-81.5513632, 28.4005856], [-81.5513018, 28.4006472], [-81.5512613, 28.4007083], [-81.5512401, 28.4007793], [-81.5512586, 28.4008546], [-81.551278, 28.4008896], [-81.5513045, 28.4009374], [-81.5513847, 28.4010315], [-81.5515324, 28.4011804], [-81.5516531, 28.4013007], [-81.5517846, 28.4014163], [-81.5519053, 28.401506], [-81.5520233, 28.401598], [-81.5521035, 28.4016921], [-81.5521679, 28.401803], [-81.5521893, 28.4019068], [-81.5521786, 28.4020413], [-81.5521225, 28.4021595], [-81.5520606, 28.4022655], [-81.5519908, 28.4023551], [-81.5518811, 28.4024427], [-81.5517602, 28.4024849], [-81.5516341, 28.4025226], [-81.5515217, 28.4025512], [-81.5514198, 28.4026007], [-81.5513071, 28.4026692], [-81.5511889, 28.4027515], [-81.5510874, 28.402853], [-81.5510684, 28.4028721], [-81.5509906, 28.4029735], [-81.5509374, 28.4030277], [-81.5508973, 28.4030523], [-81.5508533, 28.4030691], [-81.5507944, 28.4030685], [-81.5507389, 28.4030621], [-81.5506452, 28.4030398], [-81.5505239, 28.403016], [-81.5503925, 28.40299], [-81.5502933, 28.4029664], [-81.5501377, 28.4029334], [-81.5499899, 28.4028954], [-81.5498239, 28.4028603], [-81.5496361, 28.4028225], [-81.5494454, 28.4027774], [-81.549299, 28.4027353]]}, "properties": {"kind": "road", "name": null, "highway": "service"}}, {"type": "Feature", "geometry": {"type": "Polygon", "coordinates": [[[-81.5569306, 28.402314], [-81.556554, 28.4024832], [-81.5565587, 28.4024528], [-81.5564674, 28.4025014], [-81.5563602, 28.4025745], [-81.5562904, 28.4026241], [-81.556226, 28.4026194], [-81.5561885, 28.4025863], [-81.5562046, 28.4025368], [-81.5562475, 28.4024825], [-81.5562985, 28.4023905], [-81.5563387, 28.4022914], [-81.5563387, 28.4021876], [-81.5562985, 28.4020555], [-81.5562439, 28.4019468], [-81.5561831, 28.4018573], [-81.5560919, 28.401803], [-81.5560142, 28.4017629], [-81.5558881, 28.4017393], [-81.5557379, 28.4017323], [-81.5556252, 28.4017393], [-81.5555553, 28.4017502], [-81.555467, 28.4017629], [-81.5553597, 28.40177], [-81.5552551, 28.40177], [-81.5551854, 28.4017535], [-81.5551263, 28.4017134], [-81.5551022, 28.4016355], [-81.5550861, 28.4015152], [-81.5550539, 28.4013854], [-81.5549681, 28.4012415], [-81.554901, 28.4011636], [-81.554783, 28.4010905], [-81.5546435, 28.4010669], [-81.5544933, 28.4010669], [-81.5543619, 28.4010976], [-81.5542063, 28.4011778], [-81.5540669, 28.4012769], [-81.5539542, 28.4014137], [-81.5539006, 28.4016048], [-81.5538362, 28.4018809], [-81.5538174, 28.4020437], [-81.5538416, 28.4021735], [-81.5538711, 28.4023386], [-81.5538952, 28.4025651], [-81.5538952, 28.4027067], [-81.5538872, 28.402919], [-81.553855, 28.4030747], [-81.5538174, 28.4031644], [-81.5536672, 28.4031927], [-81.5534607, 28.4032871], [-81.5533159, 28.4033838], [-81.5531576, 28.4035065], [-81.5530315, 28.4036127], [-81.5529296, 28.4036976], [-81.5528894, 28.4037778], [-81.5528572, 28.4038627], [-81.5528062, 28.4038793], [-81.5527124, 28.4038816], [-81.5526533, 28.4038675], [-81.5525434, 28.4037707], [-81.5524039, 28.4036528], [-81.5521384, 28.4034947], [-81.5519426, 28.403405], [-81.5517789, 28.4033201], [-81.551618, 28.4032399], [-81.5514464, 28.403188], [-81.5512693, 28.4031408], [-81.5511218, 28.4031148], [-81.5509585, 28.4030726], [-81.5509374, 28.4030277], [-81.5509906, 28.4029735], [-81.5510684, 28.4028721], [-81.5510874, 28.402853], [-81.5510387, 28.4027774], [-81.5509853, 28.4027352], [-81.5509233, 28.4026784], [-81.5508697, 28.4026453], [-81.5508429, 28.4026288], [-81.5508351, 28.402596], [-81.5508378, 28.4025441], [-81.5508619, 28.4025016], [-81.5509075, 28.4024261], [-81.5509421, 28.4023622], [-81.5509662, 28.4023056], [-81.5510121, 28.402235], [-81.5510523, 28.4021996], [-81.5511379, 28.4021357], [-81.5512294, 28.4020911], [-81.5513179, 28.4020604], [-81.5514168, 28.4020177], [-81.551452, 28.4019991], [-81.5514816, 28.4019018], [-81.5515507, 28.4014626], [-81.5514771, 28.4013876], [-81.5512964, 28.4012913], [-81.5512079, 28.4012134], [-81.5511486, 28.4011518], [-81.5511113, 28.4010955], [-81.5510523, 28.40102], [-81.5510092, 28.4009725], [-81.5509823, 28.4009253], [-81.5509638, 28.4008642], [-81.5509799, 28.40081], [-81.5510011, 28.400772], [-81.5510711, 28.4007463], [-81.5511248, 28.4007439], [-81.5511811, 28.4007604], [-81.5512401, 28.4007793], [-81.5512613, 28.4007083], [-81.5513018, 28.4006472], [-81.5513632, 28.4005856], [-81.5514329, 28.4005266], [-81.5515137, 28.4004631], [-81.5515754, 28.4004018], [-81.5515966, 28.4003402], [-81.5515995, 28.4002697], [-81.5515831, 28.4002057], [-81.5515456, 28.4001161], [-81.5515003, 28.4000196], [-81.5514761, 28.3999346], [-81.5516102, 28.3998214], [-81.5518138, 28.3998565], [-81.5519696, 28.39997], [-81.5521333, 28.4001423], [-81.5522379, 28.4002107], [-81.5523073, 28.4002435], [-81.5523908, 28.4002319], [-81.5524873, 28.4001989], [-81.5525836, 28.4001491], [-81.5526724, 28.4000786], [-81.5532544, 28.399727], [-81.5533644, 28.3996916], [-81.5534985, 28.3996822], [-81.5536674, 28.3997317], [-81.5537879, 28.3998164], [-81.5540053, 28.3999724], [-81.5541581, 28.4000665], [-81.5544103, 28.3996751], [-81.5542843, 28.399576], [-81.55415, 28.3995333], [-81.5539381, 28.3994932], [-81.5537988, 28.3994982], [-81.5537155, 28.3995215], [-81.5536484, 28.3995545], [-81.5535894, 28.3995781], [-81.5535331, 28.399597], [-81.5534717, 28.3995902], [-81.5534205, 28.3995663], [-81.5533912, 28.3995147], [-81.5533859, 28.3994675], [-81.5533939, 28.3994226], [-81.5534205, 28.3993894], [-81.5534824, 28.3993755], [-81.5535441, 28.3993707], [-81.5535869, 28.3993471], [-81.5536164, 28.3992764], [-81.5536539, 28.399241], [-81.5537478, 28.3991796], [-81.553831, 28.3991395], [-81.5539569, 28.399085], [-81.5540427, 28.3990355], [-81.5541151, 28.3989836], [-81.5541715, 28.3989175], [-81.5542332, 28.3988562], [-81.5543056, 28.3988444], [-81.5543968, 28.3988514], [-81.5544907, 28.3988703], [-81.5545899, 28.3989246], [-81.554665, 28.3989954], [-81.5547052, 28.3990779], [-81.5547052, 28.3991629], [-81.5547106, 28.3992573], [-81.5547186, 28.3993257], [-81.5547428, 28.3993705], [-81.5548125, 28.3994366], [-81.5548662, 28.399505], [-81.5548796, 28.3995734], [-81.5548796, 28.3996112], [-81.5549493, 28.3996395], [-81.5550191, 28.3997008], [-81.5550325, 28.3997527], [-81.5550325, 28.3998117], [-81.5550298, 28.3999061], [-81.5550378, 28.4000264], [-81.5550915, 28.4000878], [-81.5552444, 28.4001845], [-81.5553838, 28.4002175], [-81.5555367, 28.40026], [-81.5556505, 28.4003067], [-81.5558172, 28.4004782], [-81.5558609, 28.4005211], [-81.5559179, 28.4005856], [-81.5559446, 28.400632], [-81.5559642, 28.4006657], [-81.5559916, 28.4007021], [-81.5560261, 28.4007328], [-81.5560681, 28.4007604], [-81.5561012, 28.4008012], [-81.5561126, 28.4008455], [-81.5561218, 28.4008986], [-81.5563887, 28.401141], [-81.5564365, 28.4013466], [-81.5565428, 28.401627], [-81.5567446, 28.4019308], [-81.5569306, 28.402314]]]}, "properties": {"kind": "wood", "name": null, "highway": null}}, {"type": "Feature", "geometry": {"type": "LineString", "coordinates": [[-81.554848, 28.4035964], [-81.5546959, 28.4035102], [-81.554635, 28.4035932], [-81.5547872, 28.4036794], [-81.554848, 28.4035964]]}, "properties": {"kind": "comfort", "name": "Comfort Station", "highway": null}}, {"type": "Feature", "geometry": {"type": "LineString", "coordinates": [[-81.5552032, 28.4052896], [-81.5552926, 28.4051235], [-81.5553274, 28.4049772], [-81.5553435, 28.4048285], [-81.5552835, 28.404655]]}, "properties": {"kind": "trail", "name": null, "highway": "footway"}}, {"type": "Feature", "geometry": {"type": "LineString", "coordinates": [[-81.5560511, 28.403889], [-81.5559668, 28.4038658], [-81.5558987, 28.4038471], [-81.5558263, 28.4037928], [-81.5557646, 28.4037692], [-81.5553328, 28.4037385], [-81.5551719, 28.4037126], [-81.5550857, 28.4036815], [-81.5549171, 28.4036206], [-81.5546596, 28.403479], [-81.5545711, 28.4034672], [-81.55427, 28.4035649]]}, "properties": {"kind": "trail", "name": null, "highway": "footway"}}, {"type": "Feature", "geometry": {"type": "LineString", "coordinates": [[-81.5552421, 28.4026016], [-81.5550995, 28.402448], [-81.5549948, 28.4023607], [-81.5548661, 28.4023041], [-81.5547431, 28.4022875]]}, "properties": {"kind": "trail", "name": null, "highway": "footway"}}, {"type": "Feature", "geometry": {"type": "Polygon", "coordinates": [[[-81.5559265, 28.4036505], [-81.5558946, 28.4033935], [-81.5559424, 28.4031411], [-81.5560062, 28.4029869], [-81.5556609, 28.4034355], [-81.5554218, 28.403529], [-81.5552093, 28.403515], [-81.555204, 28.4035991], [-81.5555387, 28.4036645], [-81.5558202, 28.4036645], [-81.5559265, 28.4036505]]]}, "properties": {"kind": "wood", "name": null, "highway": null}}, {"type": "Feature", "geometry": {"type": "Polygon", "coordinates": [[[-81.5558149, 28.402328], [-81.5556024, 28.4025523], [-81.5554962, 28.4025149], [-81.5554324, 28.4021598], [-81.5555918, 28.4020803], [-81.5557937, 28.402099], [-81.5558149, 28.402328]]]}, "properties": {"kind": "wood", "name": null, "highway": null}}, {"type": "Feature", "geometry": {"type": "Polygon", "coordinates": [[[-81.5548746, 28.4033654], [-81.5547365, 28.4031878], [-81.5547099, 28.4029215], [-81.554593, 28.4029028], [-81.5543061, 28.4029308], [-81.5542265, 28.4030103], [-81.554593, 28.4033093], [-81.5548268, 28.4034449], [-81.5548746, 28.4033654]]]}, "properties": {"kind": "wood", "name": null, "highway": null}}, {"type": "Feature", "geometry": {"type": "Polygon", "coordinates": [[[-81.555629, 28.4054403], [-81.5556715, 28.4048468], [-81.5557352, 28.4045524], [-81.5558946, 28.404029], [-81.5558999, 28.4039168], [-81.5556768, 28.4038234], [-81.5557299, 28.4042346], [-81.5555918, 28.4047486], [-81.5555334, 28.4051131], [-81.5553846, 28.4052253], [-81.5553262, 28.4053421], [-81.5554962, 28.4054589], [-81.555629, 28.4054403]]]}, "properties": {"kind": "wood", "name": null, "highway": null}}]}