{"type": "FeatureCollection", "features": [{"type": "Feature", "geometry": {"type": "LineString", "coordinates": [[-81.5570245, 28.4023338], [-81.5565658, 28.4025155], [-81.5563417, 28.4026469], [-81.5561443, 28.402896], [-81.5560242, 28.4031225], [-81.5559641, 28.4033867], [-81.5559757, 28.4037042], [-81.5559668, 28.4038658], [-81.5559641, 28.4039152], [-81.5559525, 28.4040693], [-81.5558954, 28.4042701], [-81.5557842, 28.4046143], [-81.555737, 28.4048008], [-81.5557236, 28.4049993], [-81.5557237, 28.4053119], [-81.5557223, 28.4053948], [-81.5557182, 28.4055614], [-81.5557348, 28.4058163]]}, "properties": {"kind": "road", "name": "Big Pine Trail", "highway": "unclassified"}}, {"type": "Feature", "geometry": {"type": "LineString", "coordinates": [[-81.5559757, 28.4037042], [-81.5557783, 28.4037268], [-81.555538, 28.4037042], [-81.5552891, 28.4036664], [-81.5551064, 28.4036112], [-81.5547741, 28.4034777], [-81.5544938, 28.403307], [-81.5542248, 28.4030851], [-81.5540874, 28.4029719]]}, "properties": {"kind": "road", "name": null, "highway": "service"}}, {"type": "Feature", "geometry": {"type": "LineString", "coordinates": [[-81.5543769, 28.401384], [-81.5542849, 28.4014921], [-81.5542417, 28.4016036], [-81.5542081, 28.4017617], [-81.5541561, 28.4019073], [-81.5541194, 28.402056], [-81.5541108, 28.4021768], [-81.554085, 28.4022824], [-81.554085, 28.4024108], [-81.5541022, 28.402524], [-81.5541465, 28.4026311], [-81.5542591, 28.4027845], [-81.5543254, 28.4027807], [-81.5544112, 28.4027505], [-81.5545233, 28.4027007], [-81.5546239, 28.4026429], [-81.554695, 28.4025709], [-81.5547151, 28.4025285], [-81.5547459, 28.4024636], [-81.5547459, 28.4023277], [-81.5547431, 28.4022875], [-81.5547374, 28.402207], [-81.5547374, 28.4020862], [-81.5547545, 28.4019805], [-81.5548146, 28.4018521], [-81.5548919, 28.4017162], [-81.5549176, 28.401603], [-81.554909, 28.4015199], [-81.5548575, 28.4014293], [-81.5547288, 28.4013538], [-81.5545228, 28.4013312], [-81.5543769, 28.401384]]}, "properties": {"kind": "road", "name": "Wagon Wheel Way", "highway": "service"}}, {"type": "Feature", "geometry": {"type": "LineString", "coordinates": [[-81.5538527, 28.4032941], [-81.5537924, 28.4033507], [-81.553684, 28.4034475], [-81.5535886, 28.4035288], [-81.5534491, 28.4035984], [-81.5532978, 28.4036664], [-81.5531862, 28.4037646], [-81.5531691, 28.4038854], [-81.5531862, 28.4040213], [-81.5532635, 28.4041194], [-81.5533922, 28.4041723], [-81.5535124, 28.4041798], [-81.5536325, 28.4041572], [-81.5537098, 28.4040892], [-81.5538214, 28.4040364], [-81.5539587, 28.4040288], [-81.5540874, 28.4040062], [-81.5542323, 28.4039641], [-81.5543302, 28.403904], [-81.5543637, 28.4038084], [-81.5543543, 28.4037011], [-81.5543154, 28.4036126], [-81.55427, 28.4035649], [-81.5542256, 28.4035182], [-81.5540982, 28.4034309], [-81.5539882, 28.4033755], [-81.5538527, 28.4032941]]}, "properties": {"kind": "road", "name": "Conestoga Trail", "highway": "service"}}, {"type": "Feature", "geometry": {"type": "LineString", "coordinates": [[-81.5551923, 28.4033319], [-81.5551408, 28.4035206], [-81.5551064, 28.4036112], [-81.5550857, 28.4036815], [-81.5550745, 28.4037193], [-81.5550549, 28.4038151], [-81.5550209, 28.4039087]]}, "properties": {"kind": "road", "name": null, "highway": "service"}}, {"type": "Feature", "geometry": {"type": "LineString", "coordinates": [[-81.5550053, 28.4024015], [-81.5549012, 28.4023717], [-81.5548367, 28.4025458], [-81.5549452, 28.402577], [-81.5549705, 28.4025085], [-81.5549922, 28.4025147], [-81.5550101, 28.4024667], [-81.5549839, 28.4024591], [-81.5549908, 28.4024407], [-81.5550053, 28.4024015]]}, "properties": {"kind": "comfort", "name": "Comfort Station", "highway": null}}, {"type": "Feature", "geometry": {"type": "LineString", "coordinates": [[-81.5542591, 28.4027845], [-81.5541612, 28.4028883], [-81.5540874, 28.4029719], [-81.5539721, 28.4030853], [-81.553889, 28.4031914], [-81.5538527, 28.4032941]]}, "properties": {"kind": "road", "name": null, "highway": "service"}}, {"type": "Feature", "geometry": {"type": "LineString", "coordinates": [[-81.5552953, 28.403347], [-81.5554092, 28.4033116], [-81.5555294, 28.4032361], [-81.555641, 28.4031379], [-81.5557182, 28.4030398], [-81.5557268, 28.4029492], [-81.5557268, 28.4028435], [-81.5557526, 28.4027529], [-81.5558298, 28.4026548], [-81.5559414, 28.402534], [-81.5560272, 28.4024283], [-81.5560873, 28.4022999], [-81.5560701, 28.4021414], [-81.5559671, 28.4019904], [-81.5558384, 28.4018847], [-81.5556667, 28.4018545], [-81.55558, 28.4018558], [-81.5555036, 28.4018696], [-81.5553921, 28.4019224], [-81.5552867, 28.4020031], [-81.5552352, 28.402139], [-81.5552438, 28.4022598], [-81.5552523, 28.4023957], [-81.5552523, 28.4025014], [-81.5552421, 28.4026016], [-81.5552094, 28.4027052], [-81.5551517, 28.4027831], [-81.5551002, 28.4028586], [-81.5550316, 28.4029417], [-81.5550144, 28.4030323], [-81.5550316, 28.403153], [-81.5550917, 28.4032587], [-81.5551923, 28.4033319], [-81.5552953, 28.403347]]}, "properties": {"kind": "road", "name": "Hickory Hollow", "highway": "service"}}, {"type": "Feature", "geometry": {"type": "LineString", "coordinates": [[-81.5550209, 28.4039087], [-81.5549457, 28.4040515], [-81.5548428, 28.4041874], [-81.5547312, 28.4042931], [-81.554611, 28.4043535], [-81.5544908, 28.4043761], [-81.5543192, 28.4044214], [-81.5541475, 28.4044969], [-81.5540445, 28.4046102], [-81.5540188, 28.4047461], [-81.5540968, 28.4048819], [-81.5542505, 28.4049424], [-81.5544565, 28.4049424], [-81.5546539, 28.4049046], [-81.554817, 28.4048518], [-81.5550058, 28.4047914], [-81.5551088, 28.4047385], [-81.5552094, 28.4046984], [-81.5552835, 28.404655], [-81.5553124, 28.404638], [-81.5554068, 28.4045474], [-81.5554498, 28.4044417], [-81.5554841, 28.4042907], [-81.5554634, 28.4041706], [-81.555391, 28.4040585], [-81.5552622, 28.4039948], [-81.5551134, 28.4039547], [-81.5550209, 28.4039087]]}, "properties": {"kind": "road", "name": "Timber Trail", "highway": "service"}}, {"type": "Feature", "geometry": {"type": "LineString", "coordinates": [[-81.5555785, 28.4014067], [-81.5553124, 28.40115], [-81.5549691, 28.4009688], [-81.5544799, 28.4009008], [-81.5540164, 28.4009839], [-81.5532267, 28.4011953], [-81.552686, 28.4014218], [-81.5524714, 28.4016105], [-81.5523427, 28.401837], [-81.5522397, 28.4021919], [-81.5521281, 28.4023881], [-81.5519822, 28.4025316], [-81.5517247, 28.4026373], [-81.5514329, 28.402743], [-81.5511925, 28.4029091], [-81.5510896, 28.4030072], [-81.5510163, 28.4031079]]}, "properties": {"kind": "water", "name": null, "highway": null}}, {"type": "Feature", "geometry": {"type": "Polygon", "coordinates": [[[-81.555647, 28.4013718], [-81.5556259, 28.4014016], [-81.555586, 28.401423], [-81.55553, 28.401423], [-81.555405, 28.401357], [-81.555374, 28.40133], [-81.555349, 28.401269], [-81.555362, 28.401231], [-81.555437, 28.401214], [-81.555555, 28.401214], [-81.555586, 28.401225], [-81.555648, 28.401324], [-81.555647, 28.4013718]]]}, "properties": {"kind": "water", "name": null, "highway": null}}, {"type": "Feature", "geometry": {"type": "LineString", "coordinates": [[-81.5536543, 28.3970051], [-81.5536886, 28.3970731], [-81.5537144, 28.3971788], [-81.5537401, 28.3972241], [-81.5537916, 28.3972467], [-81.5538345, 28.3973071], [-81.5539375, 28.3974657], [-81.553989, 28.397579], [-81.5540663, 28.3976771], [-81.5541349, 28.3977979], [-81.5542036, 28.3978961], [-81.5542637, 28.3979565], [-81.5543324, 28.3980546], [-81.5544096, 28.3981377], [-81.554504, 28.3982585], [-81.5545984, 28.3983415], [-81.5546843, 28.3984246], [-81.5547958, 28.3985152], [-81.5548903, 28.3986058], [-81.5549565, 28.3987027], [-81.5550195, 28.3987995], [-81.5550182, 28.3988596], [-81.5549699, 28.3989469], [-81.5549431, 28.3990212], [-81.5549457, 28.3991109], [-81.5552336, 28.3996681], [-81.5554551, 28.4000619], [-81.5554922, 28.4001218], [-81.5555469, 28.4001992], [-81.5555913, 28.4002457], [-81.5556505, 28.4003067], [-81.5558172, 28.4004782], [-81.5558609, 28.4005211], [-81.5559179, 28.4005856], [-81.5559446, 28.400632], [-81.5559642, 28.4006657], [-81.5559916, 28.4007021], [-81.5560261, 28.4007328], [-81.5560681, 28.4007604], [-81.5561012, 28.4008012], [-81.5561126, 28.4008455], [-81.5561218, 28.4008986], [-81.5561683, 28.4011246], [-81.5562071, 28.4012756], [-81.5562317, 28.401397], [-81.5562429, 28.4014663], [-81.5562643, 28.4015362], [-81.5562831, 28.4015865], [-81.5563072, 28.4016356], [-81.5565456, 28.402241], [-81.5565687, 28.4023294], [-81.5565673, 28.4023984], [-81.5565587, 28.4024528], [-81.556554, 28.4024832], [-81.5565658, 28.4025155], [-81.5565925, 28.4025823]]}, "properties": {"kind": "trail", "name": null, "highway": "footway"}}, {"type": "Feature", "geometry": {"type": "LineString", "coordinates": [[-81.5551248, 28.4004938], [-81.5550886, 28.4003416], [-81.5550739, 28.4002071], [-81.5550564, 28.4000585], [-81.5550632, 28.3999452], [-81.5550712, 28.3998662], [-81.5550752, 28.3998367], [-81.5550685, 28.3998084], [-81.5550363, 28.3997824], [-81.5549867, 28.3997706], [-81.5549277, 28.3997683], [-81.5548566, 28.3997789], [-81.5547858, 28.3997768], [-81.5546662, 28.3997636], [-81.5545522, 28.3997388], [-81.5544529, 28.3997105], [-81.5543966, 28.3996928]]}, "properties": {"kind": "trail", "name": null, "highway": "track"}}, {"type": "Feature", "geometry": {"type": "LineString", "coordinates": [[-81.5541909, 28.39999], [-81.5548767, 28.4003558], [-81.5551248, 28.4004938], [-81.5552804, 28.4005905], [-81.5553971, 28.4006743], [-81.5555312, 28.4007699], [-81.5556211, 28.4008288], [-81.5557619, 28.4009008], [-81.5558316, 28.4009315], [-81.5558732, 28.4009503], [-81.555896, 28.400981], [-81.5559, 28.4010093], [-81.5558946, 28.4010435], [-81.5558732, 28.4010836], [-81.5558343, 28.4011108], [-81.5558021, 28.401145], [-81.5557324, 28.4012453], [-81.5556546, 28.4013703], [-81.5555835, 28.4014989], [-81.5555553, 28.4015945], [-81.55555, 28.4016688], [-81.5555553, 28.4017502], [-81.5555687, 28.4018151], [-81.55558, 28.4018558]]}, "properties": {"kind": "trail", "name": null, "highway": "track"}}, {"type": "Feature", "geometry": {"type": "Polygon", "coordinates": [[[-81.5569306, 28.402314], [-81.556554, 28.4024832], [-81.5565587, 28.4024528], [-81.5564674, 28.4025014], [-81.5563602, 28.4025745], [-81.5562904, 28.4026241], [-81.556226, 28.4026194], [-81.5561885, 28.4025863], [-81.5562046, 28.4025368], [-81.5562475, 28.4024825], [-81.5562985, 28.4023905], [-81.5563387, 28.4022914], [-81.5563387, 28.4021876], [-81.5562985, 28.4020555], [-81.5562439, 28.4019468], [-81.5561831, 28.4018573], [-81.5560919, 28.401803], [-81.5560142, 28.4017629], [-81.5558881, 28.4017393], [-81.5557379, 28.4017323], [-81.5556252, 28.4017393], [-81.5555553, 28.4017502], [-81.555467, 28.4017629], [-81.5553597, 28.40177], [-81.5552551, 28.40177], [-81.5551854, 28.4017535], [-81.5551263, 28.4017134], [-81.5551022, 28.4016355], [-81.5550861, 28.4015152], [-81.5550539, 28.4013854], [-81.5549681, 28.4012415], [-81.554901, 28.4011636], [-81.554783, 28.4010905], [-81.5546435, 28.4010669], [-81.5544933, 28.4010669], [-81.5543619, 28.4010976], [-81.5542063, 28.4011778], [-81.5540669, 28.4012769], [-81.5539542, 28.4014137], [-81.5539006, 28.4016048], [-81.5538362, 28.4018809], [-81.5538174, 28.4020437], [-81.5538416, 28.4021735], [-81.5538711, 28.4023386], [-81.5538952, 28.4025651], [-81.5538952, 28.4027067], [-81.5538872, 28.402919], [-81.553855, 28.4030747], [-81.5538174, 28.4031644], [-81.5536672, 28.4031927], [-81.5534607, 28.4032871], [-81.5533159, 28.4033838], [-81.5531576, 28.4035065], [-81.5530315, 28.4036127], [-81.5529296, 28.4036976], [-81.5528894, 28.4037778], [-81.5528572, 28.4038627], [-81.5528062, 28.4038793], [-81.5527124, 28.4038816], [-81.5526533, 28.4038675], [-81.5525434, 28.4037707], [-81.5524039, 28.4036528], [-81.5521384, 28.4034947], [-81.5519426, 28.403405], [-81.5517789, 28.4033201], [-81.551618, 28.4032399], [-81.5514464, 28.403188], [-81.5512693, 28.4031408], [-81.5511218, 28.4031148], [-81.5509585, 28.4030726], [-81.5509374, 28.4030277], [-81.5509906, 28.4029735], [-81.5510684, 28.4028721], [-81.5510874, 28.402853], [-81.5510387, 28.4027774], [-81.5509853, 28.4027352], [-81.5509233, 28.4026784], [-81.5508697, 28.4026453], [-81.5508429, 28.4026288], [-81.5508351, 28.402596], [-81.5508378, 28.4025441], [-81.5508619, 28.4025016], [-81.5509075, 28.4024261], [-81.5509421, 28.4023622], [-81.5509662, 28.4023056], [-81.5510121, 28.402235], [-81.5510523, 28.4021996], [-81.5511379, 28.4021357], [-81.5512294, 28.4020911], [-81.5513179, 28.4020604], [-81.5514168, 28.4020177], [-81.551452, 28.4019991], [-81.5514816, 28.4019018], [-81.5515507, 28.4014626], [-81.5514771, 28.4013876], [-81.5512964, 28.4012913], [-81.5512079, 28.4012134], [-81.5511486, 28.4011518], [-81.5511113, 28.4010955], [-81.5510523, 28.40102], [-81.5510092, 28.4009725], [-81.5509823, 28.4009253], [-81.5509638, 28.4008642], [-81.5509799, 28.40081], [-81.5510011, 28.400772], [-81.5510711, 28.4007463], [-81.5511248, 28.4007439], [-81.5511811, 28.4007604], [-81.5512401, 28.4007793], [-81.5512613, 28.4007083], [-81.5513018, 28.4006472], [-81.5513632, 28.4005856], [-81.5514329, 28.4005266], [-81.5515137, 28.4004631], [-81.5515754, 28.4004018], [-81.5515966, 28.4003402], [-81.5515995, 28.4002697], [-81.5515831, 28.4002057], [-81.5515456, 28.4001161], [-81.5515003, 28.4000196], [-81.5514761, 28.3999346], [-81.5516102, 28.3998214], [-81.5518138, 28.3998565], [-81.5519696, 28.39997], [-81.5521333, 28.4001423], [-81.5522379, 28.4002107], [-81.5523073, 28.4002435], [-81.5523908, 28.4002319], [-81.5524873, 28.4001989], [-81.5525836, 28.4001491], [-81.5526724, 28.4000786], [-81.5532544, 28.399727], [-81.5533644, 28.3996916], [-81.5534985, 28.3996822], [-81.5536674, 28.3997317], [-81.5537879, 28.3998164], [-81.5540053, 28.3999724], [-81.5541581, 28.4000665], [-81.5544103, 28.3996751], [-81.5542843, 28.399576], [-81.55415, 28.3995333], [-81.5539381, 28.3994932], [-81.5537988, 28.3994982], [-81.5537155, 28.3995215], [-81.5536484, 28.3995545], [-81.5535894, 28.3995781], [-81.5535331, 28.399597], [-81.5534717, 28.3995902], [-81.5534205, 28.3995663], [-81.5533912, 28.3995147], [-81.5533859, 28.3994675], [-81.5533939, 28.3994226], [-81.5534205, 28.3993894], [-81.5534824, 28.3993755], [-81.5535441, 28.3993707], [-81.5535869, 28.3993471], [-81.5536164, 28.3992764], [-81.5536539, 28.399241], [-81.5537478, 28.3991796], [-81.553831, 28.3991395], [-81.5539569, 28.399085], [-81.5540427, 28.3990355], [-81.5541151, 28.3989836], [-81.5541715, 28.3989175], [-81.5542332, 28.3988562], [-81.5543056, 28.3988444], [-81.5543968, 28.3988514], [-81.5544907, 28.3988703], [-81.5545899, 28.3989246], [-81.554665, 28.3989954], [-81.5547052, 28.3990779], [-81.5547052, 28.3991629], [-81.5547106, 28.3992573], [-81.5547186, 28.3993257], [-81.5547428, 28.3993705], [-81.5548125, 28.3994366], [-81.5548662, 28.399505], [-81.5548796, 28.3995734], [-81.5548796, 28.3996112], [-81.5549493, 28.3996395], [-81.5550191, 28.3997008], [-81.5550325, 28.3997527], [-81.5550325, 28.3998117], [-81.5550298, 28.3999061], [-81.5550378, 28.4000264], [-81.5550915, 28.4000878], [-81.5552444, 28.4001845], [-81.5553838, 28.4002175], [-81.5555367, 28.40026], [-81.5556505, 28.4003067], [-81.5558172, 28.4004782], [-81.5558609, 28.4005211], [-81.5559179, 28.4005856], [-81.5559446, 28.400632], [-81.5559642, 28.4006657], [-81.5559916, 28.4007021], [-81.5560261, 28.4007328], [-81.5560681, 28.4007604], [-81.5561012, 28.4008012], [-81.5561126, 28.4008455], [-81.5561218, 28.4008986], [-81.5563887, 28.401141], [-81.5564365, 28.4013466], [-81.5565428, 28.401627], [-81.5567446, 28.4019308], [-81.5569306, 28.402314]]]}, "properties": {"kind": "wood", "name": null, "highway": null}}, {"type": "Feature", "geometry": {"type": "LineString", "coordinates": [[-81.5551282, 28.3987543], [-81.5552447, 28.3989234], [-81.5553416, 28.3990977], [-81.5554139, 28.399241], [-81.5557726, 28.3998994], [-81.5558305, 28.3999812], [-81.5559062, 28.4000633], [-81.5560237, 28.4001368], [-81.5561631, 28.4002172], [-81.5562932, 28.4003095], [-81.5564143, 28.4004216], [-81.5564963, 28.400538], [-81.5565431, 28.4006435], [-81.5565779, 28.4007908], [-81.5565897, 28.4008482]]}, "properties": {"kind": "road", "name": "Fort Wilderness Trail", "highway": "unclassified"}}, {"type": "Feature", "geometry": {"type": "LineString", "coordinates": [[-81.554848, 28.4035964], [-81.5546959, 28.4035102], [-81.554635, 28.4035932], [-81.5547872, 28.4036794], [-81.554848, 28.4035964]]}, "properties": {"kind": "comfort", "name": "Comfort Station", "highway": null}}, {"type": "Feature", "geometry": {"type": "LineString", "coordinates": [[-81.5565925, 28.4025823], [-81.556413, 28.4026922], [-81.5562465, 28.4028673], [-81.5561343, 28.4030328], [-81.556062, 28.4032747], [-81.5560656, 28.403523], [-81.5560511, 28.403889], [-81.5560077, 28.4041723], [-81.5558955, 28.4044715], [-81.5558195, 28.4047707], [-81.5557906, 28.4049585], [-81.5557773, 28.4053553], [-81.5557774, 28.4053591], [-81.5557786, 28.4053965], [-81.555787, 28.4058083]]}, "properties": {"kind": "trail", "name": null, "highway": "footway"}}, {"type": "Feature", "geometry": {"type": "LineString", "coordinates": [[-81.5560511, 28.403889], [-81.5559668, 28.4038658], [-81.5558987, 28.4038471], [-81.5558263, 28.4037928], [-81.5557646, 28.4037692], [-81.5553328, 28.4037385], [-81.5551719, 28.4037126], [-81.5550857, 28.4036815], [-81.5549171, 28.4036206], [-81.5546596, 28.403479], [-81.5545711, 28.4034672], [-81.55427, 28.4035649]]}, "properties": {"kind": "trail", "name": null, "highway": "footway"}}, {"type": "Feature", "geometry": {"type": "LineString", "coordinates": [[-81.5552421, 28.4026016], [-81.5550995, 28.402448], [-81.5549948, 28.4023607], [-81.5548661, 28.4023041], [-81.5547431, 28.4022875]]}, "properties": {"kind": "trail", "name": null, "highway": "footway"}}, {"type": "Feature", "geometry": {"type": "Polygon", "coordinates": [[[-81.5559265, 28.4036505], [-81.5558946, 28.4033935], [-81.5559424, 28.4031411], [-81.5560062, 28.4029869], [-81.5556609, 28.4034355], [-81.5554218, 28.403529], [-81.5552093, 28.403515], [-81.555204, 28.4035991], [-81.5555387, 28.4036645], [-81.5558202, 28.4036645], [-81.5559265, 28.4036505]]]}, "properties": {"kind": "wood", "name": null, "highway": null}}, {"type": "Feature", "geometry": {"type": "Polygon", "coordinates": [[[-81.5558149, 28.402328], [-81.5556024, 28.4025523], [-81.5554962, 28.4025149], [-81.5554324, 28.4021598], [-81.5555918, 28.4020803], [-81.5557937, 28.402099], [-81.5558149, 28.402328]]]}, "properties": {"kind": "wood", "name": null, "highway": null}}, {"type": "Feature", "geometry": {"type": "Polygon", "coordinates": [[[-81.5548746, 28.4033654], [-81.5547365, 28.4031878], [-81.5547099, 28.4029215], [-81.554593, 28.4029028], [-81.5543061, 28.4029308], [-81.5542265, 28.4030103], [-81.554593, 28.4033093], [-81.5548268, 28.4034449], [-81.5548746, 28.4033654]]]}, "properties": {"kind": "wood", "name": null, "highway": null}}, {"type": "Feature", "geometry": {"type": "Polygon", "coordinates": [[[-81.555629, 28.4054403], [-81.5556715, 28.4048468], [-81.5557352, 28.4045524], [-81.5558946, 28.404029], [-81.5558999, 28.4039168], [-81.5556768, 28.4038234], [-81.5557299, 28.4042346], [-81.5555918, 28.4047486], [-81.5555334, 28.4051131], [-81.5553846, 28.4052253], [-81.5553262, 28.4053421], [-81.5554962, 28.4054589], [-81.555629, 28.4054403]]]}, "properties": {"kind": "wood", "name": null, "highway": null}}]}