{
 "type": "FeatureCollection",
 "features": [
  {
   "type": "Feature",
   "geometry": {
    "type": "LineString",
    "coordinates": [
     [
      -81.55784873146183,
      28.41074093754284
     ],
     [
      -81.5578713308706,
      28.410707068608385
     ],
     [
      -81.55789783691971,
      28.410675490524362
     ],
     [
      -81.55792795593793,
      28.410646556536385
     ],
     [
      -81.55803061353066,
      28.410556488975747
     ]
    ]
   },
   "properties": {
    "theoretical_left": [
     301,
     309
    ],
    "theoretical_right": [
     300,
     310
    ],
    "from": "Cypress Knee Cir",
    "to": "Big Pine Dr",
    "length_ft": 89.6
   }
  },
  {
   "type": "Feature",
   "geometry": {
    "type": "LineString",
    "coordinates": [
     [
      -81.55766553867586,
      28.412268795036425
     ],
     [
      -81.55760099236971,
      28.412191482942205
     ],
     [
      -81.55752966996386,
      28.412061131236044
     ],
     [
      -81.55750542456398,
      28.411986291694355
     ],
     [
      -81.55748269940663,
      28.411844138665362
     ],
     [
      -81.55745485147887,
      28.411742500692412
     ],
     [
      -81.55725644958355,
      28.411471531243052
     ],
     [
      -81.5571566535584,
      28.41129329601223
     ],
     [
      -81.55711591898508,
      28.41101598870727
     ],
     [
      -81.5571247550985,
      28.41095015523521
     ],
     [
      -81.55714372848506,
      28.41089980189822
     ],
     [
      -81.5571945571186,
      28.410834223627425
     ],
     [
      -81.55724921085586,
      28.410788057477557
     ],
     [
      -81.55732645354264,
      28.41074581507272
     ],
     [
      -81.55767183802963,
      28.410614859792197
     ]
    ]
   },
   "properties": {
    "theoretical_left": [
     338,
     360
    ],
    "theoretical_right": [
     337,
     361
    ],
    "from": "Swamp Trl",
    "to": "Cypress Knee Cir",
    "length_ft": 746.2
   }
  },
  {
   "type": "Feature",
   "geometry": {
    "type": "LineString",
    "coordinates": [
     [
      -81.55767183802963,
      28.410614859792197
     ],
     [
      -81.55770783365283,
      28.410604326237895
     ],
     [
      -81.55774218106923,
      28.410589263182352
     ],
     [
      -81.55777431297517,
      28.410569919416535
     ],
     [
      -81.55780369865977,
      28.41054661443431
     ],
     [
      -81.55784349434481,
      28.410503387109085
     ],
     [
      -81.55787840565017,
      28.410456127200572
     ]
    ]
   },
   "properties": {
    "theoretical_left": [
     376,
     398
    ],
    "theoretical_right": [
     377,
     399
    ],
    "from": "Cypress Knee Cir",
    "to": "Terry Trl, Big Pine Dr",
    "length_ft": 90.6
   }
  }
 ]
}