{
 "type": "FeatureCollection",
 "features": [
  {
   "type": "Feature",
   "geometry": {
    "type": "LineString",
    "coordinates": [
     [
      -81.5594347,
      28.402164
     ],
     [
      -81.5591171,
      28.4021942
     ],
     [
      -81.5588596,
      28.4022622
     ],
     [
      -81.5587309,
      28.4023452
     ],
     [
      -81.5587147,
      28.4023986
     ],
     [
      -81.5586966,
      28.4024585
     ],
     [
      -81.5587223,
      28.4026019
     ],
     [
      -81.5588253,
      28.402685
     ],
     [
      -81.558954,
      28.4028133
     ],
     [
      -81.5589775,
      28.4028918
     ],
     [
      -81.558997,
      28.4029568
     ],
     [
      -81.5590485,
      28.4032436
     ],
     [
      -81.5590914,
      28.4033644
     ],
     [
      -81.5591515,
      28.4034097
     ],
     [
      -81.5592544,
      28.4034248
     ],
     [
      -81.5593746,
      28.4034173
     ],
     [
      -81.559469,
      28.4033644
     ],
     [
      -81.5595377,
      28.4032587
     ],
     [
      -81.559572,
      28.4027152
     ],
     [
      -81.5595806,
      28.4022697
     ],
     [
      -81.5595034,
      28.4021867
     ],
     [
      -81.5594347,
      28.402164
     ]
    ]
   },
   "properties": {
    "source": "OpenStreetMap",
    "streets": [
     "Bobcat Bend"
    ],
    "length_ft": 1252.3
   }
  }
 ]
}