{
 "type": "FeatureCollection",
 "features": [
  {
   "type": "Feature",
   "geometry": {
    "type": "LineString",
    "coordinates": [
     [
      -81.55501886160044,
      28.403913091639538
     ],
     [
      -81.55515735105747,
      28.403980188787173
     ],
     [
      -81.55529772574945,
      28.404043246719088
     ],
     [
      -81.55544202027163,
      28.404111681305114
     ],
     [
      -81.55545696751938,
      28.40412003644529
     ],
     [
      -81.55547033999088,
      28.404130732500086
     ],
     [
      -81.55548177468532,
      28.404143479121032
     ],
     [
      -81.55549096120355,
      28.40415793029625
     ],
     [
      -81.55549765017405,
      28.404173693743086
     ],
     [
      -81.55550166002214,
      28.404190341556774
     ],
     [
      -81.55550288189902,
      28.404207421826072
     ],
     [
      -81.55550128263633,
      28.404224470900573
     ],
     [
      -81.55549690564668,
      28.404241025976653
     ],
     [
      -81.55546875129149,
      28.404339278753078
     ],
     [
      -81.55543683561856,
      28.404436374919914
     ],
     [
      -81.55540120593882,
      28.40453217054462
     ],
     [
      -81.55538919469356,
      28.404567720316162
     ],
     [
      -81.555372365755,
      28.404601258996752
     ],
     [
      -81.55535104486786,
      28.40463213740411
     ],
     [
      -81.55532564472406,
      28.40465975784879
     ],
     [
      -81.55529665697455,
      28.40468358570323
     ],
     [
      -81.55523551973609,
      28.404724515037945
     ],
     [
      -81.55517125698519,
      28.404760337813045
     ],
     [
      -81.5551042942826,
      28.404790816802993
     ],
     [
      -81.55503507506862,
      28.404815750169867
     ],
     [
      -81.5549225455444,
      28.4048610332749
     ],
     [
      -81.5548079162515,
      28.40490070163297
     ],
     [
      -81.55473773326098,
      28.404917761722306
     ],
     [
      -81.5546663952024,
      28.404929056863075
     ],
     [
      -81.55459437480232,
      28.404934512207248
     ],
     [
      -81.55445510102727,
      28.404942886198295
     ],
     [
      -81.55431563178445,
      28.404946840746504
     ]
    ]
   },
   "properties": {
    "theoretical_left": [
     1612,
     1650
    ],
    "theoretical_right": [
     1613,
     1651
    ],
    "from": "Timber Trl",
    "to": "Timber Trl",
    "length_ft": 721.5
   }
  }
 ]
}