{
 "type": "FeatureCollection",
 "features": [
  {
   "type": "Feature",
   "geometry": {
    "type": "LineString",
    "coordinates": [
     [
      -81.56109198236273,
      28.406342736437395
     ],
     [
      -81.56104346894097,
      28.406328560050728
     ],
     [
      -81.56099352018357,
      28.40632083711963
     ],
     [
      -81.56094299070216,
      28.40631969978167
     ],
     [
      -81.5608927450444,
      28.406325167496433
     ],
     [
      -81.56084364290177,
      28.40633714671259
     ],
     [
      -81.56079652440054,
      28.40635543246856
     ],
     [
      -81.5607163896125,
      28.406406587381245
     ],
     [
      -81.56063847432152,
      28.40646106321791
     ],
     [
      -81.56056291606458,
      28.406518763817193
     ],
     [
      -81.56047744339332,
      28.40655965900784
     ],
     [
      -81.56038919155499,
      28.4065941496904
     ],
     [
      -81.56029863966847,
      28.406622048615095
     ],
     [
      -81.56020627933958,
      28.40664320431878
     ],
     [
      -81.56011261199217,
      28.406657501947222
     ],
     [
      -81.56004183970153,
      28.40667107158932
     ],
     [
      -81.55997254410333,
      28.406690844610875
     ],
     [
      -81.55990526781555,
      28.4067166661796
     ],
     [
      -81.55984053764394,
      28.406748334100158
     ],
     [
      -81.55977886045694,
      28.406785600397466
     ],
     [
      -81.5597207192167,
      28.406828173258447
     ],
     [
      -81.55966656919713,
      28.406875719317068
     ],
     [
      -81.55928033269721,
      28.40733199940375
     ]
    ]
   },
   "properties": {
    "theoretical_left": [
     852,
     898
    ],
    "theoretical_right": [
     853,
     899
    ],
    "from": "Jack Rabbit Run",
    "to": "Jack Rabbit Run",
    "length_ft": 723.1
   }
  }
 ]
}