{
 "type": "FeatureCollection",
 "features": [
  {
   "type": "Feature",
   "geometry": {
    "type": "LineString",
    "coordinates": [
     [
      -81.5580013,
      28.4101515
     ],
     [
      -81.5580528,
      28.4100458
     ],
     [
      -81.5581215,
      28.4099477
     ],
     [
      -81.5582159,
      28.4098722
     ],
     [
      -81.5583361,
      28.4098118
     ],
     [
      -81.558379,
      28.4097514
     ],
     [
      -81.5584047,
      28.4096835
     ],
     [
      -81.5584734,
      28.409608
     ],
     [
      -81.558585,
      28.4095023
     ],
     [
      -81.5586794,
      28.4094192
     ],
     [
      -81.558748,
      28.4093211
     ],
     [
      -81.5587652,
      28.4092079
     ],
     [
      -81.5587223,
      28.4091248
     ],
     [
      -81.5586021,
      28.4090418
     ],
     [
      -81.558482,
      28.4090342
     ],
     [
      -81.5583876,
      28.4090795
     ],
     [
      -81.5582331,
      28.4091475
     ],
     [
      -81.5581129,
      28.4092079
     ],
     [
      -81.557967,
      28.4092607
     ],
     [
      -81.5578382,
      28.4092683
     ],
     [
      -81.5576923,
      28.4092607
     ],
     [
      -81.5575293,
      28.4092532
     ],
     [
      -81.5574177,
      28.4092305
     ],
     [
      -81.5572975,
      28.4092381
     ],
     [
      -81.5572203,
      28.4092909
     ],
     [
      -81.5571945,
      28.4093966
     ],
     [
      -81.5572288,
      28.4095174
     ],
     [
      -81.5572975,
      28.4096004
     ],
     [
      -81.5574153,
      28.4096358
     ],
     [
      -81.5575269,
      28.4096736
     ],
     [
      -81.5576384,
      28.4097415
     ],
     [
      -81.55775,
      28.4098397
     ],
     [
      -81.5578125,
      28.4099477
     ],
     [
      -81.5578812,
      28.4100383
     ],
     [
      -81.5580013,
      28.4101515
     ]
    ]
   },
   "properties": {
    "source": "OpenStreetMap",
    "streets": [
     "Buffalo Bend"
    ],
    "length_ft": 1426.2
   }
  }
 ]
}