{
 "type": "FeatureCollection",
 "features": [
  {
   "type": "Feature",
   "geometry": {
    "type": "LineString",
    "coordinates": [
     [
      -81.5589167,
      28.4085054
     ],
     [
      -81.5591257,
      28.4084982
     ],
     [
      -81.559303,
      28.4085517
     ],
     [
      -81.5594433,
      28.4086417
     ],
     [
      -81.5595291,
      28.4087398
     ],
     [
      -81.5595892,
      28.4089361
     ],
     [
      -81.5596493,
      28.4091097
     ],
     [
      -81.5596812,
      28.409206
     ],
     [
      -81.5597094,
      28.4092909
     ],
     [
      -81.559814,
      28.4094659
     ],
     [
      -81.5599534,
      28.4095874
     ],
     [
      -81.5600487,
      28.4096582
     ],
     [
      -81.5601557,
      28.4097514
     ],
     [
      -81.5602415,
      28.4098496
     ],
     [
      -81.5603303,
      28.4100179
     ],
     [
      -81.5603531,
      28.410144
     ],
     [
      -81.5603445,
      28.4102723
     ],
     [
      -81.5602758,
      28.4104007
     ],
     [
      -81.56019,
      28.4104988
     ],
     [
      -81.5600668,
      28.4105589
     ]
    ]
   },
   "properties": {
    "source": "OpenStreetMap",
    "streets": [
     "Cinnamon Fern Way"
    ],
    "length_ft": 1010.4
   }
  }
 ]
}